target_name,xco2,latitude,longitude,datetime,tag,location_1,city_country,country,city
b'fossil_Abu_Dhabi_UAE',411.950531,24.13073848,54.18063088,12/2/19 9:28,b'fossil,Abu_Dhabi_UAE',Abu_Dhabi_UAE,UAE,Abu_Dhabi
b'fossil_Ad_Damman_Saudi_Arabia',409.8683167,26.20162476,49.64826001,10/9/19 7:21,b'fossil,Ad_Damman_Saudi_Arabia',Ad_Damman_Saudi_Arabia,Saudi_Arabia,Ad_Damman
b'fossil_Adelaide_Australia',408.9055328,-34.88572208,138.5711484,9/23/19 4:12,b'fossil,Adelaide_Australia',Adelaide_Australia,Australia,Adelaide
b'fossil_Ahmadabad_India',410.0808411,23.73693666,71.92324315,12/22/19 9:37,b'fossil,Ahmadabad_India',Ahmadabad_India,India,Ahmadabad
b'fossil_Al-Ahmadi_Kuwait',407.8671265,28.4758751,47.1653438,10/12/19 6:32,b'fossil,Al-Ahmadi_Kuwait',Al-Ahmadi_Kuwait,Kuwait,Al-Ahmadi
b'fossil_Al_Ahmadi_Kuwait',408.5321655,28.71974823,47.48835911,10/8/19 8:10,b'fossil,Al_Ahmadi_Kuwait',Al_Ahmadi_Kuwait,Kuwait,Al_Ahmadi
b'fossil_Almaty_Kazakhstan',408.2819977,43.27211371,76.62865271,10/13/19 5:51,b'fossil,Almaty_Kazakhstan',Almaty_Kazakhstan,Kazakhstan,Almaty
b'fossil_Ashgabat_Turkmenistan',407.7342224,37.85157878,58.06680962,10/8/19 8:13,b'fossil,Ashgabat_Turkmenistan',Ashgabat_Turkmenistan,Turkmenistan,Ashgabat
b'fossil_Astana_Kazakhstan',408.6381531,51.31249322,71.10419628,10/15/19 7:27,b'fossil,Astana_Kazakhstan',Astana_Kazakhstan,Kazakhstan,Astana
b'fossil_Baghdad_Iraq',408.2020874,33.19315033,44.16622773,10/7/19 8:58,b'fossil,Baghdad_Iraq',Baghdad_Iraq,Iraq,Baghdad
b'fossil_Baotou_China',409.9767761,40.62119163,109.6313881,10/8/19 5:08,b'fossil,Baotou_China',Baotou_China,China,Baotou
b'fossil_Beijing_China',413.9494629,39.83265377,115.8935261,10/9/19 4:21,b'fossil,Beijing_China',Beijing_China,China,Beijing
b'fossil_Benha_Egypt',408.1816101,30.22574578,30.77065196,10/9/19 8:55,b'fossil,Benha_Egypt',Benha_Egypt,Egypt,Benha
b'fossil_Bogota_Colombia',409.7174988,4.778598785,-73.96134567,10/7/19 15:02,b'fossil,Bogota_Colombia',Bogota_Colombia,Colombia,Bogota
b'fossil_Brisbane_Australia',409.9594116,-27.28543175,152.8029879,9/13/19 22:31,b'fossil,Brisbane_Australia',Brisbane_Australia,Australia,Brisbane
b'fossil_Bucharest_Romania',408.1051941,44.32165714,25.9036865,10/12/19 9:45,b'fossil,Bucharest_Romania',Bucharest_Romania,Romania,Bucharest
b'fossil_Budapest_Hungary',409.6685638,47.37064697,18.57738942,10/13/19 10:32,b'fossil,Budapest_Hungary',Budapest_Hungary,Hungary,Budapest
b'fossil_Buenos_Aires_Argentina',408.9176941,-34.88869248,-58.67762525,9/18/19 18:58,b'fossil,Buenos_Aires_Argentina',Buenos_Aires_Argentina,Argentina,Buenos_Aires
b'fossil_Cape_Town_South_Africa',412.3185425,-33.86478398,18.64757068,9/14/19 7:50,b'fossil,Cape_Town_South_Africa',Cape_Town_South_Africa,South_Africa,Cape_Town
b'fossil_Chennai_India',407.5292053,13.1279001,80.1159958,10/8/19 4:59,b'fossil,Chennai_India',Chennai_India,India,Chennai
b'fossil_Cleveland_USA',409.4546509,41.05508096,-82.20519015,10/15/19 15:04,b'fossil,Cleveland_USA',Cleveland_USA,USA,Cleveland
b'fossil_Cologne_Germany',407.9762573,50.67925317,6.341431267,10/13/19 12:07,b'fossil,Cologne_Germany',Cologne_Germany,Germany,Cologne
b'fossil_Denver_USA',407.9781952,39.45911975,-105.1828095,10/8/19 19:03,b'fossil,Denver_USA',Denver_USA,USA,Denver
b'fossil_Detroit_USA',411.4319305,42.26282528,-83.77673264,10/7/19 18:19,b'fossil,Detroit_USA',Detroit_USA,USA,Detroit
b'fossil_Doha_Qatar',407.6885071,25.2978528,51.34983014,10/13/19 5:44,b'fossil,Doha_Qatar',Doha_Qatar,Qatar,Doha
b'fossil_Dubai_UAE',407.7073669,25.1058143,55.29156886,10/10/19 6:33,b'fossil,Dubai_UAE',Dubai_UAE,UAE,Dubai
b'fossil_Durban_South_Africa',408.5401306,-30.20800622,30.57939786,9/20/19 12:48,b'fossil,Durban_South_Africa',Durban_South_Africa,South_Africa,Durban
b'fossil_Esfahan_Iran',412.072937,33.0778429,51.070715,12/24/19 9:32,b'fossil,Esfahan_Iran',Esfahan_Iran,Iran,Esfahan
b'fossil_Fremantle_Australia',408.9827271,-31.95758199,115.9095049,9/19/19 7:22,b'fossil,Fremantle_Australia',Fremantle_Australia,Australia,Fremantle
b'fossil_Guadalajara_Mexico',408.2552185,20.81961467,-103.3651422,10/8/19 17:24,b'fossil,Guadalajara_Mexico',Guadalajara_Mexico,Mexico,Guadalajara
b'fossil_Guangzhou_China',411.2704468,22.6971827,112.7991259,10/12/19 1:52,b'fossil,Guangzhou_China',Guangzhou_China,China,Guangzhou
b'fossil_Hanoi_Vietnam',408.0222473,20.78800459,105.5314273,10/11/19 2:39,b'fossil,Hanoi_Vietnam',Hanoi_Vietnam,Vietnam,Hanoi
b'fossil_Harbin_China',409.4437561,45.68484889,126.3015064,10/9/19 4:23,b'fossil,Harbin_China',Harbin_China,China,Harbin
b'fossil_Ho_Chi_Minh_City_Vietnam',412.0697937,11.66672856,106.2273581,12/22/19 8:09,b'fossil,Ho_Chi_Minh_City_Vietnam',Ho_Chi_Minh_City_Vietnam,Vietnam,Ho_Chi_Minh_City
b'fossil_Hong_Kong_China',412.5428467,22.56175972,113.9862182,11/30/19 6:25,b'fossil,Hong_Kong_China',Hong_Kong_China,China,Hong_Kong
b'fossil_Huhot_China',414.5463867,25.19510516,118.8642545,12/22/19 6:33,b'fossil,Huhot_China',Huhot_China,China,Huhot
b'fossil_Istanbul_Turkey',409.0101166,40.8326958,29.10475319,10/10/19 9:45,b'fossil,Istanbul_Turkey',Istanbul_Turkey,Turkey,Istanbul
b'fossil_Jinan_China',415.3638916,37.53229291,118.4367488,12/6/19 4:52,b'fossil,Jinan_China',Jinan_China,China,Jinan
b'fossil_Johannesburg_South_Africa',411.1414948,-26.36612183,27.81086302,9/19/19 13:35,b'fossil,Johannesburg_South_Africa',Johannesburg_South_Africa,South_Africa,Johannesburg
b'fossil_Karachi_Pakistan',407.5383301,25.0850632,67.13862352,10/8/19 6:36,b'fossil,Karachi_Pakistan',Karachi_Pakistan,Pakistan,Karachi
b'fossil_Khartoum_Sudan',411.2765503,15.74440483,32.4590295,12/22/19 12:46,b'fossil,Khartoum_Sudan',Khartoum_Sudan,Sudan,Khartoum
b'fossil_Kolkata_India',405.6733398,22.73688515,88.39081807,10/12/19 3:24,b'fossil,Kolkata_India',Kolkata_India,India,Kolkata
b'fossil_Lahore_Pakistan',409.093338,31.45095254,74.14994431,10/8/19 6:38,b'fossil,Lahore_Pakistan',Lahore_Pakistan,Pakistan,Lahore
b'fossil_Lima_Peru',406.3945618,-12.15984413,-76.72965676,9/13/19 13:11,b'fossil,Lima_Peru',Lima_Peru,Peru,Lima
b'fossil_London_UK',408.0757904,51.26982274,-2.203126963,10/15/19 12:06,b'fossil,London_UK',London_UK,UK,London
b'fossil_Manila_Philippines',408.8379517,14.45486806,120.9142263,10/7/19 2:41,b'fossil,Manila_Philippines',Manila_Philippines,Philippines,Manila
b'fossil_Mashhad_Iran',408.4963379,36.19926378,59.23842693,10/16/19 4:58,b'fossil,Mashhad_Iran',Mashhad_Iran,Iran,Mashhad
b'fossil_Mecca_Saudi_Arabia',407.5782166,21.45016277,39.681644,10/12/19 6:29,b'fossil,Mecca_Saudi_Arabia',Mecca_Saudi_Arabia,Saudi_Arabia,Mecca
b'fossil_Medina_Saudi_Arabia',411.3781738,24.47070459,39.47504057,10/15/19 5:41,b'fossil,Medina_Saudi_Arabia',Medina_Saudi_Arabia,Saudi_Arabia,Medina
b'fossil_Melbourne_Australia',409.5496521,-37.53618964,144.7167416,9/14/19 0:08,b'fossil,Melbourne_Australia',Melbourne_Australia,Australia,Melbourne
b'fossil_Miami_USA',406.4740753,25.79768338,-80.26429367,10/11/19 15:04,b'fossil,Miami_USA',Miami_USA,USA,Miami
b'fossil_Milan_Italy',409.1287537,45.71000623,9.551335567,10/13/19 10:31,b'fossil,Milan_Italy',Milan_Italy,Italy,Milan
b'fossil_Montreal_Canada',408.7624207,45.25143856,-73.55075956,10/15/19 15:06,b'fossil,Montreal_Canada',Montreal_Canada,Canada,Montreal
b'fossil_Mumbai_India',406.4798279,19.28076681,73.09270986,10/10/19 4:59,b'fossil,Mumbai_India',Mumbai_India,India,Mumbai
b'fossil_Munich_Germany',408.2027893,47.60024071,11.02315855,10/8/19 12:57,b'fossil,Munich_Germany',Munich_Germany,Germany,Munich
b'fossil_Naples_Italy',408.6439819,40.96930025,14.43844914,10/8/19 11:20,b'fossil,Naples_Italy',Naples_Italy,Italy,Naples
b'fossil_New_Delhi_India',408.5414581,28.51891132,76.89172757,10/9/19 5:49,b'fossil,New_Delhi_India',New_Delhi_India,India,New_Delhi
b'fossil_Orlando_USA',409.9533234,28.07108498,-81.81589127,10/10/19 15:52,b'fossil,Orlando_USA',Orlando_USA,USA,Orlando
b'fossil_Osaka_Japan',409.7393799,34.09662466,134.3379287,10/6/19 3:36,b'fossil,Osaka_Japan',Osaka_Japan,Japan,Osaka
b'fossil_Peshawar_Pakistan',409.3595581,33.93254677,71.40173454,10/11/19 5:49,b'fossil,Peshawar_Pakistan',Peshawar_Pakistan,Pakistan,Peshawar
b'fossil_Phoenix_USA',408.7497559,33.25948129,-112.2456642,10/8/19 19:01,b'fossil,Phoenix_USA',Phoenix_USA,USA,Phoenix
b'fossil_Pittsburgh_USA',409.3745117,40.1151258,-80.47245027,10/8/19 17:31,b'fossil,Pittsburgh_USA',Pittsburgh_USA,USA,Pittsburgh
b'fossil_Portland_USA',408.6573944,45.29788055,-123.0654314,10/11/19 19:49,b'fossil,Portland_USA',Portland_USA,USA,Portland
b'fossil_Prague_Czech_Republic',408.5923462,50.01745206,14.02260009,10/11/19 12:09,b'fossil,Prague_Czech_Republic',Prague_Czech_Republic,Czech_Republic,Prague
b'fossil_Pune_India',406.0421448,18.5135732,73.71919197,10/14/19 3:21,b'fossil,Pune_India',Pune_India,India,Pune
b'fossil_Qingdao_China',412.8258057,36.2891945,120.1205973,10/7/19 4:22,b'fossil,Qingdao_China',Qingdao_China,China,Qingdao
b'fossil_Quanzhou_China',411.1757202,24.85960259,118.7032087,10/9/19 2:43,b'fossil,Quanzhou_China',Quanzhou_China,China,Quanzhou
b'fossil_Rome_Italy',408.3359375,41.99216539,12.92759022,10/7/19 12:09,b'fossil,Rome_Italy',Rome_Italy,Italy,Rome
b'fossil_Rostov-on-Don_Russia',408.2102356,47.08133753,39.52552433,10/13/19 8:59,b'fossil,Rostov-on-Don_Russia',Rostov-on-Don_Russia,Russia,Rostov-on-Don
b'fossil_Rostov_on_Don_Russia',408.5481567,46.99073405,39.46125402,10/9/19 10:36,b'fossil,Rostov_on_Don_Russia',Rostov_on_Don_Russia,Russia,Rostov_on_Don
b'fossil_Sacramento_USA',410.8496704,38.355891,-121.9071262,10/13/19 18:11,b'fossil,Sacramento_USA',Sacramento_USA,USA,Sacramento
b'fossil_Samut_Prakan_Thailand',414.3360443,13.85400147,100.47477,11/29/19 7:09,b'fossil,Samut_Prakan_Thailand',Samut_Prakan_Thailand,Thailand,Samut_Prakan
b'fossil_Santiago_Chile',409.9111938,-33.35842027,-70.95738005,12/1/19 14:34,b'fossil,Santiago_Chile',Santiago_Chile,Chile,Santiago
b'fossil_Sao_Paulo_Brazil',409.8249207,-24.76101379,-47.58368454,12/3/19 13:04,b'fossil,Sao_Paulo_Brazil',Sao_Paulo_Brazil,Brazil,Sao_Paulo
b'fossil_Seattle_USA',409.16922,47.34091735,-122.7182413,10/10/19 20:38,b'fossil,Seattle_USA',Seattle_USA,USA,Seattle
b'fossil_Shah_Alam_Malaysia',413.4931335,4.195788746,100.9279374,12/24/19 8:09,b'fossil,Shah_Alam_Malaysia',Shah_Alam_Malaysia,Malaysia,Shah_Alam
b'fossil_Shenyang_China',409.6468811,41.64664057,122.8535782,10/14/19 1:56,b'fossil,Shenyang_China',Shenyang_China,China,Shenyang
b'fossil_Singapore_Singapore',408.1886597,1.58855772,103.7679723,9/24/19 8:16,b'fossil,Singapore_Singapore',Singapore_Singapore,Singapore,Singapore
b'fossil_Sohag_Egypt',408.4249878,26.41999566,31.5349084,10/10/19 8:06,b'fossil,Sohag_Egypt',Sohag_Egypt,Egypt,Sohag
b'fossil_St_Petersburg_USA',412.4482727,28.10807683,-82.398868,12/6/19 17:10,b'fossil,St_Petersburg_USA',St_Petersburg_USA,USA,St_Petersburg
b'fossil_Tabriz_Iran',409.0116577,38.00858709,46.04128847,10/10/19 8:11,b'fossil,Tabriz_Iran',Tabriz_Iran,Iran,Tabriz
b'fossil_Tehran_Iran',408.7706604,35.46309666,50.978212,10/11/19 7:23,b'fossil,Tehran_Iran',Tehran_Iran,Iran,Tehran
b'fossil_Toronto_Canada',408.7370911,43.36916277,-79.80085326,10/11/19 16:43,b'fossil,Toronto_Canada',Toronto_Canada,Canada,Toronto
b'fossil_Urumqi_China',411.4475708,43.82270769,87.38581041,10/11/19 5:53,b'fossil,Urumqi_China',Urumqi_China,China,Urumqi
b'fossil_Vancouver_Canada',408.5005188,49.04444248,-123.3360859,10/9/19 21:27,b'fossil,Vancouver_Canada',Vancouver_Canada,Canada,Vancouver
b'fossil_Vienna_Austria',408.4693604,48.22276822,15.83945503,10/12/19 11:20,b'fossil,Vienna_Austria',Vienna_Austria,Austria,Vienna
b'fossil_Wuhan_China',417.1842194,30.64616299,114.0383453,10/11/19 2:42,b'fossil,Wuhan_China',Wuhan_China,China,Wuhan
b'fossil_Xiamen_China',413.4130554,24.67126812,117.8345537,12/26/19 4:54,b'fossil,Xiamen_China',Xiamen_China,China,Xiamen
b'fossil_Abu_Dhabi_UAE',414.0574951,24.10884327,54.46394573,2/9/20 6:26,b'fossil,Abu_Dhabi_UAE',Abu_Dhabi_UAE,UAE,Abu_Dhabi
b'fossil_Ad_Damman_Saudi_Arabia',411.8653259,26.59154206,49.6233205,6/9/20 6:53,b'fossil,Ad_Damman_Saudi_Arabia',Ad_Damman_Saudi_Arabia,Saudi_Arabia,Ad_Damman
b'fossil_Adelaide_Australia',409.7769775,-34.7263062,138.7060565,1/15/20 6:59,b'fossil,Adelaide_Australia',Adelaide_Australia,Australia,Adelaide
b'fossil_Ahmadabad_India',411.2012787,22.90997251,72.36324056,4/25/20 8:25,b'fossil,Ahmadabad_India',Ahmadabad_India,India,Ahmadabad
b'fossil_Ahvaz_Iran',411.8448181,31.31193391,48.56000368,8/5/20 8:50,b'fossil,Ahvaz_Iran',Ahvaz_Iran,Iran,Ahvaz
b'fossil_Al-Ahmadi_Kuwait',414.5006866,29.33725025,47.65403715,6/12/20 6:05,b'fossil,Al-Ahmadi_Kuwait',Al-Ahmadi_Kuwait,Kuwait,Al-Ahmadi
b'fossil_Al_Ain_UAE',411.0247498,24.04526523,55.51950993,4/19/20 11:32,b'fossil,Al_Ain_UAE',Al_Ain_UAE,UAE,Al_Ain
b'fossil_Al_Hofuf_Saudi_Arabia',413.902298,25.86712834,49.19584362,2/23/20 9:59,b'fossil,Al_Hofuf_Saudi_Arabia',Al_Hofuf_Saudi_Arabia,Saudi_Arabia,Al_Hofuf
b'fossil_Almaty_Kazakhstan',409.8302307,43.20945908,76.39710983,6/9/20 6:59,b'fossil,Almaty_Kazakhstan',Almaty_Kazakhstan,Kazakhstan,Almaty
b'fossil_Amman_Jordan',411.4976501,32.03372152,35.90466195,2/9/20 8:02,b'fossil,Amman_Jordan',Amman_Jordan,Jordan,Amman
b'fossil_Ankara_Turkey',409.5007172,40.01215427,32.54297695,5/26/20 14:47,b'fossil,Ankara_Turkey',Ankara_Turkey,Turkey,Ankara
b'fossil_Ashgabat_Turkmenistan',412.4772339,37.89177234,58.14860524,5/27/20 12:26,b'fossil,Ashgabat_Turkmenistan',Ashgabat_Turkmenistan,Turkmenistan,Ashgabat
b'fossil_Astana_Kazakhstan',407.2235718,51.06883573,71.01265444,6/4/20 10:58,b'fossil,Astana_Kazakhstan',Astana_Kazakhstan,Kazakhstan,Astana
b'fossil_Athens_Greece',412.5822144,38.11331453,23.31266446,6/6/20 10:49,b'fossil,Athens_Greece',Athens_Greece,Greece,Athens
b'fossil_Atlanta_USA',412.0423737,33.70276348,-84.55899634,5/28/20 20:55,b'fossil,Atlanta_USA',Atlanta_USA,USA,Atlanta
b'fossil_Baabda_Lebanon',413.3489075,34.45671561,36.0659291,2/26/20 9:08,b'fossil,Baabda_Lebanon',Baabda_Lebanon,Lebanon,Baabda
b'fossil_Baghdad_Iraq',413.2257385,33.27716311,44.26532293,5/26/20 13:11,b'fossil,Baghdad_Iraq',Baghdad_Iraq,Iraq,Baghdad
b'fossil_Baltimore_USA',413.4520569,39.06801058,-77.41129711,2/12/20 15:02,b'fossil,Baltimore_USA',Baltimore_USA,USA,Baltimore
b'fossil_Bangalore_India',411.5510559,13.14385066,77.51822392,2/22/20 9:16,b'fossil,Bangalore_India',Bangalore_India,India,Bangalore
b'fossil_Baotou_China',412.2479553,40.3985795,109.5373604,5/27/20 9:22,b'fossil,Baotou_China',Baotou_China,China,Baotou
b'fossil_Barcelona_Spain',412.071228,41.50263263,1.89865531,6/9/20 11:38,b'fossil,Barcelona_Spain',Barcelona_Spain,Spain,Barcelona
b'fossil_Beijing_China',416.6079407,40.1124926,116.1391566,5/28/20 8:36,b'fossil,Beijing_China',Beijing_China,China,Beijing
b'fossil_Benha_Egypt',412.6767273,30.484846,31.03151877,5/28/20 13:09,b'fossil,Benha_Egypt',Benha_Egypt,Egypt,Benha
b'fossil_Bogota_Colombia',411.8300323,4.533470033,-74.09986183,5/22/20 20:48,b'fossil,Bogota_Colombia',Bogota_Colombia,Colombia,Bogota
b'fossil_Boston_USA',407.0747681,42.20795559,-71.39741406,6/9/20 16:15,b'fossil,Boston_USA',Boston_USA,USA,Boston
b'fossil_Brisbane_Australia',410.342453,-27.65926493,152.57121,5/25/20 2:47,b'fossil,Brisbane_Australia',Brisbane_Australia,Australia,Brisbane
b'fossil_Brussels_Belgium',414.7973785,50.78573681,3.995446347,4/8/20 15:07,b'fossil,Brussels_Belgium',Brussels_Belgium,Belgium,Brussels
b'fossil_Bucharest_Romania',409.1663208,44.39526823,25.94627076,6/4/20 12:27,b'fossil,Bucharest_Romania',Bucharest_Romania,Romania,Bucharest
b'fossil_Budapest_Hungary',411.1995239,47.43414861,18.69654498,6/6/20 12:28,b'fossil,Budapest_Hungary',Budapest_Hungary,Hungary,Budapest
b'fossil_Buenos_Aires_Argentina',410.214325,-34.48403033,-58.70151448,1/12/20 13:37,b'fossil,Buenos_Aires_Argentina',Buenos_Aires_Argentina,Argentina,Buenos_Aires
b'fossil_Calgary_Canada',408.0525818,50.96864459,-114.1034433,6/4/20 0:10,b'fossil,Calgary_Canada',Calgary_Canada,Canada,Calgary
b'fossil_Cape_Town_South_Africa',410.3275909,-33.7952076,18.62932228,2/25/20 14:57,b'fossil,Cape_Town_South_Africa',Cape_Town_South_Africa,South_Africa,Cape_Town
b'fossil_Caracas_Venezuela',410.7355194,9.948763084,-67.11707529,2/25/20 17:48,b'fossil,Caracas_Venezuela',Caracas_Venezuela,Venezuela,Caracas
b'fossil_Changchun_China',408.0709839,43.18736552,124.1231385,6/1/20 7:02,b'fossil,Changchun_China',Changchun_China,China,Changchun
b'fossil_Chengdu_China',415.7764282,30.7184251,104.0553634,2/25/20 5:17,b'fossil,Chengdu_China',Chengdu_China,China,Chengdu
b'fossil_Chennai_India',415.2054138,12.86008874,78.83041187,5/27/20 9:12,b'fossil,Chennai_India',Chennai_India,India,Chennai
b'fossil_Chicago_USA',410.1899414,41.88499871,-88.2460804,5/29/20 21:45,b'fossil,Chicago_USA',Chicago_USA,USA,Chicago
b'fossil_Chifeng_China',413.56987,42.15570289,118.8440123,2/8/20 4:14,b'fossil,Chifeng_China',Chifeng_China,China,Chifeng
b'fossil_Chios_Turkey',410.2332306,39.93078744,28.61609228,2/10/20 8:51,b'fossil,Chios_Turkey',Chios_Turkey,Turkey,Chios
b'fossil_Chongqing_China',413.7755585,29.19014588,106.2540237,5/29/20 7:44,b'fossil,Chongqing_China',Chongqing_China,China,Chongqing
b'fossil_Cleveland_USA',406.8940125,42.14074681,-82.68673068,8/22/20 17:39,b'fossil,Cleveland_USA',Cleveland_USA,USA,Cleveland
b'fossil_Cologne_Germany',410.0769043,50.85446159,6.60995112,6/6/20 15:39,b'fossil,Cologne_Germany',Cologne_Germany,Germany,Cologne
b'fossil_Columbus_USA',414.6951294,39.86458239,-83.16302195,3/29/20 21:06,b'fossil,Columbus_USA',Columbus_USA,USA,Columbus
b'fossil_Dalian_China',413.2792969,38.98212767,121.4687402,6/14/20 1:29,b'fossil,Dalian_China',Dalian_China,China,Dalian
b'fossil_Dallas_USA',408.5480957,32.60385447,-97.15721662,3/28/20 21:50,b'fossil,Dallas_USA',Dallas_USA,USA,Dallas
b'fossil_Datong_Shanxi_China',410.54776,39.95876643,113.0298671,7/29/20 8:09,b'fossil,Datong_Shanxi_China',Datong_Shanxi_China,China,Datong_Shanxi
b'fossil_Denver_USA',411.8194885,39.62730676,-105.1122864,5/27/20 23:17,b'fossil,Denver_USA',Denver_USA,USA,Denver
b'fossil_Detroit_USA',413.0132599,42.44637763,-83.50701553,5/26/20 22:32,b'fossil,Detroit_USA',Detroit_USA,USA,Detroit
b'fossil_Doha_Qatar',412.0065918,25.10360946,51.14246545,5/8/20 4:28,b'fossil,Doha_Qatar',Doha_Qatar,Qatar,Doha
b'fossil_Dubai_UAE',411.9944763,25.10601039,55.51732967,5/9/20 3:40,b'fossil,Dubai_UAE',Dubai_UAE,UAE,Dubai
b'fossil_Durban_South_Africa',410.7327423,-29.69965163,30.46306796,1/16/20 5:48,b'fossil,Durban_South_Africa',Durban_South_Africa,South_Africa,Durban
b'fossil_Esfahan_Iran',414.5152893,32.79632233,51.5651048,3/29/20 11:47,b'fossil,Esfahan_Iran',Esfahan_Iran,Iran,Esfahan
b'fossil_Fremantle_Australia',411.0405426,-32.03604219,116.0321789,1/14/20 1:11,b'fossil,Fremantle_Australia',Fremantle_Australia,Australia,Fremantle
b'fossil_Guadalajara_Mexico',413.6453552,20.72623082,-103.44829,5/23/20 23:11,b'fossil,Guadalajara_Mexico',Guadalajara_Mexico,Mexico,Guadalajara
b'fossil_Guangzhou_China',416.6578979,23.47925071,113.0239432,6/4/20 4:34,b'fossil,Guangzhou_China',Guangzhou_China,China,Guangzhou
b'fossil_Guiyang_China',411.1237793,26.2364112,106.342838,7/3/20 2:31,b'fossil,Guiyang_China',Guiyang_China,China,Guiyang
b'fossil_Hangzhou_China',411.5934753,30.48798529,120.0865945,6/12/20 1:28,b'fossil,Hangzhou_China',Hangzhou_China,China,Hangzhou
b'fossil_Hanoi_Vietnam',409.9219971,21.4638707,105.3931098,8/26/20 5:23,b'fossil,Hanoi_Vietnam',Hanoi_Vietnam,Vietnam,Hanoi
b'fossil_Harbin_China',415.7437439,45.47392384,126.4686594,5/28/20 8:37,b'fossil,Harbin_China',Harbin_China,China,Harbin
b'fossil_Hefei_China',413.6058655,31.6564576,117.2141334,10/11/20 1:47,b'fossil,Hefei_China',Hefei_China,China,Hefei
b'fossil_Ho_Chi_Minh_City_Vietnam',413.6805267,10.62667952,106.6003203,3/22/20 9:19,b'fossil,Ho_Chi_Minh_City_Vietnam',Ho_Chi_Minh_City_Vietnam,Vietnam,Ho_Chi_Minh_City
b'fossil_Hong_Kong_China',414.4255219,22.6901316,113.8949207,6/18/20 8:04,b'fossil,Hong_Kong_China',Hong_Kong_China,China,Hong_Kong
b'fossil_Houston_USA',414.0021362,29.83685256,-95.62652496,4/26/20 18:25,b'fossil,Houston_USA',Houston_USA,USA,Houston
b'fossil_Huhot_China',416.7667542,25.99802125,118.489952,4/30/20 2:56,b'fossil,Huhot_China',Huhot_China,China,Huhot
b'fossil_Indianapolis_USA',410.9586792,40.19541242,-86.67655494,7/5/20 13:15,b'fossil,Indianapolis_USA',Indianapolis_USA,USA,Indianapolis
b'fossil_Istanbul_Turkey',411.0806274,41.24454429,28.36824234,5/29/20 14:00,b'fossil,Istanbul_Turkey',Istanbul_Turkey,Turkey,Istanbul
b'fossil_Jakarta_Indonesia',411.9405518,-6.477465831,106.7112174,5/22/20 8:21,b'fossil,Jakarta_Indonesia',Jakarta_Indonesia,Indonesia,Jakarta
b'fossil_Janschwalde_Germany',408.3946838,51.68371402,13.69324291,6/12/20 12:30,b'fossil,Janschwalde_Germany',Janschwalde_Germany,Germany,Janschwalde
b'fossil_Jeddah_Saudi_Arabia',413.7063141,21.48097461,39.36300953,5/23/20 13:55,b'fossil,Jeddah_Saudi_Arabia',Jeddah_Saudi_Arabia,Saudi_Arabia,Jeddah
b'fossil_Jinan_China',415.9244232,36.69725581,116.9038158,4/17/20 0:15,b'fossil,Jinan_China',Jinan_China,China,Jinan
b'fossil_Johannesburg_South_Africa',411.4302979,-25.97040036,27.84822905,11/13/20 6:12,b'fossil,Johannesburg_South_Africa',Johannesburg_South_Africa,South_Africa,Johannesburg
b'fossil_Kansas_City_USA',414.9155579,39.2964261,-94.93229691,2/17/20 20:45,b'fossil,Kansas_City_USA',Kansas_City_USA,USA,Kansas_City
b'fossil_Kaoshsiung_Taiwan',414.6784973,22.75202734,120.4480523,1/3/20 1:45,b'fossil,Kaoshsiung_Taiwan',Kaoshsiung_Taiwan,Taiwan,Kaoshsiung
b'fossil_Karachi_Pakistan',411.4547424,25.16929771,67.05219324,5/27/20 10:49,b'fossil,Karachi_Pakistan',Karachi_Pakistan,Pakistan,Karachi
b'fossil_Katowice_Poland',408.4464111,50.17562041,18.28336825,8/5/20 15:16,b'fossil,Katowice_Poland',Katowice_Poland,Poland,Katowice
b'fossil_Khartoum_Sudan',412.7289124,15.1484667,32.27936007,3/25/20 13:13,b'fossil,Khartoum_Sudan',Khartoum_Sudan,Sudan,Khartoum
b'fossil_Kolkata_India',414.6484375,22.73692069,88.26487505,8/19/20 9:17,b'fossil,Kolkata_India',Kolkata_India,India,Kolkata
b'fossil_Lagos_Nigeria',413.4761353,6.549040409,3.424598493,5/23/20 15:23,b'fossil,Lagos_Nigeria',Lagos_Nigeria,Nigeria,Lagos
b'fossil_Lahore_Pakistan',415.6995544,31.32805358,74.45895356,5/27/20 10:51,b'fossil,Lahore_Pakistan',Lahore_Pakistan,Pakistan,Lahore
b'fossil_Las_Vegas_USA',413.5511475,36.21217765,-115.4365969,2/17/20 22:18,b'fossil,Las_Vegas_USA',Las_Vegas_USA,USA,Las_Vegas
b'fossil_Lima_Peru',410.7241211,-11.975013,-76.93527116,1/9/20 14:17,b'fossil,Lima_Peru',Lima_Peru,Peru,Lima
b'fossil_London_UK',410.7641602,51.30360879,-0.863492561,6/5/20 16:25,b'fossil,London_UK',London_UK,UK,London
b'fossil_Los_Angeles_USA',414.2945557,34.2900018,-118.4843393,2/24/20 19:59,b'fossil,Los_Angeles_USA',Los_Angeles_USA,USA,Los_Angeles
b'fossil_Luanda_Angola',411.8744049,-8.742227363,13.50562879,6/25/20 13:36,b'fossil,Luanda_Angola',Luanda_Angola,Angola,Luanda
b'fossil_Madrid_Spain',411.1271973,40.12310115,-4.016667991,5/28/20 16:19,b'fossil,Madrid_Spain',Madrid_Spain,Spain,Madrid
b'fossil_Maebashi_Japan',411.7780914,36.45766212,138.9446158,4/4/20 4:04,b'fossil,Maebashi_Japan',Maebashi_Japan,Japan,Maebashi
b'fossil_Manila_Philippines',413.3219757,14.80425659,120.9796339,6/18/20 8:08,b'fossil,Manila_Philippines',Manila_Philippines,Philippines,Manila
b'fossil_Maracaibo_Venezuela',411.7141724,10.73406104,-71.69204764,7/31/20 17:15,b'fossil,Maracaibo_Venezuela',Maracaibo_Venezuela,Venezuela,Maracaibo
b'fossil_Mashhad_Iran',411.283844,36.2133505,59.40036176,5/28/20 11:38,b'fossil,Mashhad_Iran',Mashhad_Iran,Iran,Mashhad
b'fossil_Mecca_Saudi_Arabia',415.2698669,21.63966214,40.14379844,6/4/20 9:12,b'fossil,Mecca_Saudi_Arabia',Mecca_Saudi_Arabia,Saudi_Arabia,Mecca
b'fossil_Medina_Saudi_Arabia',411.6909485,24.46587658,39.49278621,8/5/20 8:48,b'fossil,Medina_Saudi_Arabia',Medina_Saudi_Arabia,Saudi_Arabia,Medina
b'fossil_Melbourne_Australia',410.0127411,-37.58142843,144.669762,1/13/20 6:59,b'fossil,Melbourne_Australia',Melbourne_Australia,Australia,Melbourne
b'fossil_Mexico_City_Mexico',413.6573792,19.47288302,-99.19958129,2/8/20 16:28,b'fossil,Mexico_City_Mexico',Mexico_City_Mexico,Mexico,Mexico_City
b'fossil_Miami_USA',413.1451263,26.03205863,-80.61563028,8/15/20 21:39,b'fossil,Miami_USA',Miami_USA,USA,Miami
b'fossil_Milan_Italy',410.835022,45.29626616,8.978464182,5/28/20 16:22,b'fossil,Milan_Italy',Milan_Italy,Italy,Milan
b'fossil_Minneapolis_USA',414.2143097,44.98866387,-93.62367012,4/19/20 19:07,b'fossil,Minneapolis_USA',Minneapolis_USA,USA,Minneapolis
b'fossil_Monterrey_Mexico',412.3313293,25.52375402,-100.5199776,6/18/20 21:59,b'fossil,Monterrey_Mexico',Monterrey_Mexico,Mexico,Monterrey
b'fossil_Montreal_Canada',412.2191467,45.38358442,-74.02161042,6/7/20 17:50,b'fossil,Montreal_Canada',Montreal_Canada,Canada,Montreal
b'fossil_Mumbai_India',412.6850128,19.06312284,72.9247557,5/29/20 9:13,b'fossil,Mumbai_India',Mumbai_India,India,Mumbai
b'fossil_Munich_Germany',411.1190186,48.130049,11.24021683,8/21/20 7:23,b'fossil,Munich_Germany',Munich_Germany,Germany,Munich
b'fossil_Nagoya_Japan',414.7046814,35.13435782,136.9864843,2/9/20 1:51,b'fossil,Nagoya_Japan',Nagoya_Japan,Japan,Nagoya
b'fossil_Nairobi_Kenya',412.2836304,-1.458148867,36.60733142,7/23/20 12:35,b'fossil,Nairobi_Kenya',Nairobi_Kenya,Kenya,Nairobi
b'fossil_Nanjing_China',414.5774536,31.68049036,118.4197437,7/6/20 0:10,b'fossil,Nanjing_China',Nanjing_China,China,Nanjing
b'fossil_Naples_Italy',410.8912354,40.94534847,14.41649404,5/27/20 15:34,b'fossil,Naples_Italy',Naples_Italy,Italy,Naples
b'fossil_New_Delhi_India',413.9160614,28.78010587,77.05146872,6/1/20 8:29,b'fossil,New_Delhi_India',New_Delhi_India,India,New_Delhi
b'fossil_New_Orleans_USA',412.2721252,29.8944472,-90.44945396,8/14/20 14:14,b'fossil,New_Orleans_USA',New_Orleans_USA,USA,New_Orleans
b'fossil_New_York_USA',411.6725769,40.94917338,-74.53991472,6/14/20 20:21,b'fossil,New_York_USA',New_York_USA,USA,New_York
b'fossil_Ningbo_China',416.1069946,29.2823048,121.0120872,2/12/20 1:03,b'fossil,Ningbo_China',Ningbo_China,China,Ningbo
b'fossil_Orlando_USA',414.4537811,28.80628661,-81.74390819,6/22/20 18:50,b'fossil,Orlando_USA',Orlando_USA,USA,Orlando
b'fossil_Osaka_Japan',413.2956085,34.7304407,135.4307299,5/29/20 6:13,b'fossil,Osaka_Japan',Osaka_Japan,Japan,Osaka
b'fossil_Paris_France',414.1249695,48.78263939,1.995676484,2/19/20 11:22,b'fossil,Paris_France',Paris_France,France,Paris
b'fossil_Peshawar_Pakistan',414.2744141,33.96500051,71.41160002,5/26/20 11:39,b'fossil,Peshawar_Pakistan',Peshawar_Pakistan,Pakistan,Peshawar
b'fossil_Philadelphia_USA',412.1495972,39.99697551,-75.32856289,2/8/20 16:35,b'fossil,Philadelphia_USA',Philadelphia_USA,USA,Philadelphia
b'fossil_Phoenix_USA',413.4075623,33.45729704,-112.3122238,5/27/20 23:15,b'fossil,Phoenix_USA',Phoenix_USA,USA,Phoenix
b'fossil_Pittsburgh_USA',413.3201599,40.4710462,-80.03707024,5/31/20 20:10,b'fossil,Pittsburgh_USA',Pittsburgh_USA,USA,Pittsburgh
b'fossil_Portland_USA',412.9461365,45.33983585,-122.8822944,6/3/20 22:31,b'fossil,Portland_USA',Portland_USA,USA,Portland
b'fossil_Prague_Czech_Republic',408.1885071,50.06002389,14.19792503,6/5/20 14:51,b'fossil,Prague_Czech_Republic',Prague_Czech_Republic,Czech_Republic,Prague
b'fossil_Pune_India',413.4971161,18.67771637,73.82204114,6/10/20 4:29,b'fossil,Pune_India',Pune_India,India,Pune
b'fossil_Pusan_South_Korea',413.9430847,35.30648327,128.8177798,5/28/20 7:00,b'fossil,Pusan_South_Korea',Pusan_South_Korea,South_Korea,Pusan
b'fossil_Qingdao_China',414.8006744,36.35413721,119.8653916,5/26/20 8:35,b'fossil,Qingdao_China',Qingdao_China,China,Qingdao
b'fossil_Quanzhou_China',414.3755646,24.71657562,118.6368942,6/13/20 0:39,b'fossil,Quanzhou_China',Quanzhou_China,China,Quanzhou
b'fossil_Rio_de_Janeiro_Brazil',411.3266602,-22.53397979,-43.44735751,1/13/20 11:11,b'fossil,Rio_de_Janeiro_Brazil',Rio_de_Janeiro_Brazil,Brazil,Rio_de_Janeiro
b'fossil_Riyadh_Saudi_Arabia',412.2870789,24.50467861,46.585008,5/24/20 13:09,b'fossil,Riyadh_Saudi_Arabia',Riyadh_Saudi_Arabia,Saudi_Arabia,Riyadh
b'fossil_Rome_Italy',411.4104614,42.00894159,12.41764208,5/30/20 14:47,b'fossil,Rome_Italy',Rome_Italy,Italy,Rome
b'fossil_Rostov-on-Don_Russia',411.2737427,47.16753438,39.48956997,6/1/20 13:16,b'fossil,Rostov-on-Don_Russia',Rostov-on-Don_Russia,Russia,Rostov-on-Don
b'fossil_Sacramento_USA',411.9738617,38.63903189,-121.7141457,6/5/20 20:54,b'fossil,Sacramento_USA',Sacramento_USA,USA,Sacramento
b'fossil_Salt_Lake_City_USA',412.1473541,40.86703183,-112.4249227,6/27/20 17:56,b'fossil,Salt_Lake_City_USA',Salt_Lake_City_USA,USA,Salt_Lake_City
b'fossil_Samut_Prakan_Thailand',414.4980011,13.91653478,100.3134137,2/22/20 7:43,b'fossil,Samut_Prakan_Thailand',Samut_Prakan_Thailand,Thailand,Samut_Prakan
b'fossil_San_Antonio_USA',411.0546875,29.15409175,-98.79933496,7/1/20 16:26,b'fossil,San_Antonio_USA',San_Antonio_USA,USA,San_Antonio
b'fossil_San_Cristobal_Dominican_Republic',412.1665344,18.47371891,-70.12457347,5/25/20 20:05,b'fossil,San_Cristobal_Dominican_Republic',San_Cristobal_Dominican_Republic,Dominican_Republic,San_Cristobal
b'fossil_San_Diego_USA',411.5646057,32.73251426,-116.7828993,4/6/20 19:33,b'fossil,San_Diego_USA',San_Diego_USA,USA,San_Diego
b'fossil_San_Francisco_USA',411.8592682,37.77079855,-122.0107222,6/13/20 17:45,b'fossil,San_Francisco_USA',San_Francisco_USA,USA,San_Francisco
b'fossil_San_Jose_USA',412.2727051,37.36406612,-121.8031121,2/9/20 18:54,b'fossil,San_Jose_USA',San_Jose_USA,USA,San_Jose
b'fossil_Santiago_Chile',410.9786835,-33.3614038,-70.96585892,1/3/20 17:32,b'fossil,Santiago_Chile',Santiago_Chile,Chile,Santiago
b'fossil_Sao_Paulo_Brazil',410.9926758,-23.22726163,-46.92437661,3/7/20 14:04,b'fossil,Sao_Paulo_Brazil',Sao_Paulo_Brazil,Brazil,Sao_Paulo
b'fossil_Seattle_USA',411.1689758,47.46041707,-122.7038948,6/6/20 21:44,b'fossil,Seattle_USA',Seattle_USA,USA,Seattle
b'fossil_Seoul_South_Korea',416.6681824,37.61658272,126.8923893,6/4/20 4:39,b'fossil,Seoul_South_Korea',Seoul_South_Korea,South_Korea,Seoul
b'fossil_Shah_Alam_Malaysia',416.1635132,3.506214695,101.1397145,3/30/20 6:13,b'fossil,Shah_Alam_Malaysia',Shah_Alam_Malaysia,Malaysia,Shah_Alam
b'fossil_Shanghai_China',415.0489502,31.38246692,121.2567052,2/20/20 6:05,b'fossil,Shanghai_China',Shanghai_China,China,Shanghai
b'fossil_Shantou_China',414.8605652,23.32452985,116.5129092,2/12/20 1:00,b'fossil,Shantou_China',Shantou_China,China,Shantou
b'fossil_Shenyang_China',414.4434509,41.90681811,123.1209899,6/12/20 7:58,b'fossil,Shenyang_China',Shenyang_China,China,Shenyang
b'fossil_Shijiazhuang_China',416.4349365,38.20816025,114.3388014,7/3/20 0:53,b'fossil,Shijiazhuang_China',Shijiazhuang_China,China,Shijiazhuang
b'fossil_Singapore_Singapore',413.0210876,1.560140125,103.6262519,4/8/20 2:20,b'fossil,Singapore_Singapore',Singapore_Singapore,Singapore,Singapore
b'fossil_Sohag_Egypt',410.8747559,26.6069543,31.55752818,5/29/20 12:22,b'fossil,Sohag_Egypt',Sohag_Egypt,Egypt,Sohag
b'fossil_St_Louis_USA',412.8179321,38.12588438,-90.80568786,5/30/20 20:56,b'fossil,St_Louis_USA',St_Louis_USA,USA,St_Louis
b'fossil_St_Petersburg_USA',414.546875,27.95290886,-82.57154916,2/17/20 20:50,b'fossil,St_Petersburg_USA',St_Petersburg_USA,USA,St_Petersburg
b'fossil_Sydney_Australia',410.3948669,-34.19175193,150.6631774,2/24/20 6:26,b'fossil,Sydney_Australia',Sydney_Australia,Australia,Sydney
b'fossil_Tabriz_Iran',410.7727051,37.87485704,46.07870144,5/29/20 12:25,b'fossil,Tabriz_Iran',Tabriz_Iran,Iran,Tabriz
b'fossil_Taegu_South_Korea',416.0078125,34.92342944,127.1585073,4/7/20 3:18,b'fossil,Taegu_South_Korea',Taegu_South_Korea,South_Korea,Taegu
b'fossil_Taejon_South_Korea',413.9302521,36.21570011,127.0845041,6/15/20 23:54,b'fossil,Taejon_South_Korea',Taejon_South_Korea,South_Korea,Taejon
b'fossil_Taichung_Taiwan',413.54776,24.48182935,120.4865374,5/4/20 1:23,b'fossil,Taichung_Taiwan',Taichung_Taiwan,Taiwan,Taichung
b'fossil_Taipei_Taiwan',411.5619507,24.80593249,121.1745485,8/21/20 6:09,b'fossil,Taipei_Taiwan',Taipei_Taiwan,Taiwan,Taipei
b'fossil_Taiyuan_China',413.4112854,38.15274544,112.2187576,6/5/20 5:25,b'fossil,Taiyuan_China',Taiyuan_China,China,Taiyuan
b'fossil_Tehran_Iran',411.5302734,35.57427193,51.08298843,6/11/20 6:54,b'fossil,Tehran_Iran',Tehran_Iran,Iran,Tehran
b'fossil_Tel_Aviv-Yafo_Israel',414.2084503,31.69469154,34.60311867,4/12/20 7:10,b'fossil,Tel_Aviv-Yafo_Israel',Tel_Aviv-Yafo_Israel,Israel,Tel_Aviv-Yafo
b'fossil_Tianjin_China',414.3613129,39.2067687,117.0443363,5/29/20 7:47,b'fossil,Tianjin_China',Tianjin_China,China,Tianjin
b'fossil_Tokyo_Japan',414.3400574,35.90625335,139.340876,6/21/20 4:05,b'fossil,Tokyo_Japan',Tokyo_Japan,Japan,Tokyo
b'fossil_Toronto_Canada',409.3885193,43.72885975,-79.92896179,5/30/20 20:58,b'fossil,Toronto_Canada',Toronto_Canada,Canada,Toronto
b'fossil_Urumqi_China',410.4638977,43.80614164,87.31203532,5/30/20 10:09,b'fossil,Urumqi_China',Urumqi_China,China,Urumqi
b'fossil_Vancouver_Canada',410.1038513,49.11054424,-123.3410935,6/4/20 23:20,b'fossil,Vancouver_Canada',Vancouver_Canada,Canada,Vancouver
b'fossil_Vienna_Austria',413.3803406,48.35810428,15.37662088,12/18/20 11:05,b'fossil,Vienna_Austria',Vienna_Austria,Austria,Vienna
b'fossil_Warsaw_Poland',416.3492737,52.20623998,20.51936451,4/25/20 6:35,b'fossil,Warsaw_Poland',Warsaw_Poland,Poland,Warsaw
b'fossil_Washington_DC_USA',409.5256653,38.7752388,-77.2923015,6/29/20 14:50,b'fossil,Washington_DC_USA',Washington_DC_USA,USA,Washington_DC
b'fossil_Wenzhou_China',412.1549835,27.43894672,120.3288873,7/29/20 6:30,b'fossil,Wenzhou_China',Wenzhou_China,China,Wenzhou
b'fossil_Wuhan_China',414.9194641,30.78165306,114.1211125,5/30/20 6:57,b'fossil,Wuhan_China',Wuhan_China,China,Wuhan
b'fossil_Wuxi_China',410.4866028,31.64584651,120.0050229,5/31/20 6:11,b'fossil,Wuxi_China',Wuxi_China,China,Wuxi
b'fossil_Xiamen_China',414.3545532,25.77359384,117.0059475,12/24/20 5:03,b'fossil,Xiamen_China',Xiamen_China,China,Xiamen
b'fossil_Xian_China',417.2064514,34.27271156,108.8880081,2/9/20 3:23,b'fossil,Xian_China',Xian_China,China,Xian
b'fossil_Yinchuan_China',412.6652222,38.61270602,105.9632195,6/4/20 6:13,b'fossil,Yinchuan_China',Yinchuan_China,China,Yinchuan
b'fossil_Zhengzhou_China',418.065918,34.08813399,113.1567992,6/10/20 3:02,b'fossil,Zhengzhou_China',Zhengzhou_China,China,Zhengzhou
b'fossil_Zibo_China',415.6795349,36.83428308,117.9438618,2/10/20 2:37,b'fossil,Zibo_China',Zibo_China,China,Zibo
b'fossil_Abu_Dhabi_UAE',414.1095276,23.9013717,54.76293852,2/4/21 7:33,b'fossil,Abu_Dhabi_UAE',Abu_Dhabi_UAE,UAE,Abu_Dhabi
b'fossil_Ad_Damman_Saudi_Arabia',416.3477936,26.10513405,49.6390645,1/26/21 11:25,b'fossil,Ad_Damman_Saudi_Arabia',Ad_Damman_Saudi_Arabia,Saudi_Arabia,Ad_Damman
b'fossil_Adelaide_Australia',411.8751221,-34.77056685,138.6367458,1/4/21 3:02,b'fossil,Adelaide_Australia',Adelaide_Australia,Australia,Adelaide
b'fossil_Ahmadabad_India',414.2283478,23.11436456,72.46124976,4/4/21 6:46,b'fossil,Ahmadabad_India',Ahmadabad_India,India,Ahmadabad
b'fossil_Ahvaz_Iran',415.067749,31.51280227,48.49788562,2/23/21 8:46,b'fossil,Ahvaz_Iran',Ahvaz_Iran,Iran,Ahvaz
b'fossil_Al-Ahmadi_Kuwait',416.496109,29.34721373,47.58688334,1/2/21 5:46,b'fossil,Al-Ahmadi_Kuwait',Al-Ahmadi_Kuwait,Kuwait,Al-Ahmadi
b'fossil_Al_Ain_UAE',414.0200958,24.04904083,55.54609757,4/9/21 6:00,b'fossil,Al_Ain_UAE',Al_Ain_UAE,UAE,Al_Ain
b'fossil_Al_Hofuf_Saudi_Arabia',413.4528198,25.65803603,49.19224438,4/18/21 11:56,b'fossil,Al_Hofuf_Saudi_Arabia',Al_Hofuf_Saudi_Arabia,Saudi_Arabia,Al_Hofuf
b'fossil_Almaty_Kazakhstan',413.7285767,43.40490438,76.38848506,4/16/21 3:49,b'fossil,Almaty_Kazakhstan',Almaty_Kazakhstan,Kazakhstan,Almaty
b'fossil_Amman_Jordan',414.4577332,31.98281873,35.90597892,3/27/21 13:00,b'fossil,Amman_Jordan',Amman_Jordan,Jordan,Amman
b'fossil_Ankara_Turkey',414.5562439,39.67541521,32.57052771,1/28/21 13:04,b'fossil,Ankara_Turkey',Ankara_Turkey,Turkey,Ankara
b'fossil_Ashgabat_Turkmenistan',415.9634399,37.87614695,58.04858225,1/29/21 10:43,b'fossil,Ashgabat_Turkmenistan',Ashgabat_Turkmenistan,Turkmenistan,Ashgabat
b'fossil_Astana_Kazakhstan',413.165329,51.1124176,70.9882225,4/23/21 4:45,b'fossil,Astana_Kazakhstan',Astana_Kazakhstan,Kazakhstan,Astana
b'fossil_Athens_Greece',415.136261,38.22509302,23.38884924,1/27/21 13:49,b'fossil,Athens_Greece',Athens_Greece,Greece,Athens
b'fossil_Atlanta_USA',416.1899414,33.72489929,-84.47346532,2/7/21 16:07,b'fossil,Atlanta_USA',Atlanta_USA,USA,Atlanta
b'fossil_Baabda_Lebanon',414.2070923,34.55595614,36.31963268,1/1/21 6:31,b'fossil,Baabda_Lebanon',Baabda_Lebanon,Lebanon,Baabda
b'fossil_Baghdad_Iraq',413.2716064,33.29198209,44.14725294,1/28/21 11:27,b'fossil,Baghdad_Iraq',Baghdad_Iraq,Iraq,Baghdad
b'fossil_Baltimore_USA',410.2071533,39.35324895,-76.71024736,4/16/21 19:35,b'fossil,Baltimore_USA',Baltimore_USA,USA,Baltimore
b'fossil_Bangalore_India',414.6506042,13.22666338,77.40524829,3/1/21 5:47,b'fossil,Bangalore_India',Bangalore_India,India,Bangalore
b'fossil_Baotou_China',416.2000732,40.65873306,109.589793,1/29/21 7:38,b'fossil,Baotou_China',Baotou_China,China,Baotou
b'fossil_Barcelona_Spain',414.5127411,41.5421583,1.569048369,2/17/21 13:21,b'fossil,Barcelona_Spain',Barcelona_Spain,Spain,Barcelona
b'fossil_Beijing_China',416.0416412,39.80678344,116.065248,2/7/21 3:46,b'fossil,Beijing_China',Beijing_China,China,Beijing
b'fossil_Benha_Egypt',414.9237518,30.29054985,30.90142726,1/26/21 12:59,b'fossil,Benha_Egypt',Benha_Egypt,Egypt,Benha
b'fossil_Bogota_Colombia',414.4454803,5.119095327,-74.30530159,1/28/21 17:30,b'fossil,Bogota_Colombia',Bogota_Colombia,Colombia,Bogota
b'fossil_Boston_USA',415.8834534,42.43425239,-71.51693833,2/17/21 17:59,b'fossil,Boston_USA',Boston_USA,USA,Boston
b'fossil_Brisbane_Australia',413.2648315,-27.46825232,152.5916678,1/11/21 7:17,b'fossil,Brisbane_Australia',Brisbane_Australia,Australia,Brisbane
b'fossil_Brussels_Belgium',417.9003601,50.91387781,3.696237965,2/20/21 9:23,b'fossil,Brussels_Belgium',Brussels_Belgium,Belgium,Brussels
b'fossil_Bucharest_Romania',411.1954346,44.3913974,25.73274467,2/10/21 9:14,b'fossil,Bucharest_Romania',Bucharest_Romania,Romania,Bucharest
b'fossil_Budapest_Hungary',414.3510284,47.39604986,18.57953186,2/4/21 12:21,b'fossil,Budapest_Hungary',Budapest_Hungary,Hungary,Budapest
b'fossil_Buenos_Aires_Argentina',412.5478821,-34.62039284,-58.84584616,1/3/21 16:13,b'fossil,Buenos_Aires_Argentina',Buenos_Aires_Argentina,Argentina,Buenos_Aires
b'fossil_Calgary_Canada',414.6114502,51.02030906,-114.1557024,2/7/21 22:32,b'fossil,Calgary_Canada',Calgary_Canada,Canada,Calgary
b'fossil_Cape_Town_South_Africa',412.026886,-33.78047256,18.66203724,1/8/21 9:12,b'fossil,Cape_Town_South_Africa',Cape_Town_South_Africa,South_Africa,Cape_Town
b'fossil_Caracas_Venezuela',414.2633362,10.09396733,-67.10762732,1/4/21 13:36,b'fossil,Caracas_Venezuela',Caracas_Venezuela,Venezuela,Caracas
b'fossil_Changchun_China',414.8279572,43.6071777,124.6608397,1/30/21 6:54,b'fossil,Changchun_China',Changchun_China,China,Changchun
b'fossil_Chengdu_China',414.690094,30.59667319,104.0695289,2/16/21 8:01,b'fossil,Chengdu_China',Chengdu_China,China,Chengdu
b'fossil_Chennai_India',416.1867828,12.66648766,79.89311463,1/25/21 9:01,b'fossil,Chennai_India',Chennai_India,India,Chennai
b'fossil_Chicago_USA',417.6833191,41.97589705,-88.01473837,2/26/21 15:40,b'fossil,Chicago_USA',Chicago_USA,USA,Chicago
b'fossil_Chifeng_China',416.4638367,42.36551931,118.7719845,2/15/21 0:42,b'fossil,Chifeng_China',Chifeng_China,China,Chifeng
b'fossil_Chios_Turkey',412.1574249,40.0120103,28.88800964,3/28/21 13:50,b'fossil,Chios_Turkey',Chios_Turkey,Turkey,Chios
b'fossil_Chongqing_China',416.3409119,29.33342352,106.3239862,1/31/21 6:02,b'fossil,Chongqing_China',Chongqing_China,China,Chongqing
b'fossil_Cleveland_USA',417.3731079,41.17121633,-82.15132747,4/14/21 14:38,b'fossil,Cleveland_USA',Cleveland_USA,USA,Cleveland
b'fossil_Cologne_Germany',416.1002045,50.91320137,6.723750056,2/12/21 12:27,b'fossil,Cologne_Germany',Cologne_Germany,Germany,Cologne
b'fossil_Columbus_USA',416.0070496,39.86671344,-83.1650812,3/25/21 22:21,b'fossil,Columbus_USA',Columbus_USA,USA,Columbus
b'fossil_Dalian_China',417.4069824,39.08893843,121.379964,8/10/21 2:24,b'fossil,Dalian_China',Dalian_China,China,Dalian
b'fossil_Dallas_USA',417.6747437,32.64500015,-96.93565287,4/1/21 19:59,b'fossil,Dallas_USA',Dallas_USA,USA,Dallas
b'fossil_Datong_Shanxi_China',417.3552399,39.98328039,112.9116672,2/16/21 6:23,b'fossil,Datong_Shanxi_China',Datong_Shanxi_China,China,Datong_Shanxi
b'fossil_Denver_USA',416.1789246,39.79136287,-105.2040544,2/15/21 21:06,b'fossil,Denver_USA',Denver_USA,USA,Denver
b'fossil_Detroit_USA',416.2879944,42.25265174,-83.52146526,1/28/21 20:49,b'fossil,Detroit_USA',Detroit_USA,USA,Detroit
b'fossil_Dhaka_Bangladesh',413.7281342,23.99902421,90.17383493,5/7/21 1:54,b'fossil,Dhaka_Bangladesh',Dhaka_Bangladesh,Bangladesh,Dhaka
b'fossil_Doha_Qatar',415.7675781,24.92805503,51.15678947,2/14/21 12:41,b'fossil,Doha_Qatar',Doha_Qatar,Qatar,Doha
b'fossil_Dubai_UAE',415.7112122,25.03884655,55.4006596,1/27/21 10:38,b'fossil,Dubai_UAE',Dubai_UAE,UAE,Dubai
b'fossil_Durban_South_Africa',413.0882874,-29.49126037,30.31394004,2/27/21 12:13,b'fossil,Durban_South_Africa',Durban_South_Africa,South_Africa,Durban
b'fossil_Esfahan_Iran',416.2570801,32.72426843,51.5063601,2/10/21 6:04,b'fossil,Esfahan_Iran',Esfahan_Iran,Iran,Esfahan
b'fossil_Fremantle_Australia',412.562149,-32.11849176,116.049482,1/1/21 5:21,b'fossil,Fremantle_Australia',Fremantle_Australia,Australia,Fremantle
b'fossil_Guadalajara_Mexico',415.2258301,20.7549884,-103.4523337,1/3/21 15:52,b'fossil,Guadalajara_Mexico',Guadalajara_Mexico,Mexico,Guadalajara
b'fossil_Guangzhou_China',416.5232697,23.38639579,113.1192672,1/4/21 1:09,b'fossil,Guangzhou_China',Guangzhou_China,China,Guangzhou
b'fossil_Guiyang_China',415.5573425,26.33879878,106.4652841,3/24/21 9:06,b'fossil,Guiyang_China',Guiyang_China,China,Guiyang
b'fossil_Hangzhou_China',417.2614136,30.54080762,119.9151907,1/29/21 6:01,b'fossil,Hangzhou_China',Hangzhou_China,China,Hangzhou
b'fossil_Hanoi_Vietnam',416.6712341,21.27882785,105.8107512,5/9/21 0:21,b'fossil,Hanoi_Vietnam',Hanoi_Vietnam,Vietnam,Hanoi
b'fossil_Harbin_China',414.6171265,45.74883433,126.2703656,2/7/21 3:49,b'fossil,Harbin_China',Harbin_China,China,Harbin
b'fossil_Hefei_China',419.6047668,31.71785279,117.0297757,4/10/21 2:11,b'fossil,Hefei_China',Hefei_China,China,Hefei
b'fossil_Ho_Chi_Minh_City_Vietnam',416.8915863,10.65880356,106.6179812,1/26/21 6:41,b'fossil,Ho_Chi_Minh_City_Vietnam',Ho_Chi_Minh_City_Vietnam,Vietnam,Ho_Chi_Minh_City
b'fossil_Hong_Kong_China',415.4150085,22.84822297,113.9744756,3/26/21 7:32,b'fossil,Hong_Kong_China',Hong_Kong_China,China,Hong_Kong
b'fossil_Huhot_China',415.8383179,25.53517233,118.2304256,4/11/21 1:23,b'fossil,Huhot_China',Huhot_China,China,Huhot
b'fossil_Hyderabad_India',413.2484283,17.7029688,78.16562907,1/28/21 8:16,b'fossil,Hyderabad_India',Hyderabad_India,India,Hyderabad
b'fossil_Indianapolis_USA',418.6657715,40.09653956,-86.5938202,4/26/21 16:30,b'fossil,Indianapolis_USA',Indianapolis_USA,USA,Indianapolis
b'fossil_Istanbul_Turkey',414.9673462,40.87716687,29.06717828,2/4/21 10:45,b'fossil,Istanbul_Turkey',Istanbul_Turkey,Turkey,Istanbul
b'fossil_Jakarta_Indonesia',414.1785431,-6.32104827,106.922763,7/4/21 3:39,b'fossil,Jakarta_Indonesia',Jakarta_Indonesia,Indonesia,Jakarta
b'fossil_Janschwalde_Germany',416.4020386,51.54051532,14.05225004,2/19/21 8:34,b'fossil,Janschwalde_Germany',Janschwalde_Germany,Germany,Janschwalde
b'fossil_Jeddah_Saudi_Arabia',414.0551453,21.54875102,39.34626696,1/25/21 12:09,b'fossil,Jeddah_Saudi_Arabia',Jeddah_Saudi_Arabia,Saudi_Arabia,Jeddah
b'fossil_Jinan_China',419.1236572,36.759999,116.8656255,4/13/21 1:26,b'fossil,Jinan_China',Jinan_China,China,Jinan
b'fossil_Johannesburg_South_Africa',413.4963074,-26.45279291,27.73463114,1/3/21 9:57,b'fossil,Johannesburg_South_Africa',Johannesburg_South_Africa,South_Africa,Johannesburg
b'fossil_Kansas_City_USA',415.15979,39.26052388,-94.74418458,2/16/21 20:20,b'fossil,Kansas_City_USA',Kansas_City_USA,USA,Kansas_City
b'fossil_Kaoshsiung_Taiwan',418.2131958,22.81425906,120.4696621,3/27/21 6:46,b'fossil,Kaoshsiung_Taiwan',Kaoshsiung_Taiwan,Taiwan,Kaoshsiung
b'fossil_Karachi_Pakistan',415.8820038,25.25466985,67.02626381,1/25/21 10:38,b'fossil,Karachi_Pakistan',Karachi_Pakistan,Pakistan,Karachi
b'fossil_Katowice_Poland',413.2844086,50.22020886,18.49970211,4/6/21 14:48,b'fossil,Katowice_Poland',Katowice_Poland,Poland,Katowice
b'fossil_Khartoum_Sudan',415.159729,15.35567895,32.32733592,3/21/21 14:28,b'fossil,Khartoum_Sudan',Khartoum_Sudan,Sudan,Khartoum
b'fossil_Kolkata_India',415.716217,22.83183054,88.17947235,1/4/21 2:42,b'fossil,Kolkata_India',Kolkata_India,India,Kolkata
b'fossil_Lagos_Nigeria',415.2369232,6.617371233,3.583539097,6/30/21 11:18,b'fossil,Lagos_Nigeria',Lagos_Nigeria,Nigeria,Lagos
b'fossil_Lahore_Pakistan',415.4711914,31.38789286,74.26772606,1/25/21 10:40,b'fossil,Lahore_Pakistan',Lahore_Pakistan,Pakistan,Lahore
b'fossil_Las_Vegas_USA',415.8326721,36.38257806,-115.3914056,2/28/21 17:15,b'fossil,Las_Vegas_USA',Las_Vegas_USA,USA,Las_Vegas
b'fossil_Lima_Peru',413.2917023,-11.82805759,-76.99712109,3/26/21 18:11,b'fossil,Lima_Peru',Lima_Peru,Peru,Lima
b'fossil_London_UK',416.0222168,51.53720588,-0.857092214,4/11/21 14:01,b'fossil,London_UK',London_UK,UK,London
b'fossil_Los_Angeles_USA',417.425293,34.26455173,-118.3002392,2/19/21 21:08,b'fossil,Los_Angeles_USA',Los_Angeles_USA,USA,Los_Angeles
b'fossil_Luanda_Angola',412.7938232,-8.946304281,13.34774365,1/3/21 9:51,b'fossil,Luanda_Angola',Luanda_Angola,Angola,Luanda
b'fossil_Madrid_Spain',413.1172791,40.46155723,-4.082712792,1/30/21 14:36,b'fossil,Madrid_Spain',Madrid_Spain,Spain,Madrid
b'fossil_Maebashi_Japan',417.0251617,36.3385113,139.1189304,3/2/21 23:27,b'fossil,Maebashi_Japan',Maebashi_Japan,Japan,Maebashi
b'fossil_Manila_Philippines',414.991684,14.89902028,120.7806477,3/24/21 7:30,b'fossil,Manila_Philippines',Manila_Philippines,Philippines,Manila
b'fossil_Maracaibo_Venezuela',414.2428284,10.83810576,-71.76393693,1/3/21 14:23,b'fossil,Maracaibo_Venezuela',Maracaibo_Venezuela,Venezuela,Maracaibo
b'fossil_Mashhad_Iran',413.4021912,36.27938669,59.37594959,2/7/21 6:50,b'fossil,Mashhad_Iran',Mashhad_Iran,Iran,Mashhad
b'fossil_Mecca_Saudi_Arabia',414.4008484,21.55892547,39.71942613,2/10/21 5:59,b'fossil,Mecca_Saudi_Arabia',Mecca_Saudi_Arabia,Saudi_Arabia,Mecca
b'fossil_Medina_Saudi_Arabia',415.3679504,24.56356483,39.48234405,1/4/21 5:47,b'fossil,Medina_Saudi_Arabia',Medina_Saudi_Arabia,Saudi_Arabia,Medina
b'fossil_Melbourne_Australia',411.4512939,-37.54286315,144.7263257,1/1/21 3:50,b'fossil,Melbourne_Australia',Melbourne_Australia,Australia,Melbourne
b'fossil_Mexico_City_Mexico',415.9029694,19.35777248,-99.35845828,1/26/21 20:40,b'fossil,Mexico_City_Mexico',Mexico_City_Mexico,Mexico,Mexico_City
b'fossil_Miami_USA',416.0512695,26.07708665,-80.6266152,1/24/21 20:43,b'fossil,Miami_USA',Miami_USA,USA,Miami
b'fossil_Milan_Italy',416.171051,45.30714108,8.919145349,2/28/21 7:53,b'fossil,Milan_Italy',Milan_Italy,Italy,Milan
b'fossil_Minneapolis_USA',415.4264679,44.96295234,-93.51003972,2/14/21 15:26,b'fossil,Minneapolis_USA',Minneapolis_USA,USA,Minneapolis
b'fossil_Monterrey_Mexico',415.0417786,25.92633986,-100.5295477,3/25/21 22:16,b'fossil,Monterrey_Mexico',Monterrey_Mexico,Mexico,Monterrey
b'fossil_Montreal_Canada',417.6970367,45.47202102,-73.94394014,2/10/21 20:17,b'fossil,Montreal_Canada',Montreal_Canada,Canada,Montreal
b'fossil_Mumbai_India',415.7451172,19.00952761,73.06226514,1/27/21 9:03,b'fossil,Mumbai_India',Mumbai_India,India,Mumbai
b'fossil_Munich_Germany',416.3718414,48.18175765,11.38683759,4/2/21 14:42,b'fossil,Munich_Germany',Munich_Germany,Germany,Munich
b'fossil_Nagoya_Japan',418.7306213,35.25193301,136.8661461,4/19/21 4:54,b'fossil,Nagoya_Japan',Nagoya_Japan,Japan,Nagoya
b'fossil_Nairobi_Kenya',414.177002,-1.129839586,36.57753086,1/4/21 7:28,b'fossil,Nairobi_Kenya',Nairobi_Kenya,Kenya,Nairobi
b'fossil_Nanjing_China',415.61026,31.91153533,118.6218495,4/6/21 3:43,b'fossil,Nanjing_China',Nanjing_China,China,Nanjing
b'fossil_Naples_Italy',414.8700867,40.96703312,14.27216169,2/6/21 10:45,b'fossil,Naples_Italy',Naples_Italy,Italy,Naples
b'fossil_New_Delhi_India',416.1599121,28.68183315,77.07295015,1/26/21 9:53,b'fossil,New_Delhi_India',New_Delhi_India,India,New_Delhi
b'fossil_New_Orleans_USA',416.7252197,30.39097786,-90.73192492,3/3/21 14:58,b'fossil,New_Orleans_USA',New_Orleans_USA,USA,New_Orleans
b'fossil_New_York_USA',409.755127,40.91066127,-74.3044137,6/15/21 19:35,b'fossil,New_York_USA',New_York_USA,USA,New_York
b'fossil_Ningbo_China',417.368927,29.22115566,120.7857921,12/6/21 2:47,b'fossil,Ningbo_China',Ningbo_China,China,Ningbo
b'fossil_Orlando_USA',416.1630859,28.77461682,-81.85234297,2/28/21 15:46,b'fossil,Orlando_USA',Orlando_USA,USA,Orlando
b'fossil_Osaka_Japan',419.1809692,34.71448574,135.2942936,1/31/21 4:30,b'fossil,Osaka_Japan',Osaka_Japan,Japan,Osaka
b'fossil_Paris_France',416.2842407,48.74916271,1.775176629,4/13/21 10:50,b'fossil,Paris_France',Paris_France,France,Paris
b'fossil_Peshawar_Pakistan',415.6141357,33.99561176,71.4424557,1/28/21 9:55,b'fossil,Peshawar_Pakistan',Peshawar_Pakistan,Pakistan,Peshawar
b'fossil_Phoenix_USA',416.6571045,33.52841594,-112.3556983,1/25/21 23:04,b'fossil,Phoenix_USA',Phoenix_USA,USA,Phoenix
b'fossil_Pittsburgh_USA',417.6898193,40.12838403,-80.37798038,1/29/21 20:01,b'fossil,Pittsburgh_USA',Pittsburgh_USA,USA,Pittsburgh
b'fossil_Portland_USA',413.6614685,45.42912632,-122.8169542,2/5/21 20:51,b'fossil,Portland_USA',Portland_USA,USA,Portland
b'fossil_Prague_Czech_Republic',414.5683594,50.10776954,14.07257879,2/12/21 10:52,b'fossil,Prague_Czech_Republic',Prague_Czech_Republic,Czech_Republic,Prague
b'fossil_Pune_India',415.46521,18.71672581,73.56842096,1/1/21 5:03,b'fossil,Pune_India',Pune_India,India,Pune
b'fossil_Pusan_South_Korea',417.1639099,35.38714672,128.7801799,2/7/21 2:11,b'fossil,Pusan_South_Korea',Pusan_South_Korea,South_Korea,Pusan
b'fossil_Qingdao_China',418.0969543,36.07378079,119.3019022,1/28/21 6:50,b'fossil,Qingdao_China',Qingdao_China,China,Qingdao
b'fossil_Rio_de_Janeiro_Brazil',413.0240784,-22.60132649,-43.31157061,1/29/21 13:28,b'fossil,Rio_de_Janeiro_Brazil',Rio_de_Janeiro_Brazil,Brazil,Rio_de_Janeiro
b'fossil_Riyadh_Saudi_Arabia',415.6659546,24.60900604,46.49458076,1/30/21 9:51,b'fossil,Riyadh_Saudi_Arabia',Riyadh_Saudi_Arabia,Saudi_Arabia,Riyadh
b'fossil_Rome_Italy',414.8677063,42.07520768,12.39887938,2/9/21 10:01,b'fossil,Rome_Italy',Rome_Italy,Italy,Rome
b'fossil_Rostov-on-Don_Russia',414.0452271,47.25420103,39.33929956,3/31/21 13:07,b'fossil,Rostov-on-Don_Russia',Rostov-on-Don_Russia,Russia,Rostov-on-Don
b'fossil_Sacramento_USA',416.4074249,38.64613514,-121.6767881,4/13/21 0:14,b'fossil,Sacramento_USA',Sacramento_USA,USA,Sacramento
b'fossil_Salt_Lake_City_USA',416.7976685,40.753035,-112.427629,1/31/21 21:36,b'fossil,Salt_Lake_City_USA',Salt_Lake_City_USA,USA,Salt_Lake_City
b'fossil_Samut_Prakan_Thailand',419.1298828,13.95075972,100.439982,4/2/21 5:10,b'fossil,Samut_Prakan_Thailand',Samut_Prakan_Thailand,Thailand,Samut_Prakan
b'fossil_San_Antonio_USA',413.0638733,29.60163206,-98.69219669,5/8/21 13:28,b'fossil,San_Antonio_USA',San_Antonio_USA,USA,San_Antonio
b'fossil_San_Cristobal_Dominican_Republic',415.2934265,18.81671004,-70.38131002,1/27/21 18:20,b'fossil,San_Cristobal_Dominican_Republic',San_Cristobal_Dominican_Republic,Dominican_Republic,San_Cristobal
b'fossil_San_Diego_USA',415.377533,32.85998787,-116.9312636,3/25/21 23:53,b'fossil,San_Diego_USA',San_Diego_USA,USA,San_Diego
b'fossil_San_Francisco_USA',417.5889587,37.71821443,-122.0438153,4/8/21 19:15,b'fossil,San_Francisco_USA',San_Francisco_USA,USA,San_Francisco
b'fossil_San_Jose_USA',416.4108582,37.35649016,-121.8799937,2/4/21 20:01,b'fossil,San_Jose_USA',San_Jose_USA,USA,San_Jose
b'fossil_Santiago_Chile',413.2230072,-33.41681668,-70.96417965,1/1/21 17:44,b'fossil,Santiago_Chile',Santiago_Chile,Chile,Santiago
b'fossil_Sao_Paulo_Brazil',413.4008484,-23.53288809,-46.98292298,1/3/21 14:34,b'fossil,Sao_Paulo_Brazil',Sao_Paulo_Brazil,Brazil,Sao_Paulo
b'fossil_Seattle_USA',416.6768799,47.48067379,-122.4618031,2/7/21 20:55,b'fossil,Seattle_USA',Seattle_USA,USA,Seattle
b'fossil_Seoul_South_Korea',415.1812744,37.74575912,126.6245886,5/7/21 21:56,b'fossil,Seoul_South_Korea',Seoul_South_Korea,South_Korea,Seoul
b'fossil_Shah_Alam_Malaysia',415.6328735,2.931165168,101.6315985,1/26/21 6:38,b'fossil,Shah_Alam_Malaysia',Shah_Alam_Malaysia,Malaysia,Shah_Alam
b'fossil_Shanghai_China',419.1062317,31.4884312,121.0731449,2/19/21 5:40,b'fossil,Shanghai_China',Shanghai_China,China,Shanghai
b'fossil_Shantou_China',417.1588287,23.4558537,116.4315772,1/26/21 6:45,b'fossil,Shantou_China',Shantou_China,China,Shantou
b'fossil_Shenyang_China',417.795929,41.82076883,123.0833286,2/4/21 4:33,b'fossil,Shenyang_China',Shenyang_China,China,Shenyang
b'fossil_Shijiazhuang_China',418.7836304,42.08662742,110.3178929,4/20/21 5:39,b'fossil,Shijiazhuang_China',Shijiazhuang_China,China,Shijiazhuang
b'fossil_Singapore_Singapore',415.4421692,1.072426255,103.3824784,3/31/21 5:05,b'fossil,Singapore_Singapore',Singapore_Singapore,Singapore,Singapore
b'fossil_Sohag_Egypt',415.6138,26.62480505,31.53475353,1/3/21 6:33,b'fossil,Sohag_Egypt',Sohag_Egypt,Egypt,Sohag
b'fossil_St_Louis_USA',418.7032471,38.34925101,-90.37475872,2/13/21 21:07,b'fossil,St_Louis_USA',St_Louis_USA,USA,St_Louis
b'fossil_St_Petersburg_USA',417.9103088,27.84399406,-82.50412564,2/12/21 21:57,b'fossil,St_Petersburg_USA',St_Petersburg_USA,USA,St_Petersburg
b'fossil_Sydney_Australia',412.5222473,-34.01734944,150.5867417,3/31/21 23:28,b'fossil,Sydney_Australia',Sydney_Australia,Australia,Sydney
b'fossil_Tabriz_Iran',415.141449,37.98059379,46.12972534,2/8/21 7:38,b'fossil,Tabriz_Iran',Tabriz_Iran,Iran,Tabriz
b'fossil_Taegu_South_Korea',419.8302307,35.59768721,128.499352,4/7/21 2:59,b'fossil,Taegu_South_Korea',Taegu_South_Korea,South_Korea,Taegu
b'fossil_Taichung_Taiwan',414.1645508,24.21504452,120.4034307,4/18/21 7:18,b'fossil,Taichung_Taiwan',Taichung_Taiwan,Taiwan,Taichung
b'fossil_Taipei_Taiwan',417.0588074,24.83010395,121.3236323,2/18/21 6:29,b'fossil,Taipei_Taiwan',Taipei_Taiwan,Taiwan,Taipei
b'fossil_Taiyuan_China',417.7787781,38.06394944,112.3147405,2/15/21 7:11,b'fossil,Taiyuan_China',Taiyuan_China,China,Taiyuan
b'fossil_Tehran_Iran',415.7866821,35.48280482,51.19886194,2/12/21 12:37,b'fossil,Tehran_Iran',Tehran_Iran,Iran,Tehran
b'fossil_Tel_Aviv-Yafo_Israel',414.5336304,31.87126438,34.78511037,3/31/21 11:27,b'fossil,Tel_Aviv-Yafo_Israel',Tel_Aviv-Yafo_Israel,Israel,Tel_Aviv-Yafo
b'fossil_Tianjin_China',419.5151215,39.08918741,116.7604643,1/31/21 6:05,b'fossil,Tianjin_China',Tianjin_China,China,Tianjin
b'fossil_Tokyo_Japan',417.6968994,35.74261638,139.4700831,2/23/21 2:33,b'fossil,Tokyo_Japan',Tokyo_Japan,Japan,Tokyo
b'fossil_Toronto_Canada',413.3474731,43.77251611,-79.95507461,2/20/21 17:13,b'fossil,Toronto_Canada',Toronto_Canada,Canada,Toronto
b'fossil_Urumqi_China',413.5189362,43.83708738,87.35678986,2/5/21 6:55,b'fossil,Urumqi_China',Urumqi_China,China,Urumqi
b'fossil_Vancouver_Canada',417.0417786,49.17096212,-123.3757462,2/9/21 22:33,b'fossil,Vancouver_Canada',Vancouver_Canada,Canada,Vancouver
b'fossil_Vienna_Austria',416.4058533,48.19201465,16.33471343,2/15/21 8:30,b'fossil,Vienna_Austria',Vienna_Austria,Austria,Vienna
b'fossil_Washington_DC_USA',417.1140747,38.95887124,-77.58724438,1/30/21 19:14,b'fossil,Washington_DC_USA',Washington_DC_USA,USA,Washington_DC
b'fossil_Wenzhou_China',413.8258362,27.84236538,120.3844939,3/26/21 7:34,b'fossil,Wenzhou_China',Wenzhou_China,China,Wenzhou
b'fossil_Wuhan_China',418.4200439,30.7959757,114.0232238,1/28/21 6:48,b'fossil,Wuhan_China',Wuhan_China,China,Wuhan
b'fossil_Wuxi_China',419.4718628,31.641715,119.9656064,3/25/21 8:22,b'fossil,Wuxi_China',Wuxi_China,China,Wuxi
b'fossil_Xiamen_China',416.3607788,25.08764012,117.708691,1/1/21 1:55,b'fossil,Xiamen_China',Xiamen_China,China,Xiamen
b'fossil_Xian_China',415.0978088,34.4718316,108.6028313,3/27/21 8:23,b'fossil,Xian_China',Xian_China,China,Xian
b'fossil_Yinchuan_China',415.839798,38.65776175,105.9401699,2/14/21 1:26,b'fossil,Yinchuan_China',Yinchuan_China,China,Yinchuan
b'fossil_Zhengzhou_China',419.0075684,34.95452451,113.3561595,2/4/21 4:31,b'fossil,Zhengzhou_China',Zhengzhou_China,China,Zhengzhou
b'fossil_Zibo_China',411.4186859,36.8784953,117.6022128,4/28/21 2:35,b'fossil,Zibo_China',Zibo_China,China,Zibo
b'fossil_Abu_Dhabi_UAE',417.5233765,23.80182787,55.00183545,2/25/22 7:56,b'fossil,Abu_Dhabi_UAE',Abu_Dhabi_UAE,UAE,Abu_Dhabi
b'fossil_Ad_Damman_Saudi_Arabia',416.6342773,26.09224149,49.43105874,2/10/22 5:19,b'fossil,Ad_Damman_Saudi_Arabia',Ad_Damman_Saudi_Arabia,Saudi_Arabia,Ad_Damman
b'fossil_Adelaide_Australia',413.9015808,-34.75820407,138.7468537,1/4/22 2:41,b'fossil,Adelaide_Australia',Adelaide_Australia,Australia,Adelaide
b'fossil_Ahmadabad_India',417.1700745,22.96781802,72.26544712,1/30/22 7:45,b'fossil,Ahmadabad_India',Ahmadabad_India,India,Ahmadabad
b'fossil_Ahvaz_Iran',419.8218079,31.44018949,48.43374528,3/5/22 4:44,b'fossil,Ahvaz_Iran',Ahvaz_Iran,Iran,Ahvaz
b'fossil_Al-Ahmadi_Kuwait',419.0950317,28.7649343,47.62300168,4/4/22 8:41,b'fossil,Al-Ahmadi_Kuwait',Al-Ahmadi_Kuwait,Kuwait,Al-Ahmadi
b'fossil_Al_Ain_UAE',417.5351563,23.898182,55.46626103,5/30/22 9:24,b'fossil,Al_Ain_UAE',Al_Ain_UAE,UAE,Al_Ain
b'fossil_Al_Hofuf_Saudi_Arabia',415.8892212,25.64166394,49.25373192,7/1/22 6:22,b'fossil,Al_Hofuf_Saudi_Arabia',Al_Hofuf_Saudi_Arabia,Saudi_Arabia,Al_Hofuf
b'fossil_Algoma_Steel',417.7933655,46.50038848,-84.42674475,4/1/22 20:27,b'fossil,Algoma_Steel',Algoma_Steel,Steel,Algoma
b'fossil_Almaty_Kazakhstan',416.8564758,43.39358812,76.46607701,1/30/22 9:26,b'fossil,Almaty_Kazakhstan',Almaty_Kazakhstan,Kazakhstan,Almaty
b'fossil_Amman_Jordan',419.1060028,31.6852148,35.63820318,2/11/22 6:06,b'fossil,Amman_Jordan',Amman_Jordan,Jordan,Amman
b'fossil_Ankara_Turkey',415.2400055,39.78698053,32.55689938,2/12/22 6:56,b'fossil,Ankara_Turkey',Ankara_Turkey,Turkey,Ankara
b'fossil_Ashgabat_Turkmenistan',416.2814026,37.84916934,58.00598704,2/13/22 4:35,b'fossil,Ashgabat_Turkmenistan',Ashgabat_Turkmenistan,Turkmenistan,Ashgabat
b'fossil_Astana_Kazakhstan',415.461731,51.15121699,70.83535283,2/5/22 9:28,b'fossil,Astana_Kazakhstan',Astana_Kazakhstan,Kazakhstan,Astana
b'fossil_Athens_Greece',416.4705811,38.42240415,23.34522175,2/11/22 14:13,b'fossil,Athens_Greece',Athens_Greece,Greece,Athens
b'fossil_Atlanta_USA',417.60466,33.73782904,-84.81009915,3/3/22 14:00,b'fossil,Atlanta_USA',Atlanta_USA,USA,Atlanta
b'fossil_Baabda_Lebanon',417.0522461,34.33787282,36.33925668,2/20/22 10:16,b'fossil,Baabda_Lebanon',Baabda_Lebanon,Lebanon,Baabda
b'fossil_Baghdad_Iraq',418.2793884,33.21947642,44.07590188,2/4/22 8:32,b'fossil,Baghdad_Iraq',Baghdad_Iraq,Iraq,Baghdad
b'fossil_Baltimore_USA',419.904892,39.58571986,-77.01444978,4/17/22 18:53,b'fossil,Baltimore_USA',Baltimore_USA,USA,Baltimore
b'fossil_Bangalore_India',417.7979736,13.13750238,77.2970535,1/28/22 7:44,b'fossil,Bangalore_India',Bangalore_India,India,Bangalore
b'fossil_Baotou_China',419.1674805,40.65898965,109.3984206,2/1/22 6:18,b'fossil,Baotou_China',Baotou_China,China,Baotou
b'fossil_Barcelona_Spain',418.3530884,41.57531056,1.507365652,1/30/22 14:04,b'fossil,Barcelona_Spain',Barcelona_Spain,Spain,Barcelona
b'fossil_Beijing_China',419.671051,39.94181491,116.01791,2/3/22 4:43,b'fossil,Beijing_China',Beijing_China,China,Beijing
b'fossil_Benha_Egypt',419.5509491,30.69932919,30.9315731,2/22/22 10:16,b'fossil,Benha_Egypt',Benha_Egypt,Egypt,Benha
b'fossil_Bogota_Colombia',416.4537659,4.775698463,-74.22701415,1/2/22 14:52,b'fossil,Bogota_Colombia',Bogota_Colombia,Colombia,Bogota
b'fossil_Boston_USA',417.2449341,42.59587359,-71.60768243,2/12/22 19:35,b'fossil,Boston_USA',Boston_USA,USA,Boston
b'fossil_Brisbane_Australia',415.0922852,-27.68959462,152.4915438,1/4/22 1:05,b'fossil,Brisbane_Australia',Brisbane_Australia,Australia,Brisbane
b'fossil_Bucharest_Romania',416.6043854,44.40161672,25.73744988,1/29/22 13:19,b'fossil,Bucharest_Romania',Bucharest_Romania,Romania,Bucharest
b'fossil_Budapest_Hungary',418.4273682,47.42598456,18.6175483,2/3/22 12:31,b'fossil,Budapest_Hungary',Budapest_Hungary,Hungary,Budapest
b'fossil_Buenos_Aires_Argentina',414.4356232,-34.89199076,-58.92344162,1/3/22 15:51,b'fossil,Buenos_Aires_Argentina',Buenos_Aires_Argentina,Argentina,Buenos_Aires
b'fossil_Cairo_Egypt',416.4290314,30.00675028,31.00500353,5/21/22 14:57,b'fossil,Cairo_Egypt',Cairo_Egypt,Egypt,Cairo
b'fossil_Calgary_Canada',415.4287109,51.10845666,-114.1896209,2/12/22 19:27,b'fossil,Calgary_Canada',Calgary_Canada,Canada,Calgary
b'fossil_Cape_Town_South_Africa',414.306366,-33.71787017,18.68701043,1/17/22 12:58,b'fossil,Cape_Town_South_Africa',Cape_Town_South_Africa,South_Africa,Cape_Town
b'fossil_Caracas_Venezuela',417.5107727,9.794279313,-67.22873168,1/4/22 13:15,b'fossil,Caracas_Venezuela',Caracas_Venezuela,Venezuela,Caracas
b'fossil_Changchun_China',419.1001587,43.77573136,124.8177465,1/30/22 6:20,b'fossil,Changchun_China',Changchun_China,China,Changchun
b'fossil_Chengdu_China',418.5678253,30.75021875,104.0218747,2/19/22 6:27,b'fossil,Chengdu_China',Chengdu_China,China,Chengdu
b'fossil_Chennai_India',417.0093079,13.29476298,79.86879657,1/1/22 4:47,b'fossil,Chennai_India',Chennai_India,India,Chennai
b'fossil_Chicago_USA',417.1266327,41.82588431,-88.16098948,2/3/22 18:40,b'fossil,Chicago_USA',Chicago_USA,USA,Chicago
b'fossil_Chifeng_China',418.1051331,42.4595624,118.7162285,2/20/22 4:01,b'fossil,Chifeng_China',Chifeng_China,China,Chifeng
b'fossil_Chios_Turkey',415.7542877,40.03567469,28.54669172,1/31/22 11:43,b'fossil,Chios_Turkey',Chios_Turkey,Turkey,Chios
b'fossil_Chongqing_China',417.4165344,29.43279547,106.2277064,2/23/22 4:50,b'fossil,Chongqing_China',Chongqing_China,China,Chongqing
b'fossil_Cleveland_USA',409.6133118,41.29136039,-82.14337128,2/10/22 21:12,b'fossil,Cleveland_USA',Cleveland_USA,USA,Cleveland
b'fossil_Cologne_Germany',415.6475525,50.9769177,6.426558371,4/17/22 9:25,b'fossil,Cologne_Germany',Cologne_Germany,Germany,Cologne
b'fossil_Columbus_USA',416.8538971,39.88801224,-83.27994147,4/24/22 16:27,b'fossil,Columbus_USA',Columbus_USA,USA,Columbus
b'fossil_Dalian_China',418.9945374,39.18502363,121.2404198,1/27/22 7:07,b'fossil,Dalian_China',Dalian_China,China,Dalian
b'fossil_Datong_Shanxi_China',420.7190399,40.02289089,113.0126371,2/10/22 2:19,b'fossil,Datong_Shanxi_China',Datong_Shanxi_China,China,Datong_Shanxi
b'fossil_Dhaka_Bangladesh',417.2757263,23.85206008,90.14228233,1/25/22 8:35,b'fossil,Dhaka_Bangladesh',Dhaka_Bangladesh,Bangladesh,Dhaka
b'fossil_Doha_Qatar',417.9088745,24.80447565,50.96452368,1/22/22 12:29,b'fossil,Doha_Qatar',Doha_Qatar,Qatar,Doha
b'fossil_Dubai_UAE',417.2301636,24.85930737,55.3115368,2/11/22 4:32,b'fossil,Dubai_UAE',Dubai_UAE,UAE,Dubai
b'fossil_Durban_South_Africa',415.0256653,-29.9212557,30.46170143,1/18/22 12:13,b'fossil,Durban_South_Africa',Durban_South_Africa,South_Africa,Durban
b'fossil_Esfahan_Iran',418.387085,32.86072199,51.43172037,2/22/22 8:42,b'fossil,Esfahan_Iran',Esfahan_Iran,Iran,Esfahan
b'fossil_Fremantle_Australia',414.33284,-31.94021892,116.0607911,1/1/22 5:02,b'fossil,Fremantle_Australia',Fremantle_Australia,Australia,Fremantle
b'fossil_Guadalajara_Mexico',417.1201324,20.7223371,-103.4840069,1/3/22 15:32,b'fossil,Guadalajara_Mexico',Guadalajara_Mexico,Mexico,Guadalajara
b'fossil_Guangzhou_China',419.6563873,23.21270824,113.000332,1/4/22 0:48,b'fossil,Guangzhou_China',Guangzhou_China,China,Guangzhou
b'fossil_Guiyang_China',419.6982574,26.58959628,106.2824899,1/23/22 8:37,b'fossil,Guiyang_China',Guiyang_China,China,Guiyang
b'fossil_Hangzhou_China',420.2480774,30.63983175,119.7106687,2/25/22 3:15,b'fossil,Hangzhou_China',Hangzhou_China,China,Hangzhou
b'fossil_Hanoi_Vietnam',418.2869263,21.17067203,105.6032901,1/28/22 6:12,b'fossil,Hanoi_Vietnam',Hanoi_Vietnam,Vietnam,Hanoi
b'fossil_Harbin_China',417.1628723,45.71545715,126.2335798,2/2/22 5:33,b'fossil,Harbin_China',Harbin_China,China,Harbin
b'fossil_Ho_Chi_Minh_City_Vietnam',418.5623779,10.89685741,106.5161825,2/2/22 3:47,b'fossil,Ho_Chi_Minh_City_Vietnam',Ho_Chi_Minh_City_Vietnam,Vietnam,Ho_Chi_Minh_City
b'fossil_Hong_Kong_China',419.3928833,22.71596591,114.0178658,1/29/22 5:27,b'fossil,Hong_Kong_China',Hong_Kong_China,China,Hong_Kong
b'fossil_Huhot_China',419.8118591,25.60409641,118.3219935,2/24/22 4:04,b'fossil,Huhot_China',Huhot_China,China,Huhot
b'fossil_Hyderabad_India',417.5911407,17.64792381,78.25924974,1/20/22 10:55,b'fossil,Hyderabad_India',Hyderabad_India,India,Hyderabad
b'fossil_Indianapolis_USA',415.8389282,39.96757371,-86.62021656,6/27/22 15:37,b'fossil,Indianapolis_USA',Indianapolis_USA,USA,Indianapolis
b'fossil_Istanbul_Turkey',415.7503662,41.14273876,28.61061061,2/11/22 7:44,b'fossil,Istanbul_Turkey',Istanbul_Turkey,Turkey,Istanbul
b'fossil_Jakarta_Indonesia',418.189743,-6.498083175,106.6385872,4/3/22 3:04,b'fossil,Jakarta_Indonesia',Jakarta_Indonesia,Indonesia,Jakarta
b'fossil_Janschwalde_Germany',418.7591095,51.7239727,12.80021166,4/28/22 5:26,b'fossil,Janschwalde_Germany',Janschwalde_Germany,Germany,Janschwalde
b'fossil_Jeddah_Saudi_Arabia',418.7542572,21.64525165,39.36738,2/5/22 7:40,b'fossil,Jeddah_Saudi_Arabia',Jeddah_Saudi_Arabia,Saudi_Arabia,Jeddah
b'fossil_Jinan_China',421.2934265,40.11920643,111.8902664,12/21/22 4:21,b'fossil,Jinan_China',Jinan_China,China,Jinan
b'fossil_Johannesburg_South_Africa',416.4854126,-25.87673125,27.66924225,1/3/22 9:36,b'fossil,Johannesburg_South_Africa',Johannesburg_South_Africa,South_Africa,Johannesburg
b'fossil_Kansas_City_USA',418.2318115,39.3476185,-94.91878991,2/11/22 21:57,b'fossil,Kansas_City_USA',Kansas_City_USA,USA,Kansas_City
b'fossil_Kaoshsiung_Taiwan',418.9544067,22.78031034,120.4795487,2/3/22 3:04,b'fossil,Kaoshsiung_Taiwan',Kaoshsiung_Taiwan,Taiwan,Kaoshsiung
b'fossil_Karachi_Pakistan',415.966629,25.20536169,67.06634675,1/21/22 11:43,b'fossil,Karachi_Pakistan',Karachi_Pakistan,Pakistan,Karachi
b'fossil_Katowice_Poland',416.8359375,50.31435559,18.32775979,2/10/22 11:45,b'fossil,Katowice_Poland',Katowice_Poland,Poland,Katowice
b'fossil_Khartoum_Sudan',417.5187988,15.43868921,32.30612671,1/28/22 10:49,b'fossil,Khartoum_Sudan',Khartoum_Sudan,Sudan,Khartoum
b'fossil_Kolkata_India',417.5089111,22.77634652,88.18364637,2/15/22 9:37,b'fossil,Kolkata_India',Kolkata_India,India,Kolkata
b'fossil_Lagos_Nigeria',415.8158264,7.107751152,3.330674325,2/5/22 9:09,b'fossil,Lagos_Nigeria',Lagos_Nigeria,Nigeria,Lagos
b'fossil_Lahore_Pakistan',419.0435486,31.45821154,74.04195412,1/25/22 10:10,b'fossil,Lahore_Pakistan',Lahore_Pakistan,Pakistan,Lahore
b'fossil_Lima_Peru',415.2227173,-11.67645072,-77.03581823,1/17/22 20:51,b'fossil,Lima_Peru',Lima_Peru,Peru,Lima
b'fossil_London_UK',416.4824219,51.45616323,-0.679017966,4/2/22 16:39,b'fossil,London_UK',London_UK,UK,London
b'fossil_Los_Angeles_USA',419.0140991,34.20310398,-118.3049671,2/4/22 19:23,b'fossil,Los_Angeles_USA',Los_Angeles_USA,USA,Los_Angeles
b'fossil_Luanda_Angola',415.2898254,-8.957842707,13.41535183,1/16/22 15:27,b'fossil,Luanda_Angola',Luanda_Angola,Angola,Luanda
b'fossil_Madrid_Spain',418.4566345,40.40523951,-3.993613932,1/29/22 14:50,b'fossil,Madrid_Spain',Madrid_Spain,Spain,Madrid
b'fossil_Manila_Philippines',418.8485107,14.6555389,120.7540865,1/31/22 3:50,b'fossil,Manila_Philippines',Manila_Philippines,Philippines,Manila
b'fossil_Maracaibo_Venezuela',416.7529602,10.76749143,-71.84835397,1/3/22 14:02,b'fossil,Maracaibo_Venezuela',Maracaibo_Venezuela,Venezuela,Maracaibo
b'fossil_Mashhad_Iran',416.1290588,36.31989199,59.30348845,1/25/22 11:45,b'fossil,Mashhad_Iran',Mashhad_Iran,Iran,Mashhad
b'fossil_Mecca_Saudi_Arabia',418.0719147,21.55835841,39.66906856,3/2/22 7:07,b'fossil,Mecca_Saudi_Arabia',Mecca_Saudi_Arabia,Saudi_Arabia,Mecca
b'fossil_Medina_Saudi_Arabia',417.3658752,24.73053065,39.33838554,1/4/22 5:26,b'fossil,Medina_Saudi_Arabia',Medina_Saudi_Arabia,Saudi_Arabia,Medina
b'fossil_Melbourne_Australia',414.5652161,-37.47406139,144.5124368,1/1/22 3:32,b'fossil,Melbourne_Australia',Melbourne_Australia,Australia,Melbourne
b'fossil_Mexico_City_Mexico',418.2906189,19.4004608,-99.36912431,1/29/22 19:21,b'fossil,Mexico_City_Mexico',Mexico_City_Mexico,Mexico,Mexico_City
b'fossil_Miami_USA',417.5559082,25.97511643,-80.67484992,3/26/22 20:21,b'fossil,Miami_USA',Miami_USA,USA,Miami
b'fossil_Milan_Italy',419.0060425,45.39449515,8.949814479,2/2/22 13:17,b'fossil,Milan_Italy',Milan_Italy,Italy,Milan
b'fossil_Minneapolis_USA',412.3935547,44.89926659,-93.6141866,2/17/22 18:44,b'fossil,Minneapolis_USA',Minneapolis_USA,USA,Minneapolis
b'fossil_Monterrey_Mexico',418.6921387,25.76448859,-100.5913055,2/19/22 20:23,b'fossil,Monterrey_Mexico',Monterrey_Mexico,Mexico,Monterrey
b'fossil_Montreal_Canada',418.0981445,45.51831592,-73.88816143,2/9/22 20:24,b'fossil,Montreal_Canada',Montreal_Canada,Canada,Montreal
b'fossil_Mumbai_India',416.8502197,19.1930046,73.08119069,2/11/22 2:58,b'fossil,Mumbai_India',Mumbai_India,India,Mumbai
b'fossil_Munich_Germany',417.461319,48.15768233,11.13389161,2/13/22 9:19,b'fossil,Munich_Germany',Munich_Germany,Germany,Munich
b'fossil_Nairobi_Kenya',416.9205322,-1.002855372,36.46932864,1/4/22 7:08,b'fossil,Nairobi_Kenya',Nairobi_Kenya,Kenya,Nairobi
b'fossil_Nanjing_China',417.326416,31.99728034,118.5352768,7/31/22 5:28,b'fossil,Nanjing_China',Nanjing_China,China,Nanjing
b'fossil_Naples_Italy',416.5415955,41.03888284,14.56125944,1/28/22 14:05,b'fossil,Naples_Italy',Naples_Italy,Italy,Naples
b'fossil_New_Delhi_India',418.3269653,28.53965817,76.98344206,1/26/22 9:22,b'fossil,New_Delhi_India',New_Delhi_India,India,New_Delhi
b'fossil_New_Orleans_USA',420.5532532,30.35486158,-90.41156705,2/14/22 21:12,b'fossil,New_Orleans_USA',New_Orleans_USA,USA,New_Orleans
b'fossil_New_York_USA',416.659729,41.09638054,-74.70018114,4/29/22 14:03,b'fossil,New_York_USA',New_York_USA,USA,New_York
b'fossil_Orlando_USA',418.2267914,28.45837827,-81.62984117,1/31/22 17:49,b'fossil,Orlando_USA',Orlando_USA,USA,Orlando
b'fossil_Osaka_Japan',418.4795074,34.78918929,135.3627504,5/4/22 22:33,b'fossil,Osaka_Japan',Osaka_Japan,Japan,Osaka
b'fossil_Peshawar_Pakistan',419.2727661,33.83379843,71.20846329,2/12/22 3:48,b'fossil,Peshawar_Pakistan',Peshawar_Pakistan,Pakistan,Peshawar
b'fossil_Philadelphia_USA',417.7168884,40.21004222,-75.47012195,8/29/22 13:47,b'fossil,Philadelphia_USA',Philadelphia_USA,USA,Philadelphia
b'fossil_Phoenix_USA',418.2667847,33.56857754,-112.3601306,1/25/22 22:34,b'fossil,Phoenix_USA',Phoenix_USA,USA,Phoenix
b'fossil_Pittsburgh_USA',418.4996338,40.09342402,-80.59479951,4/12/22 14:48,b'fossil,Pittsburgh_USA',Pittsburgh_USA,USA,Pittsburgh
b'fossil_Portland_USA',416.3186493,45.47668895,-122.868792,1/31/22 22:36,b'fossil,Portland_USA',Portland_USA,USA,Portland
b'fossil_Prague_Czech_Republic',416.9553375,50.03434829,13.66409116,6/15/22 9:23,b'fossil,Prague_Czech_Republic',Prague_Czech_Republic,Czech_Republic,Prague
b'fossil_Pune_India',417.6465149,18.51505556,73.69556368,1/1/22 4:44,b'fossil,Pune_India',Pune_India,India,Pune
b'fossil_Pusan_South_Korea',417.9430237,35.30829889,128.7732804,7/28/22 6:20,b'fossil,Pusan_South_Korea',Pusan_South_Korea,South_Korea,Pusan
b'fossil_Qingdao_China',420.5177307,36.31576881,119.7904747,2/12/22 0:44,b'fossil,Qingdao_China',Qingdao_China,China,Qingdao
b'fossil_Quanzhou_China',419.8375549,24.76935432,118.3103043,4/9/22 1:36,b'fossil,Quanzhou_China',Quanzhou_China,China,Quanzhou
b'fossil_Rio_de_Janeiro_Brazil',416.0237427,-22.26440667,-43.70065219,1/28/22 13:44,b'fossil,Rio_de_Janeiro_Brazil',Rio_de_Janeiro_Brazil,Brazil,Rio_de_Janeiro
b'fossil_Riyadh_Saudi_Arabia',418.6070862,24.62357859,46.48001911,2/2/22 8:30,b'fossil,Riyadh_Saudi_Arabia',Riyadh_Saudi_Arabia,Saudi_Arabia,Riyadh
b'fossil_Rome_Italy',417.8116608,42.05859956,12.4369364,2/4/22 11:42,b'fossil,Rome_Italy',Rome_Italy,Italy,Rome
b'fossil_Rostov-on-Don_Russia',416.0987854,47.29280221,39.34272838,2/11/22 7:46,b'fossil,Rostov-on-Don_Russia',Rostov-on-Don_Russia,Russia,Rostov-on-Don
b'fossil_Sacramento_USA',418.3639984,38.62541984,-121.6736995,4/9/22 18:43,b'fossil,Sacramento_USA',Sacramento_USA,USA,Sacramento
b'fossil_Salt_Lake_City_USA',419.3520508,40.69943578,-111.9956639,4/6/22 19:34,b'fossil,Salt_Lake_City_USA',Salt_Lake_City_USA,USA,Salt_Lake_City
b'fossil_Samut_Prakan_Thailand',420.1759644,14.17391219,100.2105642,1/20/22 9:21,b'fossil,Samut_Prakan_Thailand',Samut_Prakan_Thailand,Thailand,Samut_Prakan
b'fossil_San_Antonio_USA',418.5426331,29.59106165,-98.66067821,2/20/22 19:35,b'fossil,San_Antonio_USA',San_Antonio_USA,USA,San_Antonio
b'fossil_San_Cristobal_Dominican_Republic',418.1522522,18.85088853,-70.48123652,2/23/22 17:17,b'fossil,San_Cristobal_Dominican_Republic',San_Cristobal_Dominican_Republic,Dominican_Republic,San_Cristobal
b'fossil_San_Diego_USA',419.002243,32.92156622,-116.9230829,1/28/22 21:46,b'fossil,San_Diego_USA',San_Diego_USA,USA,San_Diego
b'fossil_San_Francisco_USA',418.37146,37.80884119,-122.0190549,1/26/22 23:22,b'fossil,San_Francisco_USA',San_Francisco_USA,USA,San_Francisco
b'fossil_San_Jose_USA',418.4183044,37.31952116,-121.9057148,4/2/22 21:08,b'fossil,San_Jose_USA',San_Jose_USA,USA,San_Jose
b'fossil_Santiago_Chile',415.1263123,-33.45844127,-71.06111589,1/1/22 17:25,b'fossil,Santiago_Chile',Santiago_Chile,Chile,Santiago
b'fossil_Sao_Paulo_Brazil',415.5550842,-23.35378093,-46.85278547,1/3/22 14:14,b'fossil,Sao_Paulo_Brazil',Sao_Paulo_Brazil,Brazil,Sao_Paulo
b'fossil_Seattle_USA',415.9350281,47.56433432,-122.5623479,2/10/22 22:39,b'fossil,Seattle_USA',Seattle_USA,USA,Seattle
b'fossil_Seoul_South_Korea',420.6467285,37.64207205,126.7793617,1/28/22 6:19,b'fossil,Seoul_South_Korea',Seoul_South_Korea,South_Korea,Seoul
b'fossil_Shah_Alam_Malaysia',418.0918274,3.120586514,101.50716,3/2/22 4:08,b'fossil,Shah_Alam_Malaysia',Shah_Alam_Malaysia,Malaysia,Shah_Alam
b'fossil_Shanghai_China',420.6773682,31.20346427,121.0352339,2/14/22 7:16,b'fossil,Shanghai_China',Shanghai_China,China,Shanghai
b'fossil_Shantou_China',419.5685425,23.8163331,116.2345009,1/1/22 1:37,b'fossil,Shantou_China',Shantou_China,China,Shantou
b'fossil_Shenyang_China',417.9404297,41.92039688,123.1580125,2/25/22 1:37,b'fossil,Shenyang_China',Shenyang_China,China,Shenyang
b'fossil_Singapore_Singapore',418.6932068,1.719944608,103.4701023,1/22/22 7:43,b'fossil,Singapore_Singapore',Singapore_Singapore,Singapore,Singapore
b'fossil_Sohag_Egypt',418.1008911,26.53457746,31.45594469,1/3/22 6:13,b'fossil,Sohag_Egypt',Sohag_Egypt,Egypt,Sohag
b'fossil_St_Louis_USA',413.8968506,38.07807772,-91.0435767,4/7/22 17:12,b'fossil,St_Louis_USA',St_Louis_USA,USA,St_Louis
b'fossil_St_Petersburg_USA',418.8535461,27.83515487,-82.53503763,2/11/22 22:01,b'fossil,St_Petersburg_USA',St_Petersburg_USA,USA,St_Petersburg
b'fossil_Sydney_Australia',414.5214539,-33.45844841,150.751709,5/2/22 2:51,b'fossil,Sydney_Australia',Sydney_Australia,Australia,Sydney
b'fossil_Tabriz_Iran',417.7984619,37.98011192,46.06460569,1/30/22 10:57,b'fossil,Tabriz_Iran',Tabriz_Iran,Iran,Tabriz
b'fossil_Taegu_South_Korea',416.4989929,35.59029135,128.1924763,4/12/22 0:52,b'fossil,Taegu_South_Korea',Taegu_South_Korea,South_Korea,Taegu
b'fossil_Taichung_Taiwan',419.3056335,24.11761379,120.6519605,2/28/22 2:29,b'fossil,Taichung_Taiwan',Taichung_Taiwan,Taiwan,Taichung
b'fossil_Taipei_Taiwan',418.3952026,24.60907745,121.0045895,1/2/22 0:49,b'fossil,Taipei_Taiwan',Taipei_Taiwan,Taiwan,Taipei
b'fossil_Taiyuan_China',420.0918579,38.13636238,112.2266075,4/1/22 6:27,b'fossil,Taiyuan_China',Taiyuan_China,China,Taiyuan
b'fossil_Tehran_Iran',416.9544067,35.52914161,51.13744818,1/28/22 10:56,b'fossil,Tehran_Iran',Tehran_Iran,Iran,Tehran
b'fossil_Tel_Aviv-Yafo_Israel',418.8426666,31.74184606,34.94593993,1/26/22 12:30,b'fossil,Tel_Aviv-Yafo_Israel',Tel_Aviv-Yafo_Israel,Israel,Tel_Aviv-Yafo
b'fossil_Tianjin_China',421.0171509,38.6874846,116.4975903,4/2/22 5:39,b'fossil,Tianjin_China',Tianjin_China,China,Tianjin
b'fossil_Timmins_Canada',413.5840912,48.64159326,-81.67574832,6/23/22 12:22,b'fossil,Timmins_Canada',Timmins_Canada,Canada,Timmins
b'fossil_Toronto_Canada',416.6035767,43.6890968,-80.00748008,1/31/22 19:29,b'fossil,Toronto_Canada',Toronto_Canada,Canada,Toronto
b'fossil_Urumqi_China',417.4576111,43.86744341,87.39185969,2/4/22 7:04,b'fossil,Urumqi_China',Urumqi_China,China,Urumqi
b'fossil_Vancouver_Canada',416.4825287,49.18487484,-123.0394096,2/10/22 19:25,b'fossil,Vancouver_Canada',Vancouver_Canada,Canada,Vancouver
b'fossil_Vienna_Austria',416.346756,48.27194993,16.16051743,2/14/22 11:46,b'fossil,Vienna_Austria',Vienna_Austria,Austria,Vienna
b'fossil_Washington_DC_USA',418.5642395,38.70028355,-77.47036417,1/29/22 19:28,b'fossil,Washington_DC_USA',Washington_DC_USA,USA,Washington_DC
b'fossil_Wenzhou_China',418.4131775,27.60875115,120.1421253,6/16/22 7:19,b'fossil,Wenzhou_China',Wenzhou_China,China,Wenzhou
b'fossil_Wuhan_China',419.0133514,30.77456678,114.0286203,2/28/22 2:28,b'fossil,Wuhan_China',Wuhan_China,China,Wuhan
b'fossil_Wuxi_China',418.6581421,31.76445155,119.9457186,2/5/22 3:06,b'fossil,Wuxi_China',Wuxi_China,China,Wuxi
b'fossil_Xiamen_China',420.3200989,24.57405599,118.1280353,2/16/22 7:17,b'fossil,Xiamen_China',Xiamen_China,China,Xiamen
b'fossil_Xian_China',418.711731,34.49235297,108.650551,2/3/22 4:40,b'fossil,Xian_China',Xian_China,China,Xian
b'fossil_Yinchuan_China',418.5431671,38.84984015,105.7487534,2/13/22 8:00,b'fossil,Yinchuan_China',Yinchuan_China,China,Yinchuan
b'fossil_Zhengzhou_China',416.4907532,34.44599782,113.2806441,4/10/22 2:25,b'fossil,Zhengzhou_China',Zhengzhou_China,China,Zhengzhou
b'fossil_Zibo_China',415.7612,36.83680458,117.8843337,6/29/22 1:41,b'fossil,Zibo_China',Zibo_China,China,Zibo
b'fossil_Abu_Dhabi_UAE',418.8105316,24.05242623,54.35320748,2/1/23 7:55,b'fossil,Abu_Dhabi_UAE',Abu_Dhabi_UAE,UAE,Abu_Dhabi
b'fossil_Ad_Damman_Saudi_Arabia',418.6078339,26.02146132,49.58811762,2/8/23 5:32,b'fossil,Ad_Damman_Saudi_Arabia',Ad_Damman_Saudi_Arabia,Saudi_Arabia,Ad_Damman
b'fossil_Adelaide_Australia',416.1017761,-34.75797484,138.7371411,1/8/23 8:01,b'fossil,Adelaide_Australia',Adelaide_Australia,Australia,Adelaide
b'fossil_Ahmadabad_India',418.4290771,22.86714485,72.33784427,1/20/23 11:13,b'fossil,Ahmadabad_India',Ahmadabad_India,India,Ahmadabad
b'fossil_Ahvaz_Iran',420.2360229,31.44191389,48.44498917,1/30/23 9:33,b'fossil,Ahvaz_Iran',Ahvaz_Iran,Iran,Ahvaz
b'fossil_Al-Ahmadi_Kuwait',418.0425262,28.73014637,47.59614231,6/2/23 8:46,b'fossil,Al-Ahmadi_Kuwait',Al-Ahmadi_Kuwait,Kuwait,Al-Ahmadi
b'fossil_Al_Ain_UAE',422.7901611,24.47368691,55.53135525,4/30/23 5:56,b'fossil,Al_Ain_UAE',Al_Ain_UAE,UAE,Al_Ain
b'fossil_Al_Hofuf_Saudi_Arabia',420.4942322,25.80470513,49.21353725,2/22/23 8:54,b'fossil,Al_Hofuf_Saudi_Arabia',Al_Hofuf_Saudi_Arabia,Saudi_Arabia,Al_Hofuf
b'fossil_Algoma_Steel',417.4646301,46.4410104,-84.91828068,5/30/23 20:33,b'fossil,Algoma_Steel',Algoma_Steel,Steel,Algoma
b'fossil_Almaty_Kazakhstan',418.7987213,43.41909872,76.40345094,1/28/23 9:40,b'fossil,Almaty_Kazakhstan',Almaty_Kazakhstan,Kazakhstan,Almaty
b'fossil_Amman_Jordan',419.0563354,31.72859587,35.65365563,2/1/23 9:30,b'fossil,Amman_Jordan',Amman_Jordan,Jordan,Amman
b'fossil_Ankara_Turkey',417.4068146,39.8804417,32.57393685,2/2/23 10:19,b'fossil,Ankara_Turkey',Ankara_Turkey,Turkey,Ankara
b'fossil_Ashgabat_Turkmenistan',416.90979,37.93978617,58.13242481,1/30/23 9:36,b'fossil,Ashgabat_Turkmenistan',Ashgabat_Turkmenistan,Turkmenistan,Ashgabat
b'fossil_Astana_Kazakhstan',419.8451691,51.13417272,70.87611673,4/1/23 11:30,b'fossil,Astana_Kazakhstan',Astana_Kazakhstan,Kazakhstan,Astana
b'fossil_Athens_Greece',416.8374786,38.48645614,23.30024064,2/9/23 14:25,b'fossil,Athens_Greece',Athens_Greece,Greece,Athens
b'fossil_Atlanta_USA',419.690033,33.44009618,-84.77815156,2/4/23 16:26,b'fossil,Atlanta_USA',Atlanta_USA,USA,Atlanta
b'fossil_Austin_USA',421.0183716,30.50359119,-97.87418502,4/29/23 15:58,b'fossil,Austin_USA',Austin_USA,USA,Austin
b'fossil_Baabda_Lebanon',418.1677246,34.40243516,36.22288231,2/10/23 13:40,b'fossil,Baabda_Lebanon',Baabda_Lebanon,Lebanon,Baabda
b'fossil_Baghdad_Iraq',419.3968811,33.43920577,44.21955486,1/25/23 11:59,b'fossil,Baghdad_Iraq',Baghdad_Iraq,Iraq,Baghdad
b'fossil_Baltimore_USA',421.7781372,39.65957488,-77.07974969,2/24/23 14:59,b'fossil,Baltimore_USA',Baltimore_USA,USA,Baltimore
b'fossil_Bangalore_India',419.5798645,13.12858974,77.41598613,1/3/23 3:34,b'fossil,Bangalore_India',Bangalore_India,India,Bangalore
b'fossil_Baotou_China',420.0608063,40.68463137,109.5203483,1/30/23 6:31,b'fossil,Baotou_China',Baotou_China,China,Baotou
b'fossil_Barcelona_Spain',419.5155945,41.62856117,1.458610811,1/28/23 14:18,b'fossil,Barcelona_Spain',Barcelona_Spain,Spain,Barcelona
b'fossil_Beijing_China',421.6383057,39.83232943,116.1455714,1/28/23 6:33,b'fossil,Beijing_China',Beijing_China,China,Beijing
b'fossil_Benha_Egypt',421.3643951,30.07545233,31.70902532,7/4/23 5:22,b'fossil,Benha_Egypt',Benha_Egypt,Egypt,Benha
b'fossil_Bogota_Colombia',419.2897186,4.73794816,-74.15271109,1/4/23 13:41,b'fossil,Bogota_Colombia',Bogota_Colombia,Colombia,Bogota
b'fossil_Boston_USA',421.4417114,42.68123779,-71.66147174,2/10/23 19:47,b'fossil,Boston_USA',Boston_USA,USA,Boston
b'fossil_Brisbane_Australia',417.4811707,-27.73282952,152.5560567,1/9/23 7:16,b'fossil,Brisbane_Australia',Brisbane_Australia,Australia,Brisbane
b'fossil_Bucharest_Romania',420.0677795,44.42705604,25.65352662,2/7/23 9:32,b'fossil,Bucharest_Romania',Bucharest_Romania,Romania,Bucharest
b'fossil_Budapest_Hungary',418.3069153,47.49903296,18.65251333,2/5/23 11:07,b'fossil,Budapest_Hungary',Budapest_Hungary,Hungary,Budapest
b'fossil_Buenos_Aires_Argentina',416.8513794,-34.88755612,-58.92729876,1/22/23 15:30,b'fossil,Buenos_Aires_Argentina',Buenos_Aires_Argentina,Argentina,Buenos_Aires
b'fossil_Cairo_Egypt',420.0020142,30.07382085,31.07303846,2/4/23 8:41,b'fossil,Cairo_Egypt',Cairo_Egypt,Egypt,Cairo
b'fossil_Calgary_Canada',418.0032501,51.10662261,-114.1824657,2/6/23 21:15,b'fossil,Calgary_Canada',Calgary_Canada,Canada,Calgary
b'fossil_Cape_Town_South_Africa',416.8231201,-33.66646761,18.71343058,1/7/23 16:33,b'fossil,Cape_Town_South_Africa',Cape_Town_South_Africa,South_Africa,Cape_Town
b'fossil_Caracas_Venezuela',418.3848267,10.10201886,-67.03305142,1/2/23 13:40,b'fossil,Caracas_Venezuela',Caracas_Venezuela,Venezuela,Caracas
b'fossil_Changchun_China',421.2680664,43.75067503,124.6689351,1/28/23 6:35,b'fossil,Changchun_China',Changchun_China,China,Changchun
b'fossil_Chengdu_China',418.0316772,30.7590793,103.9603224,3/4/23 1:04,b'fossil,Chengdu_China',Chengdu_China,China,Chengdu
b'fossil_Chennai_India',420.854187,13.19009005,79.92331426,3/29/23 7:22,b'fossil,Chennai_India',Chennai_India,India,Chennai
b'fossil_Chicago_USA',421.993927,41.82843339,-88.09347365,2/1/23 18:53,b'fossil,Chicago_USA',Chicago_USA,USA,Chicago
b'fossil_Chifeng_China',419.7301941,42.47121637,118.5477209,2/10/23 7:24,b'fossil,Chifeng_China',Chifeng_China,China,Chifeng
b'fossil_Chios_Turkey',417.6052551,40.31574619,28.26029977,1/29/23 11:58,b'fossil,Chios_Turkey',Chios_Turkey,Turkey,Chios
b'fossil_Chongqing_China',417.3270721,29.63831458,106.3805084,4/4/23 4:19,b'fossil,Chongqing_China',Chongqing_China,China,Chongqing
b'fossil_Cologne_Germany',420.1439362,50.99043149,6.376737261,2/6/23 13:31,b'fossil,Cologne_Germany',Cologne_Germany,Germany,Cologne
b'fossil_Dalian_China',420.1480713,39.00433256,121.5703136,1/29/23 5:45,b'fossil,Dalian_China',Dalian_China,China,Dalian
b'fossil_Datong_Shanxi_China',420.3769684,39.89760769,112.6493785,8/10/23 2:09,b'fossil,Datong_Shanxi_China',Datong_Shanxi_China,China,Datong_Shanxi
b'fossil_Dhaka_Bangladesh',421.3771057,24.11254244,90.36101364,1/23/23 8:52,b'fossil,Dhaka_Bangladesh',Dhaka_Bangladesh,Bangladesh,Dhaka
b'fossil_Doha_Qatar',420.9702454,25.06486846,51.12114482,1/20/23 12:47,b'fossil,Doha_Qatar',Doha_Qatar,Qatar,Doha
b'fossil_Dubai_UAE',420.7607269,24.88024954,55.3173374,1/1/23 5:05,b'fossil,Dubai_UAE',Dubai_UAE,UAE,Dubai
b'fossil_Durban_South_Africa',417.1107788,-29.79542399,30.52245001,1/16/23 12:33,b'fossil,Durban_South_Africa',Durban_South_Africa,South_Africa,Durban
b'fossil_Esfahan_Iran',420.4035645,32.75507896,51.44205162,2/24/23 7:18,b'fossil,Esfahan_Iran',Esfahan_Iran,Iran,Esfahan
b'fossil_Fremantle_Australia',415.6139374,-31.99131653,116.0752491,1/3/23 3:50,b'fossil,Fremantle_Australia',Fremantle_Australia,Australia,Fremantle
b'fossil_Guadalajara_Mexico',420.7176819,20.63029098,-103.4940245,2/7/23 15:33,b'fossil,Guadalajara_Mexico',Guadalajara_Mexico,Mexico,Guadalajara
b'fossil_Guangzhou_China',421.163208,22.98911487,113.0155273,1/23/23 7:19,b'fossil,Guangzhou_China',Guangzhou_China,China,Guangzhou
b'fossil_Guiyang_China',420.6544495,26.21555596,106.3181844,1/21/23 8:55,b'fossil,Guiyang_China',Guiyang_China,China,Guiyang
b'fossil_Hangzhou_China',422.9740448,30.53614432,119.867947,2/15/23 6:39,b'fossil,Hangzhou_China',Hangzhou_China,China,Hangzhou
b'fossil_Hanoi_Vietnam',421.0136108,21.06620735,105.6019656,1/1/23 2:00,b'fossil,Hanoi_Vietnam',Hanoi_Vietnam,Vietnam,Hanoi
b'fossil_Harbin_China',420.0887146,45.88847189,126.2256059,2/4/23 4:09,b'fossil,Harbin_China',Harbin_China,China,Harbin
b'fossil_Ho_Chi_Minh_City_Vietnam',419.8008423,10.75660403,106.3486906,1/27/23 5:39,b'fossil,Ho_Chi_Minh_City_Vietnam',Ho_Chi_Minh_City_Vietnam,Vietnam,Ho_Chi_Minh_City
b'fossil_Hong_Kong_China',419.9310608,22.58844233,114.185775,5/26/23 6:32,b'fossil,Hong_Kong_China',Hong_Kong_China,China,Hong_Kong
b'fossil_Huhot_China',424.2622681,25.77906577,118.2131875,4/17/23 6:57,b'fossil,Huhot_China',Huhot_China,China,Huhot
b'fossil_Hyderabad_India',418.9986572,17.48178234,78.17400398,1/18/23 11:13,b'fossil,Hyderabad_India',Hyderabad_India,India,Hyderabad
b'fossil_Indianapolis_USA',419.9624939,39.91294969,-86.55044702,5/3/23 12:46,b'fossil,Indianapolis_USA',Indianapolis_USA,USA,Indianapolis
b'fossil_Istanbul_Turkey',417.1808167,41.27835418,28.42114701,2/1/23 11:08,b'fossil,Istanbul_Turkey',Istanbul_Turkey,Turkey,Istanbul
b'fossil_Jakarta_Indonesia',419.2180023,-6.506603831,106.6818489,4/5/23 1:48,b'fossil,Jakarta_Indonesia',Jakarta_Indonesia,Indonesia,Jakarta
b'fossil_Janschwalde_Germany',422.314209,51.82098543,12.91402061,4/26/23 5:47,b'fossil,Janschwalde_Germany',Janschwalde_Germany,Germany,Janschwalde
b'fossil_Jeddah_Saudi_Arabia',420.0650024,21.68159975,39.34000355,1/30/23 9:30,b'fossil,Jeddah_Saudi_Arabia',Jeddah_Saudi_Arabia,Saudi_Arabia,Jeddah
b'fossil_Jinan_China',416.3027649,37.08076706,116.9558805,9/2/23 23:08,b'fossil,Jinan_China',Jinan_China,China,Jinan
b'fossil_Johannesburg_South_Africa',415.3800354,-26.0913627,27.71432085,1/9/23 6:48,b'fossil,Johannesburg_South_Africa',Johannesburg_South_Africa,South_Africa,Johannesburg
b'fossil_Kansas_City_USA',420.0361023,39.34515989,-94.86424493,4/8/23 23:13,b'fossil,Kansas_City_USA',Kansas_City_USA,USA,Kansas_City
b'fossil_Kaoshsiung_Taiwan',420.2031097,22.86270715,120.4774094,1/28/23 4:54,b'fossil,Kaoshsiung_Taiwan',Kaoshsiung_Taiwan,Taiwan,Kaoshsiung
b'fossil_Karachi_Pakistan',420.8770142,25.18895958,67.2348434,4/6/23 5:50,b'fossil,Karachi_Pakistan',Karachi_Pakistan,Pakistan,Karachi
b'fossil_Katowice_Poland',417.617218,50.27705885,18.37576422,2/4/23 13:33,b'fossil,Katowice_Poland',Katowice_Poland,Poland,Katowice
b'fossil_Khartoum_Sudan',418.7587891,15.45415895,32.36071775,1/22/23 12:42,b'fossil,Khartoum_Sudan',Khartoum_Sudan,Sudan,Khartoum
b'fossil_Kolkata_India',420.0680389,22.75373022,87.98828838,3/4/23 2:39,b'fossil,Kolkata_India',Kolkata_India,India,Kolkata
b'fossil_Lagos_Nigeria',417.8513489,6.50849176,3.358507466,9/20/23 14:41,b'fossil,Lagos_Nigeria',Lagos_Nigeria,Nigeria,Lagos
b'fossil_Lahore_Pakistan',421.6460266,31.71926962,74.06300526,4/6/23 5:52,b'fossil,Lahore_Pakistan',Lahore_Pakistan,Pakistan,Lahore
b'fossil_Las_Vegas_USA',421.8358002,36.02237789,-114.8389989,6/15/23 21:58,b'fossil,Las_Vegas_USA',Las_Vegas_USA,USA,Las_Vegas
b'fossil_Lima_Peru',416.8364105,-11.77326382,-76.99663245,1/23/23 17:58,b'fossil,Lima_Peru',Lima_Peru,Peru,Lima
b'fossil_London_UK',418.0924683,51.49708458,-0.9431247,4/12/23 12:11,b'fossil,London_UK',London_UK,UK,London
b'fossil_Los_Angeles_USA',421.5770569,34.24411001,-118.212796,1/29/23 21:12,b'fossil,Los_Angeles_USA',Los_Angeles_USA,USA,Los_Angeles
b'fossil_Luanda_Angola',418.7057495,-9.080287366,13.50630435,1/18/23 14:11,b'fossil,Luanda_Angola',Luanda_Angola,Angola,Luanda
b'fossil_Madrid_Spain',418.3789368,40.6231583,-3.961199484,2/9/23 15:57,b'fossil,Madrid_Spain',Madrid_Spain,Spain,Madrid
b'fossil_Manila_Philippines',420.1958313,14.67250666,120.9109823,1/29/23 4:04,b'fossil,Manila_Philippines',Manila_Philippines,Philippines,Manila
b'fossil_Maracaibo_Venezuela',419.5339203,10.41438708,-72.09089572,1/21/23 19:39,b'fossil,Maracaibo_Venezuela',Maracaibo_Venezuela,Venezuela,Maracaibo
b'fossil_Mashhad_Iran',418.3363953,36.15988996,59.25181219,1/27/23 10:25,b'fossil,Mashhad_Iran',Mashhad_Iran,Iran,Mashhad
b'fossil_Mecca_Saudi_Arabia',419.8093719,21.47570563,39.69923116,1/19/23 13:33,b'fossil,Mecca_Saudi_Arabia',Mecca_Saudi_Arabia,Saudi_Arabia,Mecca
b'fossil_Medina_Saudi_Arabia',419.5568695,24.45902391,39.37922331,1/22/23 12:45,b'fossil,Medina_Saudi_Arabia',Medina_Saudi_Arabia,Saudi_Arabia,Medina
b'fossil_Melbourne_Australia',415.4320526,-37.5087421,144.6551361,1/3/23 2:20,b'fossil,Melbourne_Australia',Melbourne_Australia,Australia,Melbourne
b'fossil_Mexico_City_Mexico',420.1382141,19.4023318,-99.2947635,1/2/23 15:09,b'fossil,Mexico_City_Mexico',Mexico_City_Mexico,Mexico,Mexico_City
b'fossil_Miami_USA',420.9789886,26.0718582,-80.70003243,1/2/23 13:35,b'fossil,Miami_USA',Miami_USA,USA,Miami
b'fossil_Milan_Italy',418.7941589,45.35081379,8.723991936,4/19/23 6:34,b'fossil,Milan_Italy',Milan_Italy,Italy,Milan
b'fossil_Minneapolis_USA',422.7918396,45.00993252,-93.33112652,4/14/23 20:00,b'fossil,Minneapolis_USA',Minneapolis_USA,USA,Minneapolis
b'fossil_Monterrey_Mexico',419.5029602,25.77711236,-100.6748563,3/1/23 15:49,b'fossil,Monterrey_Mexico',Monterrey_Mexico,Mexico,Monterrey
b'fossil_Montreal_Canada',417.7654114,45.68949824,-73.86530104,4/14/23 18:27,b'fossil,Montreal_Canada',Montreal_Canada,Canada,Montreal
b'fossil_Mumbai_India',419.9578247,19.30830413,73.15316186,1/3/23 3:33,b'fossil,Mumbai_India',Mumbai_India,India,Mumbai
b'fossil_Munich_Germany',419.2770386,48.13641108,11.23649397,2/7/23 11:07,b'fossil,Munich_Germany',Munich_Germany,Germany,Munich
b'fossil_Nairobi_Kenya',418.4204559,-1.314746625,36.66903007,1/6/23 5:56,b'fossil,Nairobi_Kenya',Nairobi_Kenya,Kenya,Nairobi
b'fossil_Nanjing_China',422.500946,32.02578232,118.6371994,8/1/23 4:35,b'fossil,Nanjing_China',Nanjing_China,China,Nanjing
b'fossil_Naples_Italy',416.5337677,41.06322398,14.52186518,1/30/23 12:43,b'fossil,Naples_Italy',Naples_Italy,Italy,Naples
b'fossil_New_Delhi_India',420.0912476,28.60310764,76.90775271,1/1/23 3:31,b'fossil,New_Delhi_India',New_Delhi_India,India,New_Delhi
b'fossil_New_Orleans_USA',416.8659363,30.29323045,-90.42950839,8/26/23 16:18,b'fossil,New_Orleans_USA',New_Orleans_USA,USA,New_Orleans
b'fossil_New_York_USA',417.0690155,40.6893035,-74.46115319,4/24/23 15:14,b'fossil,New_York_USA',New_York_USA,USA,New_York
b'fossil_Ningbo_China',419.7940216,29.42647733,121.0900606,8/10/23 0:33,b'fossil,Ningbo_China',Ningbo_China,China,Ningbo
b'fossil_Orlando_USA',420.0512695,28.45754355,-81.77308799,1/25/23 19:41,b'fossil,Orlando_USA',Orlando_USA,USA,Orlando
b'fossil_Osaka_Japan',421.0615997,34.9220784,135.277812,3/23/23 7:33,b'fossil,Osaka_Japan',Osaka_Japan,Japan,Osaka
b'fossil_Paris_France',420.065155,48.93293648,1.97667436,2/5/23 12:42,b'fossil,Paris_France',Paris_France,France,Paris
b'fossil_Peshawar_Pakistan',419.762207,33.89716992,71.33861104,2/6/23 5:35,b'fossil,Peshawar_Pakistan',Peshawar_Pakistan,Pakistan,Peshawar
b'fossil_Philadelphia_USA',417.2686768,39.79348469,-74.82982178,7/4/23 11:29,b'fossil,Philadelphia_USA',Philadelphia_USA,USA,Philadelphia
b'fossil_Phoenix_USA',421.3465271,33.31430374,-112.4590026,1/23/23 22:51,b'fossil,Phoenix_USA',Phoenix_USA,USA,Phoenix
b'fossil_Pittsburgh_USA',415.9129639,40.26133788,-80.4996307,4/14/23 13:34,b'fossil,Pittsburgh_USA',Pittsburgh_USA,USA,Pittsburgh
b'fossil_Portland_USA',418.5187683,45.46506693,-122.9568327,1/29/23 22:50,b'fossil,Portland_USA',Portland_USA,USA,Portland
b'fossil_Prague_Czech_Republic',416.0615997,50.19245858,14.16781311,4/12/23 12:14,b'fossil,Prague_Czech_Republic',Prague_Czech_Republic,Czech_Republic,Prague
b'fossil_Pune_India',418.4014282,18.06764939,73.5933978,1/21/23 10:25,b'fossil,Pune_India',Pune_India,India,Pune
b'fossil_Pusan_South_Korea',423.4627533,35.29301595,128.8602599,4/3/23 3:35,b'fossil,Pusan_South_Korea',Pusan_South_Korea,South_Korea,Pusan
b'fossil_Qingdao_China',419.6503601,36.11102423,119.858817,2/28/23 1:04,b'fossil,Qingdao_China',Qingdao_China,China,Qingdao
b'fossil_Quanzhou_China',419.5485687,23.68536075,117.1424383,2/8/23 0:53,b'fossil,Quanzhou_China',Quanzhou_China,China,Quanzhou
b'fossil_Rio_de_Janeiro_Brazil',418.3139801,-22.50672979,-43.45579323,1/2/23 13:50,b'fossil,Rio_de_Janeiro_Brazil',Rio_de_Janeiro_Brazil,Brazil,Rio_de_Janeiro
b'fossil_Riyadh_Saudi_Arabia',419.0377045,24.67770483,46.4873672,1/27/23 10:21,b'fossil,Riyadh_Saudi_Arabia',Riyadh_Saudi_Arabia,Saudi_Arabia,Riyadh
b'fossil_Rome_Italy',418.2145996,42.05471367,12.41072396,1/29/23 13:32,b'fossil,Rome_Italy',Rome_Italy,Italy,Rome
b'fossil_Rostov-on-Don_Russia',415.8612061,47.27948998,39.36647482,2/4/23 10:22,b'fossil,Rostov-on-Don_Russia',Rostov-on-Don_Russia,Russia,Rostov-on-Don
b'fossil_Sacramento_USA',420.273407,38.6214388,-121.7098703,2/8/23 17:59,b'fossil,Sacramento_USA',Sacramento_USA,USA,Sacramento
b'fossil_Salt_Lake_City_USA',417.6479034,40.39164655,-112.5511417,4/8/23 18:17,b'fossil,Salt_Lake_City_USA',Salt_Lake_City_USA,USA,Salt_Lake_City
b'fossil_Samut_Prakan_Thailand',422.07547,14.0979067,100.4660636,1/3/23 2:02,b'fossil,Samut_Prakan_Thailand',Samut_Prakan_Thailand,Thailand,Samut_Prakan
b'fossil_San_Antonio_USA',420.3735809,29.64761666,-98.63084533,2/10/23 22:58,b'fossil,San_Antonio_USA',San_Antonio_USA,USA,San_Antonio
b'fossil_San_Cristobal_Dominican_Republic',419.821106,18.79642135,-70.38897098,1/28/23 17:17,b'fossil,San_Cristobal_Dominican_Republic',San_Cristobal_Dominican_Republic,Dominican_Republic,San_Cristobal
b'fossil_San_Diego_USA',419.2342834,32.97390432,-116.8213933,1/26/23 22:02,b'fossil,San_Diego_USA',San_Diego_USA,USA,San_Diego
b'fossil_San_Francisco_USA',418.8105469,37.82906866,-121.9696195,1/24/23 23:39,b'fossil,San_Francisco_USA',San_Francisco_USA,USA,San_Francisco
b'fossil_San_Jose_USA',420.6088715,37.41467395,-121.6833588,4/4/23 19:51,b'fossil,San_Jose_USA',San_Jose_USA,USA,San_Jose
b'fossil_Santiago_Chile',416.4173431,-33.53718332,-71.04507326,1/8/23 21:57,b'fossil,Santiago_Chile',Santiago_Chile,Chile,Santiago
b'fossil_Sao_Paulo_Brazil',418.0965881,-23.4319146,-46.92150804,1/1/23 14:39,b'fossil,Sao_Paulo_Brazil',Sao_Paulo_Brazil,Brazil,Sao_Paulo
b'fossil_Seattle_USA',419.1632385,47.54113206,-122.5525405,4/4/23 21:29,b'fossil,Seattle_USA',Seattle_USA,USA,Seattle
b'fossil_Seoul_South_Korea',421.4170837,37.50958709,126.864242,1/30/23 4:57,b'fossil,Seoul_South_Korea',Seoul_South_Korea,South_Korea,Seoul
b'fossil_Shah_Alam_Malaysia',420.0092773,3.065772003,101.4400557,3/26/23 6:34,b'fossil,Shah_Alam_Malaysia',Shah_Alam_Malaysia,Malaysia,Shah_Alam
b'fossil_Shanghai_China',423.8347473,31.21060865,120.9294197,6/2/23 4:08,b'fossil,Shanghai_China',Shanghai_China,China,Shanghai
b'fossil_Shantou_China',421.7852783,23.76267859,116.1360032,3/1/23 1:54,b'fossil,Shantou_China',Shantou_China,China,Shantou
b'fossil_Shenyang_China',418.8851624,41.93704122,123.1433224,4/15/23 23:37,b'fossil,Shenyang_China',Shenyang_China,China,Shenyang
b'fossil_Singapore_Singapore',420.762207,1.509186407,103.7053998,5/1/23 3:44,b'fossil,Singapore_Singapore',Singapore_Singapore,Singapore,Singapore
b'fossil_Sohag_Egypt',419.3093262,26.77338431,31.41387625,1/1/23 6:37,b'fossil,Sohag_Egypt',Sohag_Egypt,Egypt,Sohag
b'fossil_St_Louis_USA',422.4078979,38.37263496,-90.92477837,2/6/23 16:27,b'fossil,St_Louis_USA',St_Louis_USA,USA,St_Louis
b'fossil_St_Petersburg_USA',420.6070862,28.00562692,-82.53354405,2/9/23 14:02,b'fossil,St_Petersburg_USA',St_Petersburg_USA,USA,St_Petersburg
b'fossil_Sydney_Australia',415.9926758,-33.42700647,150.7033533,1/8/23 23:06,b'fossil,Sydney_Australia',Sydney_Australia,Australia,Sydney
b'fossil_Tabriz_Iran',419.5483246,38.09427561,46.16351471,1/28/23 11:11,b'fossil,Tabriz_Iran',Tabriz_Iran,Iran,Tabriz
b'fossil_Taegu_South_Korea',422.0464172,35.79610065,128.4373775,6/6/23 2:32,b'fossil,Taegu_South_Korea',Taegu_South_Korea,South_Korea,Taegu
b'fossil_Taichung_Taiwan',420.1395264,24.24194752,120.7249371,2/22/23 4:16,b'fossil,Taichung_Taiwan',Taichung_Taiwan,Taiwan,Taichung
b'fossil_Taipei_Taiwan',422.2895508,24.15946037,120.7987045,1/24/23 6:32,b'fossil,Taipei_Taiwan',Taipei_Taiwan,Taiwan,Taipei
b'fossil_Taiyuan_China',419.6171417,38.10101714,112.1649315,5/30/23 6:33,b'fossil,Taiyuan_China',Taiyuan_China,China,Taiyuan
b'fossil_Tehran_Iran',419.9777832,35.50470044,51.18975282,1/26/23 11:12,b'fossil,Tehran_Iran',Tehran_Iran,Iran,Tehran
b'fossil_Tel_Aviv-Yafo_Israel',418.5038757,31.76042414,34.83208489,1/24/23 12:46,b'fossil,Tel_Aviv-Yafo_Israel',Tel_Aviv-Yafo_Israel,Israel,Tel_Aviv-Yafo
b'fossil_Tianjin_China',422.7063904,38.88052757,116.7075185,2/1/23 4:55,b'fossil,Tianjin_China',Tianjin_China,China,Tianjin
b'fossil_Tokyo_Japan',424.3768311,36.17604205,139.1082436,4/15/23 22:03,b'fossil,Tokyo_Japan',Tokyo_Japan,Japan,Tokyo
b'fossil_Toronto_Canada',420.4913025,43.67099616,-79.89529748,2/6/23 16:30,b'fossil,Toronto_Canada',Toronto_Canada,Canada,Toronto
b'fossil_Urumqi_China',420.2532806,43.91647246,87.22591913,2/2/23 7:16,b'fossil,Urumqi_China',Urumqi_China,China,Urumqi
b'fossil_Vancouver_Canada',419.885437,49.17754212,-122.9584311,2/10/23 19:38,b'fossil,Vancouver_Canada',Vancouver_Canada,Canada,Vancouver
b'fossil_Vienna_Austria',418.4087677,48.276903,16.08667722,2/4/23 11:55,b'fossil,Vienna_Austria',Vienna_Austria,Austria,Vienna
b'fossil_Washington_DC_USA',422.0105591,38.67887046,-77.34932982,1/27/23 19:43,b'fossil,Washington_DC_USA',Washington_DC_USA,USA,Washington_DC
b'fossil_Wenzhou_China',420.3317261,27.3892268,120.0688661,1/27/23 5:43,b'fossil,Wenzhou_China',Wenzhou_China,China,Wenzhou
b'fossil_Wuhan_China',423.1262512,30.23853769,113.9628028,4/1/23 5:07,b'fossil,Wuhan_China',Wuhan_China,China,Wuhan
b'fossil_Wuxi_China',422.7588043,31.57552594,120.0021868,1/30/23 4:55,b'fossil,Wuxi_China',Wuxi_China,China,Wuxi
b'fossil_Xiamen_China',418.5919189,27.40063286,115.5204722,8/24/23 3:59,b'fossil,Xiamen_China',Xiamen_China,China,Xiamen
b'fossil_Xian_China',419.9710388,34.52336116,108.6218776,1/24/23 8:08,b'fossil,Xian_China',Xian_China,China,Xian
b'fossil_Yinchuan_China',420.135376,38.67461579,106.0615861,2/15/23 6:35,b'fossil,Yinchuan_China',Yinchuan_China,China,Yinchuan
b'fossil_Zhengzhou_China',421.1349945,34.50930762,113.4264826,2/23/23 3:26,b'fossil,Zhengzhou_China',Zhengzhou_China,China,Zhengzhou
b'fossil_Zibo_China',419.9068604,37.03545183,117.686775,4/19/23 5:19,b'fossil,Zibo_China',Zibo_China,China,Zibo
b'fossil_Abu_Dhabi_UAE',420.2883148,24.2052891,54.3646008,9/30/24 7:35,b'fossil,Abu_Dhabi_UAE',Abu_Dhabi_UAE,UAE,Abu_Dhabi
b'fossil_Ad_Damman_Saudi_Arabia',421.8125458,26.36516627,49.40187396,8/28/24 5:53,b'fossil,Ad_Damman_Saudi_Arabia',Ad_Damman_Saudi_Arabia,Saudi_Arabia,Ad_Damman
b'fossil_Adelaide_Australia',421.0286865,-34.66463818,138.5845868,7/25/24 1:00,b'fossil,Adelaide_Australia',Adelaide_Australia,Australia,Adelaide
b'fossil_Ahmadabad_India',424.405777,23.23261926,72.2094377,9/18/24 10:47,b'fossil,Ahmadabad_India',Ahmadabad_India,India,Ahmadabad
b'fossil_Ahvaz_Iran',423.5607605,31.39949294,48.55793714,8/1/24 8:11,b'fossil,Ahvaz_Iran',Ahvaz_Iran,Iran,Ahvaz
b'fossil_Al-Ahmadi_Kuwait',421.854187,29.19009974,47.50429552,8/9/24 5:01,b'fossil,Al-Ahmadi_Kuwait',Al-Ahmadi_Kuwait,Kuwait,Al-Ahmadi
b'fossil_Al_Ain_UAE',424.0312653,23.52579871,55.39168562,11/30/24 7:09,b'fossil,Al_Ain_UAE',Al_Ain_UAE,UAE,Al_Ain
b'fossil_Al_Hofuf_Saudi_Arabia',424.1519928,25.58172318,49.3758296,8/24/24 7:30,b'fossil,Al_Hofuf_Saudi_Arabia',Al_Hofuf_Saudi_Arabia,Saudi_Arabia,Al_Hofuf
b'fossil_Algoma_Steel',417.987915,46.33048242,-85.1206627,7/31/24 23:12,b'fossil,Algoma_Steel',Algoma_Steel,Steel,Algoma
b'fossil_Almaty_Kazakhstan',420.6647034,43.39920498,76.47332862,7/22/24 11:34,b'fossil,Almaty_Kazakhstan',Almaty_Kazakhstan,Kazakhstan,Almaty
b'fossil_Amman_Jordan',421.6511383,31.68355885,35.63531192,8/3/24 8:10,b'fossil,Amman_Jordan',Amman_Jordan,Jordan,Amman
b'fossil_Ankara_Turkey',421.2398987,39.88530718,32.56301699,7/20/24 14:40,b'fossil,Ankara_Turkey',Ankara_Turkey,Turkey,Ankara
b'fossil_Ashgabat_Turkmenistan',422.2518005,37.91443059,58.1414377,7/17/24 13:56,b'fossil,Ashgabat_Turkmenistan',Ashgabat_Turkmenistan,Turkmenistan,Ashgabat
b'fossil_Astana_Kazakhstan',421.8936768,51.19506769,70.95680999,7/24/24 13:10,b'fossil,Astana_Kazakhstan',Astana_Kazakhstan,Kazakhstan,Astana
b'fossil_Athens_Greece',422.2754822,38.49850264,23.21319797,8/7/24 14:41,b'fossil,Athens_Greece',Athens_Greece,Greece,Athens
b'fossil_Atlanta_USA',424.1750641,33.5520643,-84.77522807,8/2/24 16:42,b'fossil,Atlanta_USA',Atlanta_USA,USA,Atlanta
b'fossil_Baabda_Lebanon',421.0080872,34.32214441,36.36961493,8/16/24 10:42,b'fossil,Baabda_Lebanon',Baabda_Lebanon,Lebanon,Baabda
b'fossil_Baghdad_Iraq',421.9956207,33.2029794,44.16387683,7/27/24 10:37,b'fossil,Baghdad_Iraq',Baghdad_Iraq,Iraq,Baghdad
b'fossil_Baltimore_USA',423.2730103,39.64875467,-77.07020095,10/23/24 14:38,b'fossil,Baltimore_USA',Baltimore_USA,USA,Baltimore
b'fossil_Bangalore_India',421.9014893,12.91322527,77.34673249,9/16/24 10:44,b'fossil,Bangalore_India',Bangalore_India,India,Bangalore
b'fossil_Baotou_China',423.507782,40.73642681,109.4758061,8/1/24 5:10,b'fossil,Baotou_China',Baotou_China,China,Baotou
b'fossil_Barcelona_Spain',420.8223572,41.57312317,1.598764277,8/3/24 11:20,b'fossil,Barcelona_Spain',Barcelona_Spain,Spain,Barcelona
b'fossil_Beijing_China',422.9979553,39.83655825,116.1767737,8/7/24 8:29,b'fossil,Beijing_China',Beijing_China,China,Beijing
b'fossil_Benha_Egypt',423.1306,30.72008726,31.06552354,10/27/24 6:53,b'fossil,Benha_Egypt',Benha_Egypt,Egypt,Benha
b'fossil_Bogota_Colombia',424.2194366,4.585636509,-74.27409759,8/4/24 13:26,b'fossil,Bogota_Colombia',Bogota_Colombia,Colombia,Bogota
b'fossil_Boston_USA',417.3975067,42.69016746,-71.59091161,8/12/24 18:28,b'fossil,Boston_USA',Boston_USA,USA,Boston
b'fossil_Brisbane_Australia',421.3943481,-27.58686145,152.475862,7/26/24 0:15,b'fossil,Brisbane_Australia',Brisbane_Australia,Australia,Brisbane
b'fossil_Bucharest_Romania',421.0072327,44.40975441,25.6330334,7/21/24 15:28,b'fossil,Bucharest_Romania',Bucharest_Romania,Romania,Bucharest
b'fossil_Budapest_Hungary',421.0374756,47.48225419,18.51328063,7/26/24 14:38,b'fossil,Budapest_Hungary',Budapest_Hungary,Hungary,Budapest
b'fossil_Buenos_Aires_Argentina',420.8274231,-34.58867779,-59.11836969,7/28/24 12:32,b'fossil,Buenos_Aires_Argentina',Buenos_Aires_Argentina,Argentina,Buenos_Aires
b'fossil_Cairo_Egypt',422.0177917,30.05960227,31.05385791,7/18/24 14:38,b'fossil,Cairo_Egypt',Cairo_Egypt,Egypt,Cairo
b'fossil_Calgary_Canada',421.0194855,51.11662618,-114.3067758,7/27/24 1:33,b'fossil,Calgary_Canada',Calgary_Canada,Canada,Calgary
b'fossil_Cape_Town_South_Africa',421.9290619,-33.74123206,18.68121848,8/19/24 14:54,b'fossil,Cape_Town_South_Africa',Cape_Town_South_Africa,South_Africa,Cape_Town
b'fossil_Caracas_Venezuela',422.6955414,10.05567048,-66.81981461,7/20/24 19:09,b'fossil,Caracas_Venezuela',Caracas_Venezuela,Venezuela,Caracas
b'fossil_Changchun_China',422.8515015,43.80413946,124.7629498,8/3/24 3:37,b'fossil,Changchun_China',Changchun_China,China,Changchun
b'fossil_Chengdu_China',424.454895,30.81287438,103.998417,8/11/24 8:30,b'fossil,Chengdu_China',Chengdu_China,China,Chengdu
b'fossil_Chennai_India',422.242157,12.91920249,79.93972371,10/2/24 4:23,b'fossil,Chennai_India',Chennai_India,India,Chennai
b'fossil_Chicago_USA',422.1109619,41.83327739,-87.99087607,7/19/24 23:13,b'fossil,Chicago_USA',Chicago_USA,USA,Chicago
b'fossil_Chifeng_China',423.0944977,42.4378073,118.8681875,8/16/24 4:28,b'fossil,Chifeng_China',Chifeng_China,China,Chifeng
b'fossil_Chios_Turkey',419.7318573,40.13166161,28.41174409,7/31/24 10:35,b'fossil,Chios_Turkey',Chios_Turkey,Turkey,Chios
b'fossil_Chongqing_China',424.2230835,29.53302167,106.2792653,8/7/24 1:56,b'fossil,Chongqing_China',Chongqing_China,China,Chongqing
b'fossil_Cologne_Germany',420.6932068,50.97520935,6.307838548,7/28/24 16:12,b'fossil,Cologne_Germany',Cologne_Germany,Germany,Cologne
b'fossil_Columbus_USA',418.6175232,40.23517947,-83.57669474,8/25/24 14:21,b'fossil,Columbus_USA',Columbus_USA,USA,Columbus
b'fossil_Dalian_China',424.6582031,39.13705024,121.6910803,8/4/24 2:47,b'fossil,Dalian_China',Dalian_China,China,Dalian
b'fossil_Datong_Shanxi_China',426.4758606,39.69491897,112.1301876,12/6/24 2:31,b'fossil,Datong_Shanxi_China',Datong_Shanxi_China,China,Datong_Shanxi
b'fossil_Dhaka_Bangladesh',427.7178955,24.43487036,89.9775607,10/20/24 6:17,b'fossil,Dhaka_Bangladesh',Dhaka_Bangladesh,Bangladesh,Dhaka
b'fossil_Doha_Qatar',423.978241,24.80924864,50.97987069,7/22/24 11:27,b'fossil,Doha_Qatar',Doha_Qatar,Qatar,Doha
b'fossil_Dubai_UAE',422.9977112,24.89589457,55.41468959,8/25/24 6:43,b'fossil,Dubai_UAE',Dubai_UAE,UAE,Dubai
b'fossil_Durban_South_Africa',422.0436859,-29.73441104,30.51218913,7/18/24 11:12,b'fossil,Durban_South_Africa',Durban_South_Africa,South_Africa,Durban
b'fossil_Esfahan_Iran',423.1629944,32.98244544,51.3413804,8/14/24 10:45,b'fossil,Esfahan_Iran',Esfahan_Iran,Iran,Esfahan
b'fossil_Fremantle_Australia',422.128418,-31.98040923,116.0721961,7/21/24 4:11,b'fossil,Fremantle_Australia',Fremantle_Australia,Australia,Fremantle
b'fossil_Guadalajara_Mexico',422.0071411,20.7460979,-103.3342085,8/10/24 23:17,b'fossil,Guadalajara_Mexico',Guadalajara_Mexico,Mexico,Guadalajara
b'fossil_Guangzhou_China',426.2794342,23.22821671,112.9308694,10/6/24 1:20,b'fossil,Guangzhou_China',Guangzhou_China,China,Guangzhou
b'fossil_Guiyang_China',423.068161,26.60526958,106.7475035,9/19/24 8:28,b'fossil,Guiyang_China',Guiyang_China,China,Guiyang
b'fossil_Hangzhou_China',418.071106,33.79311523,115.4440842,8/21/24 3:40,b'fossil,Hangzhou_China',Hangzhou_China,China,Hangzhou
b'fossil_Hanoi_Vietnam',426.7224121,21.03260984,105.8756879,9/2/24 0:30,b'fossil,Hanoi_Vietnam',Hanoi_Vietnam,Vietnam,Hanoi
b'fossil_Harbin_China',422.1653442,45.83926713,126.2952682,7/25/24 7:41,b'fossil,Harbin_China',Harbin_China,China,Harbin
b'fossil_Ho_Chi_Minh_City_Vietnam',422.8135834,12.57150373,105.5926641,9/25/24 5:15,b'fossil,Ho_Chi_Minh_City_Vietnam',Ho_Chi_Minh_City_Vietnam,Vietnam,Ho_Chi_Minh_City
b'fossil_Hong_Kong_China',422.9622803,22.8327027,114.3533213,9/17/24 8:28,b'fossil,Hong_Kong_China',Hong_Kong_China,China,Hong_Kong
b'fossil_Huhot_China',424.5182037,25.9086223,118.4159586,10/3/24 2:07,b'fossil,Huhot_China',Huhot_China,China,Huhot
b'fossil_Hyderabad_India',422.9273987,17.16219255,78.24492267,10/9/24 2:02,b'fossil,Hyderabad_India',Hyderabad_India,India,Hyderabad
b'fossil_Indianapolis_USA',421.7718506,40.09403879,-86.8882214,10/21/24 16:14,b'fossil,Indianapolis_USA',Indianapolis_USA,USA,Indianapolis
b'fossil_Istanbul_Turkey',422.1791229,41.06767037,28.78683592,7/19/24 15:28,b'fossil,Istanbul_Turkey',Istanbul_Turkey,Turkey,Istanbul
b'fossil_Jakarta_Indonesia',423.0096436,-6.340981548,106.8103969,7/16/24 8:16,b'fossil,Jakarta_Indonesia',Jakarta_Indonesia,Indonesia,Jakarta
b'fossil_Jeddah_Saudi_Arabia',423.2689514,21.64876296,39.34453217,8/1/24 8:09,b'fossil,Jeddah_Saudi_Arabia',Jeddah_Saudi_Arabia,Saudi_Arabia,Jeddah
b'fossil_Johannesburg_South_Africa',422.482605,-26.34415441,27.80350375,7/17/24 12:01,b'fossil,Johannesburg_South_Africa',Johannesburg_South_Africa,South_Africa,Johannesburg
b'fossil_Kansas_City_USA',421.5454407,38.60728354,-93.90440693,8/4/24 0:01,b'fossil,Kansas_City_USA',Kansas_City_USA,USA,Kansas_City
b'fossil_Kaoshsiung_Taiwan',425.8343811,22.84200377,120.4773443,8/3/24 1:56,b'fossil,Kaoshsiung_Taiwan',Kaoshsiung_Taiwan,Taiwan,Kaoshsiung
b'fossil_Karachi_Pakistan',420.8170471,25.1867968,67.11350899,10/2/24 6:01,b'fossil,Karachi_Pakistan',Karachi_Pakistan,Pakistan,Karachi
b'fossil_Katowice_Poland',420.8312378,50.30197348,18.27876174,7/28/24 16:14,b'fossil,Katowice_Poland',Katowice_Poland,Poland,Katowice
b'fossil_Khartoum_Sudan',423.6165314,15.46087581,32.37737582,7/28/24 9:44,b'fossil,Khartoum_Sudan',Khartoum_Sudan,Sudan,Khartoum
b'fossil_Kolkata_India',424.8750305,21.66928673,87.37763214,7/17/24 10:46,b'fossil,Kolkata_India',Kolkata_India,India,Kolkata
b'fossil_Lagos_Nigeria',423.8826904,6.928726373,3.384590329,9/20/24 13:47,b'fossil,Lagos_Nigeria',Lagos_Nigeria,Nigeria,Lagos
b'fossil_Lahore_Pakistan',425.2380676,31.66903159,74.15219808,10/11/24 10:14,b'fossil,Lahore_Pakistan',Lahore_Pakistan,Pakistan,Lahore
b'fossil_Lima_Peru',421.4295654,-11.58446,-76.99747987,7/21/24 18:14,b'fossil,Lima_Peru',Lima_Peru,Peru,Lima
b'fossil_London_UK',420.3128967,51.5322555,-1.075675791,8/2/24 15:22,b'fossil,London_UK',London_UK,UK,London
b'fossil_Los_Angeles_USA',423.9898071,34.1199014,-118.2228496,7/17/24 1:31,b'fossil,Los_Angeles_USA',Los_Angeles_USA,USA,Los_Angeles
b'fossil_Luanda_Angola',424.7828674,-9.067538598,13.61215507,8/18/24 14:02,b'fossil,Luanda_Angola',Luanda_Angola,Angola,Luanda
b'fossil_Madrid_Spain',420.5823059,40.6087624,-3.971526343,8/3/24 17:48,b'fossil,Madrid_Spain',Madrid_Spain,Spain,Madrid
b'fossil_Manila_Philippines',424.0596008,14.55797327,120.753124,8/7/24 23:30,b'fossil,Manila_Philippines',Manila_Philippines,Philippines,Manila
b'fossil_Maracaibo_Venezuela',422.7536011,10.67485953,-72.0119526,7/31/24 15:03,b'fossil,Maracaibo_Venezuela',Maracaibo_Venezuela,Venezuela,Maracaibo
b'fossil_Mashhad_Iran',421.4095764,36.34845343,59.28244427,7/25/24 10:41,b'fossil,Mashhad_Iran',Mashhad_Iran,Iran,Mashhad
b'fossil_Mecca_Saudi_Arabia',421.9828186,21.61730731,39.68966623,7/21/24 12:13,b'fossil,Mecca_Saudi_Arabia',Mecca_Saudi_Arabia,Saudi_Arabia,Mecca
b'fossil_Medina_Saudi_Arabia',423.6627502,24.59180803,39.37996318,7/24/24 11:24,b'fossil,Medina_Saudi_Arabia',Medina_Saudi_Arabia,Saudi_Arabia,Medina
b'fossil_Melbourne_Australia',421.6275635,-37.51675575,144.713558,8/27/24 3:57,b'fossil,Melbourne_Australia',Melbourne_Australia,Australia,Melbourne
b'fossil_Mexico_City_Mexico',422.9060211,19.49194617,-99.35705735,8/2/24 16:38,b'fossil,Mexico_City_Mexico',Mexico_City_Mexico,Mexico,Mexico_City
b'fossil_Miami_USA',424.6950073,26.42544366,-80.85802113,7/16/24 22:23,b'fossil,Miami_USA',Miami_USA,USA,Miami
b'fossil_Milan_Italy',421.319458,45.33768567,8.966395383,7/22/24 16:13,b'fossil,Milan_Italy',Milan_Italy,Italy,Milan
b'fossil_Monterrey_Mexico',422.8344727,25.7039685,-100.7630742,8/1/24 17:26,b'fossil,Monterrey_Mexico',Monterrey_Mexico,Mexico,Monterrey
b'fossil_Montreal_Canada',421.3864288,45.67929036,-73.87975495,8/1/24 22:26,b'fossil,Montreal_Canada',Montreal_Canada,Canada,Montreal
b'fossil_Mumbai_India',422.3642578,19.40036403,73.13211029,9/30/24 6:00,b'fossil,Mumbai_India',Mumbai_India,India,Mumbai
b'fossil_Munich_Germany',422.4028625,48.12478265,11.29672732,8/13/24 8:11,b'fossil,Munich_Germany',Munich_Germany,Germany,Munich
b'fossil_Nairobi_Kenya',423.357254,-1.405596562,36.57801215,7/23/24 10:31,b'fossil,Nairobi_Kenya',Nairobi_Kenya,Kenya,Nairobi
b'fossil_Nanjing_China',426.3883209,31.96635741,118.5666585,7/28/24 5:11,b'fossil,Nanjing_China',Nanjing_China,China,Nanjing
b'fossil_Naples_Italy',421.3776703,41.054436,14.57491038,7/28/24 12:59,b'fossil,Naples_Italy',Naples_Italy,Italy,Naples
b'fossil_New_Delhi_India',425.0226746,28.26728626,76.71575711,10/3/24 5:14,b'fossil,New_Delhi_India',New_Delhi_India,India,New_Delhi
b'fossil_New_York_USA',421.9004517,40.41803836,-74.61279014,7/18/24 22:27,b'fossil,New_York_USA',New_York_USA,USA,New_York
b'fossil_Orlando_USA',424.509903,28.67019545,-81.96156186,7/19/24 21:36,b'fossil,Orlando_USA',Orlando_USA,USA,Orlando
b'fossil_Osaka_Japan',425.9735718,34.82692529,135.3063591,8/9/24 6:58,b'fossil,Osaka_Japan',Osaka_Japan,Japan,Osaka
b'fossil_Paris_France',422.1096649,48.93702635,1.853203859,7/22/24 17:50,b'fossil,Paris_France',Paris_France,France,Paris
b'fossil_Peshawar_Pakistan',423.5928345,33.85036212,71.28204383,8/8/24 4:16,b'fossil,Peshawar_Pakistan',Peshawar_Pakistan,Pakistan,Peshawar
b'fossil_Philadelphia_USA',425.1313782,40.18914795,-75.34986123,8/26/24 13:34,b'fossil,Philadelphia_USA',Philadelphia_USA,USA,Philadelphia
b'fossil_Phoenix_USA',423.6020813,33.32344768,-112.3493092,7/18/24 0:44,b'fossil,Phoenix_USA',Phoenix_USA,USA,Phoenix
b'fossil_Portland_USA',421.8328552,45.43834007,-122.9381888,7/24/24 0:43,b'fossil,Portland_USA',Portland_USA,USA,Portland
b'fossil_Prague_Czech_Republic',422.1489105,50.09518077,14.2188521,8/15/24 9:48,b'fossil,Prague_Czech_Republic',Prague_Czech_Republic,Czech_Republic,Prague
b'fossil_Pune_India',428.0802765,18.4112215,73.64577866,11/26/24 7:12,b'fossil,Pune_India',Pune_India,India,Pune
b'fossil_Pusan_South_Korea',425.1556091,35.37282857,128.9533063,7/25/24 6:03,b'fossil,Pusan_South_Korea',Pusan_South_Korea,South_Korea,Pusan
b'fossil_Qingdao_China',425.5175476,36.43581935,119.563446,8/8/24 1:11,b'fossil,Qingdao_China',Qingdao_China,China,Qingdao
b'fossil_Rio_de_Janeiro_Brazil',422.6035919,-22.55395538,-43.41627428,7/28/24 12:37,b'fossil,Rio_de_Janeiro_Brazil',Rio_de_Janeiro_Brazil,Brazil,Rio_de_Janeiro
b'fossil_Riyadh_Saudi_Arabia',422.6663818,24.66622946,46.47387511,7/29/24 8:59,b'fossil,Riyadh_Saudi_Arabia',Riyadh_Saudi_Arabia,Saudi_Arabia,Riyadh
b'fossil_Rome_Italy',421.0946655,42.08029819,12.36959903,7/20/24 16:14,b'fossil,Rome_Italy',Rome_Italy,Italy,Rome
b'fossil_Rostov-on-Don_Russia',419.5526886,47.26900932,39.3906064,7/22/24 14:42,b'fossil,Rostov-on-Don_Russia',Rostov-on-Don_Russia,Russia,Rostov-on-Don
b'fossil_Sacramento_USA',422.0946655,38.68262677,-121.7306959,8/14/24 15:03,b'fossil,Sacramento_USA',Sacramento_USA,USA,Sacramento
b'fossil_Salt_Lake_City_USA',421.9209595,40.6048557,-112.2082475,7/31/24 19:52,b'fossil,Salt_Lake_City_USA',Salt_Lake_City_USA,USA,Salt_Lake_City
b'fossil_Samut_Prakan_Thailand',426.6291504,13.89324479,100.404507,9/16/24 9:11,b'fossil,Samut_Prakan_Thailand',Samut_Prakan_Thailand,Thailand,Samut_Prakan
b'fossil_San_Antonio_USA',421.8961792,29.70799375,-98.83867761,8/12/24 21:39,b'fossil,San_Antonio_USA',San_Antonio_USA,USA,San_Antonio
b'fossil_San_Cristobal_Dominican_Republic',422.3420563,18.62763814,-70.2742004,8/3/24 14:17,b'fossil,San_Cristobal_Dominican_Republic',San_Cristobal_Dominican_Republic,Dominican_Republic,San_Cristobal
b'fossil_San_Diego_USA',424.8143463,32.95136369,-116.8772658,9/20/24 23:13,b'fossil,San_Diego_USA',San_Diego_USA,USA,San_Diego
b'fossil_San_Francisco_USA',423.1763458,37.84306379,-122.0679193,7/19/24 1:31,b'fossil,San_Francisco_USA',San_Francisco_USA,USA,San_Francisco
b'fossil_San_Jose_USA',421.7507629,37.32353804,-121.8835289,9/30/24 20:03,b'fossil,San_Jose_USA',San_Jose_USA,USA,San_Jose
b'fossil_Santiago_Chile',421.855072,-33.44250687,-71.08776632,9/9/24 20:34,b'fossil,Santiago_Chile',Santiago_Chile,Chile,Santiago
b'fossil_Sao_Paulo_Brazil',422.5951843,-23.39843846,-47.008527,7/16/24 17:28,b'fossil,Sao_Paulo_Brazil',Sao_Paulo_Brazil,Brazil,Sao_Paulo
b'fossil_Seattle_USA',421.0060425,47.56968349,-122.5600365,7/23/24 1:32,b'fossil,Seattle_USA',Seattle_USA,USA,Seattle
b'fossil_Seoul_South_Korea',424.4208069,37.5661548,126.7755446,8/1/24 3:35,b'fossil,Seoul_South_Korea',Seoul_South_Korea,South_Korea,Seoul
b'fossil_Shah_Alam_Malaysia',423.5118103,3.113384878,101.6571886,8/18/24 7:46,b'fossil,Shah_Alam_Malaysia',Shah_Alam_Malaysia,Malaysia,Shah_Alam
b'fossil_Shanghai_China',426.21875,31.01160256,121.0406521,7/21/24 7:38,b'fossil,Shanghai_China',Shanghai_China,China,Shanghai
b'fossil_Shenyang_China',423.1406555,41.87127706,123.0968064,7/19/24 9:17,b'fossil,Shenyang_China',Shenyang_China,China,Shenyang
b'fossil_Singapore_Singapore',422.83078,1.596358742,103.7490985,9/18/24 7:35,b'fossil,Singapore_Singapore',Singapore_Singapore,Singapore,Singapore
b'fossil_Sohag_Egypt',422.3404846,26.55376683,31.48141121,8/10/24 13:57,b'fossil,Sohag_Egypt',Sohag_Egypt,Egypt,Sohag
b'fossil_St_Louis_USA',423.9698486,38.46039497,-90.55567469,10/5/24 16:06,b'fossil,St_Louis_USA',St_Louis_USA,USA,St_Louis
b'fossil_St_Petersburg_USA',422.996994,29.33749771,-84.07542292,10/8/24 13:44,b'fossil,St_Petersburg_USA',St_Petersburg_USA,USA,St_Petersburg
b'fossil_Sydney_Australia',421.4365234,-33.41371059,150.7085103,10/30/24 1:45,b'fossil,Sydney_Australia',Sydney_Australia,Australia,Sydney
b'fossil_Tabriz_Iran',421.7566986,38.09021529,46.01246711,7/19/24 13:54,b'fossil,Tabriz_Iran',Tabriz_Iran,Iran,Tabriz
b'fossil_Taegu_South_Korea',422.4919128,35.37653076,128.0900495,7/21/24 7:40,b'fossil,Taegu_South_Korea',Taegu_South_Korea,South_Korea,Taegu
b'fossil_Taejon_South_Korea',425.9168396,38.97071711,125.2853826,12/9/24 0:07,b'fossil,Taejon_South_Korea',Taejon_South_Korea,South_Korea,Taejon
b'fossil_Taichung_Taiwan',424.9498901,24.12646573,120.712995,8/24/24 2:52,b'fossil,Taichung_Taiwan',Taichung_Taiwan,Taiwan,Taichung
b'fossil_Taipei_Taiwan',424.5964355,24.71815625,121.1465516,7/18/24 8:26,b'fossil,Taipei_Taiwan',Taipei_Taiwan,Taiwan,Taipei
b'fossil_Taiyuan_China',426.3572083,38.17905145,111.8333068,10/26/24 1:27,b'fossil,Taiyuan_China',Taiyuan_China,China,Taiyuan
b'fossil_Tehran_Iran',425.5560608,35.54311683,51.08252231,7/20/24 13:06,b'fossil,Tehran_Iran',Tehran_Iran,Iran,Tehran
b'fossil_Tel_Aviv-Yafo_Israel',423.1266174,31.71494812,34.77378967,7/26/24 11:24,b'fossil,Tel_Aviv-Yafo_Israel',Tel_Aviv-Yafo_Israel,Israel,Tel_Aviv-Yafo
b'fossil_Tianjin_China',424.4375763,38.66592645,116.6019611,10/4/24 2:58,b'fossil,Tianjin_China',Tianjin_China,China,Tianjin
b'fossil_Tokyo_Japan',424.8007507,35.93500645,139.5366313,12/10/24 5:50,b'fossil,Tokyo_Japan',Tokyo_Japan,Japan,Tokyo
b'fossil_Toronto_Canada',421.7987366,43.79136418,-79.99373275,7/20/24 22:26,b'fossil,Toronto_Canada',Toronto_Canada,Canada,Toronto
b'fossil_Urumqi_China',422.1232452,43.76117682,87.32979291,7/24/24 9:59,b'fossil,Urumqi_China',Urumqi_China,China,Urumqi
b'fossil_Vancouver_Canada',421.3580627,49.17571489,-123.0115922,7/25/24 1:32,b'fossil,Vancouver_Canada',Vancouver_Canada,Canada,Vancouver
b'fossil_Vienna_Austria',421.2964478,48.29743513,16.09855982,8/2/24 15:25,b'fossil,Vienna_Austria',Vienna_Austria,Austria,Vienna
b'fossil_Washington_DC_USA',421.9717102,39.14788105,-77.310501,8/6/24 21:41,b'fossil,Washington_DC_USA',Washington_DC_USA,USA,Washington_DC
b'fossil_Wenzhou_China',423.7469788,27.96917315,120.3415473,7/29/24 4:22,b'fossil,Wenzhou_China',Wenzhou_China,China,Wenzhou
b'fossil_Wuhan_China',425.2523651,30.8674043,114.1393888,7/20/24 8:25,b'fossil,Wuhan_China',Wuhan_China,China,Wuhan
b'fossil_Wuxi_China',424.3696899,31.63340912,120.0006901,8/1/24 3:33,b'fossil,Wuxi_China',Wuxi_China,China,Wuxi
b'fossil_Xiamen_China',422.8287506,24.69839442,118.369278,10/13/24 7:10,b'fossil,Xiamen_China',Xiamen_China,China,Xiamen
b'fossil_Xian_China',424.5835571,34.45528064,108.7051136,7/18/24 10:03,b'fossil,Xian_China',Xian_China,China,Xian
b'fossil_Yinchuan_China',423.0921021,38.69387438,105.938102,8/9/24 8:29,b'fossil,Yinchuan_China',Yinchuan_China,China,Yinchuan
b'fossil_Zhengzhou_China',421.4735718,34.87054826,113.3811655,8/21/24 3:38,b'fossil,Zhengzhou_China',Zhengzhou_China,China,Zhengzhou
b'fossil_Zibo_China',426.0313721,37.21565447,116.5323542,8/18/24 4:29,b'fossil,Zibo_China',Zibo_China,China,Zibo
b'fossil_Ad_Damman_Saudi_Arabia',427.8595276,26.39756413,49.3681711,3/18/25 12:53,b'fossil,Ad_Damman_Saudi_Arabia',Ad_Damman_Saudi_Arabia,Saudi_Arabia,Ad_Damman
b'fossil_Adelaide_Australia',422.8097229,-34.86120515,138.6612469,3/10/25 6:28,b'fossil,Adelaide_Australia',Adelaide_Australia,Australia,Adelaide
b'fossil_Ahmadabad_India',426.269989,23.09701953,72.49668218,2/10/25 10:44,b'fossil,Ahmadabad_India',Ahmadabad_India,India,Ahmadabad
b'fossil_Ahvaz_Iran',427.9245911,31.56849875,48.4859045,4/6/25 13:50,b'fossil,Ahvaz_Iran',Ahvaz_Iran,Iran,Ahvaz
b'fossil_Al-Ahmadi_Kuwait',425.8269653,28.54271037,47.4858645,7/29/25 8:44,b'fossil,Al-Ahmadi_Kuwait',Al-Ahmadi_Kuwait,Kuwait,Al-Ahmadi
b'fossil_Al_Ain_UAE',427.6468506,23.8759319,55.38225218,3/31/25 7:15,b'fossil,Al_Ain_UAE',Al_Ain_UAE,UAE,Al_Ain
b'fossil_Al_Hofuf_Saudi_Arabia',426.9302979,25.60302889,49.37667398,2/22/25 7:27,b'fossil,Al_Hofuf_Saudi_Arabia',Al_Hofuf_Saudi_Arabia,Saudi_Arabia,Al_Hofuf
b'fossil_Algoma_Steel',427.6017456,46.50978774,-84.59449761,2/4/25 16:40,b'fossil,Algoma_Steel',Algoma_Steel,Steel,Algoma
b'fossil_Almaty_Kazakhstan',423.9727783,43.40288716,76.37542093,2/5/25 5:01,b'fossil,Almaty_Kazakhstan',Almaty_Kazakhstan,Kazakhstan,Almaty
b'fossil_Amman_Jordan',425.6228943,31.7251619,35.64570628,2/5/25 6:29,b'fossil,Amman_Jordan',Amman_Jordan,Jordan,Amman
b'fossil_Ankara_Turkey',424.1963196,39.82381257,32.54321203,2/2/25 8:54,b'fossil,Ankara_Turkey',Ankara_Turkey,Turkey,Ankara
b'fossil_Ashgabat_Turkmenistan',426.0885925,37.87262689,58.04829291,2/3/25 6:33,b'fossil,Ashgabat_Turkmenistan',Ashgabat_Turkmenistan,Turkmenistan,Ashgabat
b'fossil_Astana_Kazakhstan',424.4060364,51.14220931,70.72039908,2/3/25 8:15,b'fossil,Astana_Kazakhstan',Astana_Kazakhstan,Kazakhstan,Astana
b'fossil_Athens_Greece',424.5046539,38.44884374,23.28173391,4/11/25 12:59,b'fossil,Athens_Greece',Athens_Greece,Greece,Athens
b'fossil_Atlanta_USA',428.0322266,33.86057626,-84.72165408,2/4/25 15:01,b'fossil,Atlanta_USA',Atlanta_USA,USA,Atlanta
b'fossil_Baabda_Lebanon',424.9775391,34.32206331,36.32625344,2/10/25 12:13,b'fossil,Baabda_Lebanon',Baabda_Lebanon,Lebanon,Baabda
b'fossil_Baghdad_Iraq',426.1765442,33.27629627,44.13147764,2/2/25 7:18,b'fossil,Baghdad_Iraq',Baghdad_Iraq,Iraq,Baghdad
b'fossil_Baltimore_USA',428.1694183,39.54520764,-76.96177132,2/24/25 13:32,b'fossil,Baltimore_USA',Baltimore_USA,USA,Baltimore
b'fossil_Bangalore_India',425.2297974,13.26319804,77.27104305,2/21/25 6:45,b'fossil,Bangalore_India',Bangalore_India,India,Bangalore
b'fossil_Baotou_China',427.1999817,40.72274122,109.5224061,2/3/25 3:29,b'fossil,Baotou_China',Baotou_China,China,Baotou
b'fossil_Barcelona_Spain',427.3804474,41.73336165,1.353615642,2/1/25 11:14,b'fossil,Barcelona_Spain',Barcelona_Spain,Spain,Barcelona
b'fossil_Beijing_China',420.2463531,39.83024683,116.2025795,2/8/25 1:05,b'fossil,Beijing_China',Beijing_China,China,Beijing
b'fossil_Benha_Egypt',422.9311829,30.44019453,31.2529494,7/1/25 5:05,b'fossil,Benha_Egypt',Benha_Egypt,Egypt,Benha
b'fossil_Bogota_Colombia',427.4184265,4.968406864,-74.3447992,4/13/25 20:55,b'fossil,Bogota_Colombia',Bogota_Colombia,Colombia,Bogota
b'fossil_Boston_USA',426.1612854,42.60070011,-71.54744041,2/8/25 13:29,b'fossil,Boston_USA',Boston_USA,USA,Boston
b'fossil_Brisbane_Australia',423.8656464,-27.46058841,152.6614548,1/9/25 5:57,b'fossil,Brisbane_Australia',Brisbane_Australia,Australia,Brisbane
b'fossil_Brussels_Belgium',420.4165344,50.95111535,2.13328467,8/6/25 13:29,b'fossil,Brussels_Belgium',Brussels_Belgium,Belgium,Brussels
b'fossil_Bucharest_Romania',422.2453613,44.4226275,25.68901499,2/19/25 8:07,b'fossil,Bucharest_Romania',Bucharest_Romania,Romania,Bucharest
b'fossil_Budapest_Hungary',426.4534912,47.50316029,18.69961398,2/1/25 11:18,b'fossil,Budapest_Hungary',Budapest_Hungary,Hungary,Budapest
b'fossil_Buenos_Aires_Argentina',422.554718,-34.81710495,-59.00652686,1/3/25 21:32,b'fossil,Buenos_Aires_Argentina',Buenos_Aires_Argentina,Argentina,Buenos_Aires
b'fossil_Cairo_Egypt',425.8072052,30.01849467,31.03119354,2/12/25 12:13,b'fossil,Cairo_Egypt',Cairo_Egypt,Egypt,Cairo
b'fossil_Calgary_Canada',426.8146362,51.0972071,-114.2158399,2/2/25 21:27,b'fossil,Calgary_Canada',Calgary_Canada,Canada,Calgary
b'fossil_Cape_Town_South_Africa',422.9966125,-33.74148051,18.66656043,1/4/25 16:06,b'fossil,Cape_Town_South_Africa',Cape_Town_South_Africa,South_Africa,Cape_Town
b'fossil_Caracas_Venezuela',426.558197,10.14336175,-66.95947702,3/4/25 12:07,b'fossil,Caracas_Venezuela',Caracas_Venezuela,Venezuela,Caracas
b'fossil_Changchun_China',425.2866058,43.88111771,124.8331413,2/5/25 1:56,b'fossil,Changchun_China',Changchun_China,China,Changchun
b'fossil_Chengdu_China',427.6538696,30.7440401,104.0577516,4/19/25 5:14,b'fossil,Chengdu_China',Chengdu_China,China,Chengdu
b'fossil_Chennai_India',426.3524475,13.12202646,79.93052174,2/3/25 3:19,b'fossil,Chennai_India',Chennai_India,India,Chennai
b'fossil_Chicago_USA',425.7523193,42.00651349,-88.09792609,2/11/25 19:08,b'fossil,Chicago_USA',Chicago_USA,USA,Chicago
b'fossil_Chifeng_China',425.3041382,42.46554,118.7142635,2/14/25 4:22,b'fossil,Chifeng_China',Chifeng_China,China,Chifeng
b'fossil_Chios_Turkey',423.1124268,40.10209041,28.5596301,2/10/25 12:13,b'fossil,Chios_Turkey',Chios_Turkey,Turkey,Chios
b'fossil_Chongqing_China',424.5511475,29.39146783,106.2966733,3/23/25 7:26,b'fossil,Chongqing_China',Chongqing_China,China,Chongqing
b'fossil_Cologne_Germany',427.2972717,50.97576868,6.436635253,2/2/25 13:42,b'fossil,Cologne_Germany',Cologne_Germany,Germany,Cologne
b'fossil_Columbus_USA',425.4998779,39.75420833,-82.99025957,6/3/25 22:33,b'fossil,Columbus_USA',Columbus_USA,USA,Columbus
b'fossil_Dalian_China',428.9373474,39.04062879,121.5721359,2/6/25 7:37,b'fossil,Dalian_China',Dalian_China,China,Dalian
b'fossil_Dhaka_Bangladesh',426.2229004,23.99968037,90.42225787,2/13/25 8:22,b'fossil,Dhaka_Bangladesh',Dhaka_Bangladesh,Bangladesh,Dhaka
b'fossil_Doha_Qatar',428.1426697,24.74087819,50.93961563,3/26/25 9:41,b'fossil,Doha_Qatar',Doha_Qatar,Qatar,Doha
b'fossil_Dubai_UAE',427.226593,24.86077645,55.23800712,2/5/25 4:54,b'fossil,Dubai_UAE',Dubai_UAE,UAE,Dubai
b'fossil_Durban_South_Africa',422.9989624,-29.69677289,30.43870748,1/9/25 13:39,b'fossil,Durban_South_Africa',Durban_South_Africa,South_Africa,Durban
b'fossil_Esfahan_Iran',426.081665,32.87278448,51.42938854,2/3/25 6:31,b'fossil,Esfahan_Iran',Esfahan_Iran,Iran,Esfahan
b'fossil_Fos_sur_Mer_France',427.0072479,43.79066701,4.570854671,3/26/25 14:27,b'fossil,Fos_sur_Mer_France',Fos_sur_Mer_France,France,Fos_sur_Mer
b'fossil_Fremantle_Australia',422.7296143,-31.931957,116.0469546,1/4/25 9:56,b'fossil,Fremantle_Australia',Fremantle_Australia,Australia,Fremantle
b'fossil_Guadalajara_Mexico',427.7746887,20.80160405,-103.4454165,2/8/25 23:10,b'fossil,Guadalajara_Mexico',Guadalajara_Mexico,Mexico,Guadalajara
b'fossil_Guangzhou_China',427.9423523,23.220279,113.0175816,2/9/25 8:26,b'fossil,Guangzhou_China',Guangzhou_China,China,Guangzhou
b'fossil_Guiyang_China',426.557785,26.42216169,106.383253,6/5/25 2:02,b'fossil,Guiyang_China',Guiyang_China,China,Guiyang
b'fossil_Hangzhou_China',426.778183,30.76744721,119.5566387,2/19/25 3:35,b'fossil,Hangzhou_China',Hangzhou_China,China,Hangzhou
b'fossil_Hanoi_Vietnam',427.1035461,20.81260418,105.6529702,3/24/25 6:35,b'fossil,Hanoi_Vietnam',Hanoi_Vietnam,Vietnam,Hanoi
b'fossil_Harbin_China',419.3877258,45.78298893,126.3113882,2/4/25 2:45,b'fossil,Harbin_China',Harbin_China,China,Harbin
b'fossil_Ho_Chi_Minh_City_Vietnam',429.3794861,10.63110441,106.3705577,2/4/25 0:58,b'fossil,Ho_Chi_Minh_City_Vietnam',Ho_Chi_Minh_City_Vietnam,Vietnam,Ho_Chi_Minh_City
b'fossil_Hong_Kong_China',425.3078918,25.00210907,116.4810138,6/7/25 0:25,b'fossil,Hong_Kong_China',Hong_Kong_China,China,Hong_Kong
b'fossil_Huhot_China',427.6243591,25.93964047,118.1897579,2/14/25 6:01,b'fossil,Huhot_China',Huhot_China,China,Huhot
b'fossil_Hyderabad_India',425.6034241,17.62441922,78.11287747,2/14/25 9:10,b'fossil,Hyderabad_India',Hyderabad_India,India,Hyderabad
b'fossil_Indianapolis_USA',427.9042816,40.46139538,-87.60429695,2/22/25 15:06,b'fossil,Indianapolis_USA',Indianapolis_USA,USA,Indianapolis
b'fossil_Istanbul_Turkey',424.1928101,41.26847383,28.50845615,2/5/25 8:08,b'fossil,Istanbul_Turkey',Istanbul_Turkey,Turkey,Istanbul
b'fossil_Jakarta_Indonesia',425.617981,-6.487627272,106.7831077,3/12/25 9:42,b'fossil,Jakarta_Indonesia',Jakarta_Indonesia,Indonesia,Jakarta
b'fossil_Janschwalde_Germany',421.3994598,51.75330329,13.27690991,4/22/25 5:45,b'fossil,Janschwalde_Germany',Janschwalde_Germany,Germany,Janschwalde
b'fossil_Jeddah_Saudi_Arabia',426.8859558,21.56902843,39.37058173,2/16/25 10:39,b'fossil,Jeddah_Saudi_Arabia',Jeddah_Saudi_Arabia,Saudi_Arabia,Jeddah
b'fossil_Jinan_China',433.1579437,37.34919532,116.4377634,2/20/25 2:46,b'fossil,Jinan_China',Jinan_China,China,Jinan
b'fossil_Johannesburg_South_Africa',424.046463,-25.93653342,27.57157562,2/12/25 15:38,b'fossil,Johannesburg_South_Africa',Johannesburg_South_Africa,South_Africa,Johannesburg
b'fossil_Kansas_City_USA',429.3554688,39.43046793,-94.83359257,2/9/25 20:43,b'fossil,Kansas_City_USA',Kansas_City_USA,USA,Kansas_City
b'fossil_Kaoshsiung_Taiwan',427.7349243,22.80235212,120.4682661,7/23/25 5:42,b'fossil,Kaoshsiung_Taiwan',Kaoshsiung_Taiwan,Taiwan,Kaoshsiung
b'fossil_Karachi_Pakistan',426.7283173,25.14055649,67.18997269,2/17/25 8:17,b'fossil,Karachi_Pakistan',Karachi_Pakistan,Pakistan,Karachi
b'fossil_Katowice_Poland',425.8836975,50.29228923,18.39131665,2/3/25 12:56,b'fossil,Katowice_Poland',Katowice_Poland,Poland,Katowice
b'fossil_Khartoum_Sudan',425.7387085,15.62007475,32.35446174,2/3/25 6:25,b'fossil,Khartoum_Sudan',Khartoum_Sudan,Sudan,Khartoum
b'fossil_Kolkata_India',430.4375458,22.77401352,88.3296833,6/12/25 9:21,b'fossil,Kolkata_India',Kolkata_India,India,Kolkata
b'fossil_Lagos_Nigeria',425.0595093,10.47445941,1.139192313,6/19/25 13:10,b'fossil,Lagos_Nigeria',Lagos_Nigeria,Nigeria,Lagos
b'fossil_Lahore_Pakistan',426.0019531,31.35386391,74.13822612,3/21/25 10:34,b'fossil,Lahore_Pakistan',Lahore_Pakistan,Pakistan,Lahore
b'fossil_Lima_Peru',423.0157471,-11.6454511,-76.93479623,2/20/25 18:30,b'fossil,Lima_Peru',Lima_Peru,Peru,Lima
b'fossil_London_UK',426.4886017,51.60570217,-0.8228555,6/19/25 8:12,b'fossil,London_UK',London_UK,UK,London
b'fossil_Los_Angeles_USA',427.5277405,34.24824772,-118.358271,2/2/25 18:09,b'fossil,Los_Angeles_USA',Los_Angeles_USA,USA,Los_Angeles
b'fossil_Luanda_Angola',424.8803864,-9.032513695,13.37242657,4/30/25 9:15,b'fossil,Luanda_Angola',Luanda_Angola,Angola,Luanda
b'fossil_Madrid_Spain',426.4560242,40.52835306,-3.872413277,4/7/25 16:06,b'fossil,Madrid_Spain',Madrid_Spain,Spain,Madrid
b'fossil_Maebashi_Japan',426.4085236,34.86896594,137.1997094,7/23/25 5:47,b'fossil,Maebashi_Japan',Maebashi_Japan,Japan,Maebashi
b'fossil_Manila_Philippines',426.6377563,14.6237382,120.8634609,2/2/25 1:01,b'fossil,Manila_Philippines',Manila_Philippines,Philippines,Manila
b'fossil_Maracaibo_Venezuela',425.321991,10.86549779,-71.94680356,1/2/25 12:25,b'fossil,Maracaibo_Venezuela',Maracaibo_Venezuela,Venezuela,Maracaibo
b'fossil_Mashhad_Iran',425.6030731,36.2387939,59.25355394,2/4/25 5:45,b'fossil,Mashhad_Iran',Mashhad_Iran,Iran,Mashhad
b'fossil_Mecca_Saudi_Arabia',427.6410522,21.48521822,39.75118829,3/25/25 10:27,b'fossil,Mecca_Saudi_Arabia',Mecca_Saudi_Arabia,Saudi_Arabia,Mecca
b'fossil_Medina_Saudi_Arabia',428.2565155,24.62299949,39.42648981,2/9/25 13:04,b'fossil,Medina_Saudi_Arabia',Medina_Saudi_Arabia,Saudi_Arabia,Medina
b'fossil_Melbourne_Australia',422.5552063,-37.60439879,144.7067763,1/6/25 23:25,b'fossil,Melbourne_Australia',Melbourne_Australia,Australia,Melbourne
b'fossil_Mexico_City_Mexico',427.3853149,19.53763743,-99.31557242,2/4/25 14:56,b'fossil,Mexico_City_Mexico',Mexico_City_Mexico,Mexico,Mexico_City
b'fossil_Miami_USA',427.8231506,26.08413166,-80.67410693,2/2/25 15:00,b'fossil,Miami_USA',Miami_USA,USA,Miami
b'fossil_Milan_Italy',427.3011169,45.51424306,8.874217797,4/3/25 16:05,b'fossil,Milan_Italy',Milan_Italy,Italy,Milan
b'fossil_Monterrey_Mexico',426.7165527,25.74029884,-100.5461002,2/3/25 15:45,b'fossil,Monterrey_Mexico',Monterrey_Mexico,Mexico,Monterrey
b'fossil_Montreal_Canada',425.8597412,45.6693234,-73.77155501,2/19/25 14:17,b'fossil,Montreal_Canada',Montreal_Canada,Canada,Montreal
b'fossil_Mumbai_India',428.0270081,19.3812548,73.09713018,2/5/25 3:20,b'fossil,Mumbai_India',Mumbai_India,India,Mumbai
b'fossil_Munich_Germany',426.7619019,48.08004488,11.09654771,2/15/25 9:42,b'fossil,Munich_Germany',Munich_Germany,Germany,Munich
b'fossil_Nairobi_Kenya',425.046051,-1.392465021,36.3970662,3/31/25 7:07,b'fossil,Nairobi_Kenya',Nairobi_Kenya,Kenya,Nairobi
b'fossil_Nanjing_China',426.5140839,31.61781502,118.0859489,7/17/25 8:57,b'fossil,Nanjing_China',Nanjing_China,China,Nanjing
b'fossil_Naples_Italy',425.7489319,41.25104853,13.86730898,6/11/25 13:07,b'fossil,Naples_Italy',Naples_Italy,Italy,Naples
b'fossil_New_Delhi_India',426.7871399,28.44440573,76.9428445,3/18/25 11:21,b'fossil,New_Delhi_India',New_Delhi_India,India,New_Delhi
b'fossil_New_Orleans_USA',426.3302917,30.0691108,-90.1111067,2/8/25 21:33,b'fossil,New_Orleans_USA',New_Orleans_USA,USA,New_Orleans
b'fossil_New_York_USA',422.7075348,40.78652784,-74.48813151,2/4/25 15:04,b'fossil,New_York_USA',New_York_USA,USA,New_York
b'fossil_Orlando_USA',426.5378265,28.61638389,-81.64583016,2/9/25 20:47,b'fossil,Orlando_USA',Orlando_USA,USA,Orlando
b'fossil_Osaka_Japan',428.6642761,34.67348,135.5117177,4/17/25 3:41,b'fossil,Osaka_Japan',Osaka_Japan,Japan,Osaka
b'fossil_Paris_France',427.2987518,48.89895029,2.047975393,2/17/25 9:40,b'fossil,Paris_France',Paris_France,France,Paris
b'fossil_Peshawar_Pakistan',427.1570892,34.10656651,71.40973478,2/6/25 4:10,b'fossil,Peshawar_Pakistan',Peshawar_Pakistan,Pakistan,Peshawar
b'fossil_Philadelphia_USA',422.0101471,40.08801456,-75.44894724,4/15/25 17:37,b'fossil,Philadelphia_USA',Philadelphia_USA,USA,Philadelphia
b'fossil_Phoenix_USA',427.0119324,33.50103925,-112.465814,2/7/25 15:46,b'fossil,Phoenix_USA',Phoenix_USA,USA,Phoenix
b'fossil_Pittsburgh_USA',426.7018738,40.45533351,-79.98632704,3/21/25 21:27,b'fossil,Pittsburgh_USA',Pittsburgh_USA,USA,Pittsburgh
b'fossil_Portland_USA',425.9410706,45.52991646,-122.9171622,2/11/25 20:37,b'fossil,Portland_USA',Portland_USA,USA,Portland
b'fossil_Prague_Czech_Republic',426.8049011,50.18429733,13.72628335,2/17/25 8:05,b'fossil,Prague_Czech_Republic',Prague_Czech_Republic,Czech_Republic,Prague
b'fossil_Pune_India',428.4614716,18.73771887,73.8561071,4/28/25 4:26,b'fossil,Pune_India',Pune_India,India,Pune
b'fossil_Pusan_South_Korea',428.8668823,35.33298258,128.7827832,4/6/25 1:04,b'fossil,Pusan_South_Korea',Pusan_South_Korea,South_Korea,Pusan
b'fossil_Qingdao_China',429.2666931,36.28705812,119.5580912,2/24/25 1:11,b'fossil,Qingdao_China',Qingdao_China,China,Qingdao
b'fossil_Quanzhou_China',427.3684845,25.24386719,118.1309896,2/10/25 7:39,b'fossil,Quanzhou_China',Quanzhou_China,China,Quanzhou
b'fossil_Rio_de_Janeiro_Brazil',424.4099731,-22.43772438,-43.50366346,1/6/25 10:57,b'fossil,Rio_de_Janeiro_Brazil',Rio_de_Janeiro_Brazil,Brazil,Rio_de_Janeiro
b'fossil_Riyadh_Saudi_Arabia',427.0997925,24.63806533,46.40906627,2/4/25 5:41,b'fossil,Riyadh_Saudi_Arabia',Riyadh_Saudi_Arabia,Saudi_Arabia,Riyadh
b'fossil_Rome_Italy',424.4941711,42.07412197,12.38776815,2/6/25 8:52,b'fossil,Rome_Italy',Rome_Italy,Italy,Rome
b'fossil_Rostov-on-Don_Russia',424.3357849,47.30757036,39.39937182,2/5/25 8:09,b'fossil,Rostov-on-Don_Russia',Rostov-on-Don_Russia,Russia,Rostov-on-Don
b'fossil_Sacramento_USA',425.5604553,38.70363626,-121.6866461,2/8/25 16:34,b'fossil,Sacramento_USA',Sacramento_USA,USA,Sacramento
b'fossil_Salt_Lake_City_USA',426.4620667,41.08987911,-112.2682168,2/18/25 18:14,b'fossil,Salt_Lake_City_USA',Salt_Lake_City_USA,USA,Salt_Lake_City
b'fossil_Samut_Prakan_Thailand',426.8253937,14.11241438,100.2250626,4/20/25 6:05,b'fossil,Samut_Prakan_Thailand',Samut_Prakan_Thailand,Thailand,Samut_Prakan
b'fossil_San_Antonio_USA',424.011322,29.87137109,-98.87906538,2/22/25 16:43,b'fossil,San_Antonio_USA',San_Antonio_USA,USA,San_Antonio
b'fossil_San_Cristobal_Dominican_Republic',425.7105103,18.74797028,-70.34111796,2/1/25 14:12,b'fossil,San_Cristobal_Dominican_Republic',San_Cristobal_Dominican_Republic,Dominican_Republic,San_Cristobal
b'fossil_San_Diego_USA',428.1495361,32.97787758,-116.9230763,4/1/25 18:54,b'fossil,San_Diego_USA',San_Diego_USA,USA,San_Diego
b'fossil_San_Francisco_USA',427.6775208,37.92623002,-121.9162136,3/22/25 23:46,b'fossil,San_Francisco_USA',San_Francisco_USA,USA,San_Francisco
b'fossil_San_Jose_USA',424.9330902,37.34307181,-121.8179384,2/5/25 17:21,b'fossil,San_Jose_USA',San_Jose_USA,USA,San_Jose
b'fossil_Santiago_Chile',423.7217407,-33.43261477,-70.98943,1/4/25 14:09,b'fossil,Santiago_Chile',Santiago_Chile,Chile,Santiago
b'fossil_Sao_Paulo_Brazil',424.1850891,-23.27940244,-46.92685343,1/9/25 10:05,b'fossil,Sao_Paulo_Brazil',Sao_Paulo_Brazil,Brazil,Sao_Paulo
b'fossil_Seattle_USA',426.2905579,47.60971384,-122.5106509,2/8/25 18:12,b'fossil,Seattle_USA',Seattle_USA,USA,Seattle
b'fossil_Seoul_South_Korea',428.4333038,37.63638702,126.714687,2/3/25 1:55,b'fossil,Seoul_South_Korea',Seoul_South_Korea,South_Korea,Seoul
b'fossil_Shanghai_China',428.8327789,31.09702345,121.0703743,3/21/25 7:28,b'fossil,Shanghai_China',Shanghai_China,China,Shanghai
b'fossil_Shantou_China',428.9832458,23.38220455,116.3305591,2/4/25 1:02,b'fossil,Shantou_China',Shantou_China,China,Shantou
b'fossil_Shenyang_China',428.6457977,42.0342872,123.003501,2/7/25 6:48,b'fossil,Shenyang_China',Shenyang_China,China,Shenyang
b'fossil_Singapore_Singapore',427.7587738,1.657433737,103.6799513,3/30/25 3:17,b'fossil,Singapore_Singapore',Singapore_Singapore,Singapore,Singapore
b'fossil_Sohag_Egypt',427.1380005,26.71699781,31.39564472,2/8/25 13:51,b'fossil,Sohag_Egypt',Sohag_Egypt,Egypt,Sohag
b'fossil_St_Petersburg_USA',427.4063416,28.05678563,-82.36032557,2/20/25 16:45,b'fossil,St_Petersburg_USA',St_Petersburg_USA,USA,St_Petersburg
b'fossil_Sydney_Australia',422.6614075,-33.56744884,150.6889253,4/22/25 4:47,b'fossil,Sydney_Australia',Sydney_Australia,Australia,Sydney
b'fossil_Tabriz_Iran',426.9275208,37.97680151,46.12562363,2/5/25 6:32,b'fossil,Tabriz_Iran',Tabriz_Iran,Iran,Tabriz
b'fossil_Taegu_South_Korea',428.867981,30.92789307,120.4223022,3/25/25 5:54,b'fossil,Taegu_South_Korea',Taegu_South_Korea,South_Korea,Taegu
b'fossil_Taichung_Taiwan',427.5550537,24.13749454,120.7255436,2/18/25 4:25,b'fossil,Taichung_Taiwan',Taichung_Taiwan,Taiwan,Taichung
b'fossil_Taipei_Taiwan',428.0586853,24.68325477,121.168107,3/22/25 6:39,b'fossil,Taipei_Taiwan',Taipei_Taiwan,Taiwan,Taipei
b'fossil_Taiyuan_China',429.2565613,38.23273871,112.0756374,2/4/25 2:41,b'fossil,Taiyuan_China',Taiyuan_China,China,Taiyuan
b'fossil_Tehran_Iran',425.8355713,35.4982179,51.14676941,2/13/25 9:51,b'fossil,Tehran_Iran',Tehran_Iran,Iran,Tehran
b'fossil_Tel_Aviv-Yafo_Israel',425.7351532,31.80529274,34.98001382,2/13/25 11:25,b'fossil,Tel_Aviv-Yafo_Israel',Tel_Aviv-Yafo_Israel,Israel,Tel_Aviv-Yafo
b'fossil_Tianjin_China',427.3457947,39.71605505,116.2086385,6/8/25 7:46,b'fossil,Tianjin_China',Tianjin_China,China,Tianjin
b'fossil_Toronto_Canada',423.7181396,43.75443663,-79.83911959,2/9/25 19:08,b'fossil,Toronto_Canada',Toronto_Canada,Canada,Toronto
b'fossil_Urumqi_China',423.6239929,43.89641147,87.25167788,2/13/25 6:42,b'fossil,Urumqi_China',Urumqi_China,China,Urumqi
b'fossil_Vancouver_Canada',426.6969299,49.171438,-122.9648113,2/9/25 20:37,b'fossil,Vancouver_Canada',Vancouver_Canada,Canada,Vancouver
b'fossil_Vienna_Austria',424.5712891,48.32429127,16.13407567,2/8/25 8:54,b'fossil,Vienna_Austria',Vienna_Austria,Austria,Vienna
b'fossil_Washington_DC_USA',424.2086792,38.97472336,-77.47167115,3/22/25 20:39,b'fossil,Washington_DC_USA',Washington_DC_USA,USA,Washington_DC
b'fossil_Wenzhou_China',426.9472961,28.08590967,120.2405116,4/6/25 1:01,b'fossil,Wenzhou_China',Wenzhou_China,China,Wenzhou
b'fossil_Wuhan_China',428.7014771,30.69840492,114.1725516,2/18/25 4:22,b'fossil,Wuhan_China',Wuhan_China,China,Wuhan
b'fossil_Wuxi_China',429.5613098,31.66400263,120.1684425,6/6/25 1:16,b'fossil,Wuxi_China',Wuxi_China,China,Wuxi
b'fossil_Xian_China',424.5901489,34.16555372,108.5008746,3/26/25 6:39,b'fossil,Xian_China',Xian_China,China,Xian
b'fossil_Yinchuan_China',427.0681458,38.76108481,105.7991073,2/7/25 8:22,b'fossil,Yinchuan_China',Yinchuan_China,China,Yinchuan
b'fossil_Zhengzhou_China',429.5495911,34.55144244,113.3808052,2/23/25 1:58,b'fossil,Zhengzhou_China',Zhengzhou_China,China,Zhengzhou
b'fossil_Zibo_China',428.6324005,37.40244758,117.2431809,2/16/25 4:22,b'fossil,Zibo_China',Zibo_China,China,Zibo